{
  "version": 0.6,
  "generator": "Overpass API 0.7.62.8 e802775f",
  "osm3s": {
    "timestamp_osm_base": "2025-10-03T17:57:59Z",
    "timestamp_areas_base": "2025-10-03T13:36:01Z",
    "copyright": "The data included in this document is from www.openstreetmap.org. The data is made available under ODbL."
  },
  "elements": [
    {
      "type": "relation",
      "id": 126410,
      "tags": {
        "admin_level": "2",
        "boundary": "administrative",
        "name": "France - Andorra",
        "name:br": "Fra\u00f1s - Andorra",
        "name:ca": "Fran\u00e7a - Andorra",
        "name:de": "Frankreich - Andorra",
        "name:en": "France - Andorra",
        "name:es": "Francia - Andorra",
        "name:fr": "France - Andorre",
        "name:lt": "Pranc\u016bzija - Andora",
        "name:oc": "Fran\u00e7a - And\u00f2rra",
        "name:pt": "Fran\u00e7a - Andorra",
        "name:ru": "\u0424\u0440\u0430\u043d\u0446\u0438\u044f - \u0410\u043d\u0434\u043e\u0440\u0440\u0430",
        "note": "For explanations please read https://wiki.openstreetmap.org/wiki/France_boundary_pyramidal_construction",
        "source:name:oc": "ieo-bdtopoc",
        "type": "multilinestring",
        "wikidata": "Q2009420"
      }
    }
  ]
}