{
  "version": 0.6,
  "generator": "Overpass API 0.7.62.8 e802775f",
  "osm3s": {
    "timestamp_osm_base": "2025-10-03T17:28:44Z",
    "timestamp_areas_base": "2025-10-03T13:36:01Z",
    "copyright": "The data included in this document is from www.openstreetmap.org. The data is made available under ODbL."
  },
  "elements": [
    {
      "type": "relation",
      "id": 82675,
      "tags": {
        "admin_level": "2",
        "border_type": "nation",
        "boundary": "administrative",
        "name": "France - Espa\u00f1a",
        "name:an": "Francia - Espanya",
        "name:ar": "\u0625\u0633\u0628\u0627\u0646\u064a\u0627 - \u0641\u0631\u0646\u0633\u0627",
        "name:br": "Fra\u00f1s - Spagn",
        "name:ca": "Fran\u00e7a - Espanya",
        "name:de": "Frankreich - Spanien",
        "name:en": "France - Spain",
        "name:es": "Francia - Espa\u00f1a",
        "name:eu": "Frantzia - Espainia",
        "name:fa": "\u0627\u0633\u067e\u0627\u0646\u06cc\u0627 - \u0641\u0631\u0627\u0646\u0633\u0647",
        "name:fr": "France - Espagne",
        "name:lt": "Pranc\u016bzija - Ispanija",
        "name:oc": "Fran\u00e7a - Espanha",
        "name:pt": "Fran\u00e7a - Espanha",
        "name:ru": "\u0424\u0440\u0430\u043d\u0446\u0438\u044f - \u0418\u0441\u043f\u0430\u043d\u0438\u044f",
        "name:ur": "\u0641\u0631\u0627\u0646\u0633 - \u06c1\u0633\u067e\u0627\u0646\u06cc\u06c1",
        "note": "For explanations please read https://wiki.openstreetmap.org/wiki/France_boundary_pyramidal_construction",
        "note:important": "Be careful, this relation is used for France M\u00e9tropolitaine (terres) : please don't add ways in the seas !",
        "source:name:oc": "ieo-bdtopoc",
        "type": "multilinestring",
        "wikidata": "Q2637319",
        "wikipedia": "fr:Fronti\u00e8re entre l'Espagne et la France"
      }
    }
  ]
}