{
  "version": 0.6,
  "generator": "Overpass API 0.7.62.8 e802775f",
  "osm3s": {
    "timestamp_osm_base": "2025-10-03T16:37:48Z",
    "timestamp_areas_base": "2025-10-03T13:36:01Z",
    "copyright": "The data included in this document is from www.openstreetmap.org. The data is made available under ODbL."
  },
  "elements": [
    {
      "type": "relation",
      "id": 54224,
      "tags": {
        "ISO3166-1": "FI",
        "ISO3166-1:alpha2": "FI",
        "ISO3166-1:alpha3": "FIN",
        "ISO3166-1:numeric": "246",
        "admin_level": "2",
        "alt_name:eo": "Finlando;Finnio;Finnujo;Suomio;Suomujo",
        "alt_name:gd": "Su\u00f2maidh",
        "boundary": "administrative",
        "default_language": "fi",
        "driving_side": "right",
        "flag": "https://upload.wikimedia.org/wikipedia/commons/b/bc/Flag_of_Finland.svg",
        "int_name": "Finland",
        "name": "Suomi / Finland",
        "name:ab": "\u0421\u0443\u043e\u043c\u0438",
        "name:ace": "Finlandia",
        "name:af": "Finland",
        "name:als": "Finnland",
        "name:am": "\u134a\u1295\u120b\u1295\u12f5",
        "name:an": "Finlandia",
        "name:ang": "Finnland",
        "name:ar": "\u0641\u0646\u0644\u0646\u062f\u0627",
        "name:arc": "\u0726\u0722\u0720\u0722\u0715\u0710",
        "name:arz": "\u0641\u064a\u0646\u0644\u0627\u0646\u062f\u0627",
        "name:ast": "Finlandia",
        "name:ay": "Phini suyu",
        "name:az": "Finlandiya",
        "name:ba": "\u0424\u0438\u043d\u043b\u044f\u043d\u0434\u0438\u044f",
        "name:bar": "Finnl\u00e5nd",
        "name:bat-smg": "Soum\u0117j\u0117",
        "name:bcl": "Finlandya",
        "name:be": "\u0424\u0456\u043d\u043b\u044f\u043d\u0434\u044b\u044f",
        "name:be-tarask": "\u0424\u0456\u043d\u043b\u044f\u043d\u0434\u044b\u044f",
        "name:bg": "\u0424\u0438\u043d\u043b\u0430\u043d\u0434\u0438\u044f",
        "name:bi": "Finland",
        "name:bm": "Finland",
        "name:bn": "\u09ab\u09bf\u09a8\u09b2\u09cd\u09af\u09be\u09a8\u09cd\u09a1",
        "name:bo": "\u0f67\u0fa5\u0f72\u0f53\u0f0b\u0f63\u0f53",
        "name:bpy": "\u09ab\u09bf\u09a8\u09b2\u09cd\u09af\u09be\u09a8\u09cd\u09a1",
        "name:br": "Finland",
        "name:bs": "Finska",
        "name:bxr": "\u0424\u0438\u043d\u043b\u0430\u043d\u0434",
        "name:ca": "Finl\u00e0ndia",
        "name:cdo": "H\u016dng-l\u00e0ng",
        "name:ce": "\u0424\u0438\u043d\u043b\u044f\u043d\u0434\u0438",
        "name:ceb": "Finlandia",
        "name:chr": "\u13eb\u13c2\u13a6\u13d9\u13af",
        "name:ckb": "\u0641\u06cc\u0646\u0644\u0627\u0646\u062f",
        "name:co": "Finlandia",
        "name:crh": "Finlandiya",
        "name:cs": "Finsko",
        "name:csb": "Fi\u0144sk\u00f4",
        "name:cu": "\u0421\u043e\u0443\u043c\u044c",
        "name:cv": "\u0424\u0438\u043d\u043b\u044f\u043d\u0434\u0438",
        "name:cy": "Y Ffindir",
        "name:da": "Finland",
        "name:de": "Finnland",
        "name:din": "Pinl\u025bn",
        "name:diq": "Finlanda",
        "name:dsb": "Finska",
        "name:dv": "\u078a\u07a8\u0782\u07b0\u078d\u07ad\u0782\u07b0\u0791\u07aa",
        "name:dz": "\u0f55\u0f72\u0f53\u0f0b\u0f63\u0f7a\u0f53\u0f4c\u0f0b",
        "name:ee": "Finland",
        "name:el": "\u03a6\u03b9\u03bd\u03bb\u03b1\u03bd\u03b4\u03af\u03b1",
        "name:en": "Finland",
        "name:eo": "Finnlando",
        "name:es": "Finlandia",
        "name:et": "Soome",
        "name:eu": "Finlandia",
        "name:ext": "Finl\u00e1ndia",
        "name:fa": "\u0641\u0646\u0644\u0627\u0646\u062f",
        "name:fi": "Suomi",
        "name:fo": "Finnland",
        "name:fr": "Finlande",
        "name:frp": "Finlande",
        "name:frr": "Finl\u00f6nj",
        "name:fur": "Finlande",
        "name:fy": "Finl\u00e2n",
        "name:ga": "An Fhionlainn",
        "name:gag": "Finlandiya",
        "name:gan": "\u82ac\u862d",
        "name:gd": "An Fhionnlann",
        "name:gl": "Finlandia",
        "name:gn": "H\u0129landia",
        "name:gsw": "Finnl\u00e0nd",
        "name:gu": "\u0aab\u0ac0\u0aa8\u0ab2\u0ac7\u0a82\u0aa1",
        "name:gv": "Finnlynn",
        "name:hak": "F\u00fbn-l\u00e0n",
        "name:haw": "Pinilana",
        "name:he": "\u05e4\u05d9\u05e0\u05dc\u05e0\u05d3",
        "name:hi": "\u092b\u093c\u093f\u0928\u0932\u0948\u0902\u0921",
        "name:hif": "Finland",
        "name:hr": "Finska",
        "name:hsb": "Finska",
        "name:ht": "Fenlann",
        "name:hu": "Finnorsz\u00e1g",
        "name:hy": "\u0556\u056b\u0576\u056c\u0561\u0576\u0564\u056b\u0561",
        "name:ia": "Finlandia",
        "name:id": "Finlandia",
        "name:ie": "Finland",
        "name:ig": "Finland",
        "name:ilo": "Finlandia",
        "name:io": "Finlando",
        "name:is": "Finnland",
        "name:it": "Finlandia",
        "name:iu": "\u1403\u14d0\u14da\u14d0\u1466",
        "name:ja": "\u30d5\u30a3\u30f3\u30e9\u30f3\u30c9",
        "name:jbo": "finland",
        "name:jv": "Finlandia",
        "name:ka": "\u10e4\u10d8\u10dc\u10d4\u10d7\u10d8",
        "name:kaa": "Finlyandiya",
        "name:kbd": "\u0424\u0438\u043d\u043b\u044d\u043d\u0434",
        "name:kg": "Finlandi",
        "name:ki": "Finland",
        "name:kk": "\u0424\u0438\u043d\u043b\u0430\u043d\u0434\u0438\u044f",
        "name:kl": "Finlandi",
        "name:kn": "\u0cab\u0cbf\u0ca8\u0ccd\u200d\u0cb2\u0ccd\u0caf\u0cbe\u0c82\u0ca1\u0ccd",
        "name:ko": "\ud540\ub780\ub4dc",
        "name:koi": "\u0421\u0443\u043e\u043c\u0438",
        "name:krc": "\u0424\u0438\u043d\u043b\u044f\u043d\u0434\u0438\u044f",
        "name:ks": "\u0641\u0646\u0646\u0634",
        "name:ksh": "Finnlandt",
        "name:ku": "F\u00eenland",
        "name:kv": "\u0424\u0438\u043d\u043b\u044f\u043d\u0434\u0438\u044f",
        "name:kw": "Pow Finn",
        "name:ky": "\u0424\u0438\u043d\u043b\u044f\u043d\u0434\u0438\u044f",
        "name:la": "Finnia",
        "name:lad": "Finlandia",
        "name:lb": "Finnland",
        "name:lez": "\u0424\u0438\u043d\u043b\u044f\u043d\u0434\u0438\u044f",
        "name:lg": "Finilandi",
        "name:li": "Finland",
        "name:lij": "Finlandia",
        "name:lmo": "Finlandia",
        "name:ln": "Finilanda",
        "name:lt": "Suomija",
        "name:ltg": "Suomeja",
        "name:lv": "Somija",
        "name:lzh": "\u82ac\u862d",
        "name:mdf": "\u0421\u0443\u043e\u043c\u0438 \u043c\u0430\u0441\u0442\u043e\u0440",
        "name:mg": "Finlandy",
        "name:mhr": "\u0421\u0443\u043e\u043c\u0438 \u042d\u043b",
        "name:mi": "Whinarana",
        "name:mk": "\u0424\u0438\u043d\u0441\u043a\u0430",
        "name:ml": "\u0d2b\u0d3f\u0d7b\u0d32\u0d3e\u0d28\u0d4d\u0d31\u0d4d",
        "name:mn": "\u0424\u0438\u043d\u043b\u044f\u043d\u0434",
        "name:mr": "\u092b\u093f\u0928\u0932\u0902\u0921",
        "name:mrj": "\u0424\u0438\u043d\u043b\u044f\u043d\u0434\u0438",
        "name:ms": "Finland",
        "name:mt": "Finlandja",
        "name:my": "\u1016\u1004\u103a\u101c\u1014\u103a\u1014\u102d\u102f\u1004\u103a\u1004\u1036",
        "name:myv": "\u0421\u0443\u043e\u043c\u0438 \u041c\u0430\u0441\u0442\u043e\u0440",
        "name:na": "Finland",
        "name:nah": "Fintl\u0101lpan",
        "name:nan": "Suomi",
        "name:nds": "Finnland",
        "name:nds-nl": "Finlaand",
        "name:ne": "\u092b\u093f\u0928\u0932\u094d\u092f\u093e\u0923\u094d\u0921",
        "name:new": "\u092b\u093f\u0928\u0932\u094d\u092f\u093e\u0928\u094d\u0921",
        "name:nl": "Finland",
        "name:nn": "Finland",
        "name:no": "Finland",
        "name:nov": "Finlande",
        "name:nrm": "F\u00eenlande",
        "name:nv": "Nahodits\u02bc\u01eb\u02bc\u0142\u00e1n\u00ed",
        "name:oc": "Finl\u00e0ndia",
        "name:or": "\u0b2b\u0b3f\u0b28\u0b32\u0b4d\u0b5f\u0b3e\u0b23\u0b4d\u0b21",
        "name:os": "\u0424\u0438\u043d\u043b\u044f\u043d\u0434\u0438",
        "name:pa": "\u0a2b\u0a3c\u0a3f\u0a28\u0a32\u0a48\u0a02\u0a21",
        "name:pam": "Finland",
        "name:pap": "Finlandia",
        "name:pcd": "Finlinde",
        "name:pih": "Finland",
        "name:pl": "Finlandia",
        "name:pms": "Finlandia",
        "name:pnb": "\u0641\u0646\u0644\u06cc\u0646\u0688",
        "name:pnt": "\u03a6\u03b9\u03bd\u03bb\u03b1\u03bd\u03b4\u03af\u03b1",
        "name:ps": "\u0641\u06d0\u0646\u0644\u0627\u0646\u0689",
        "name:pt": "Finl\u00e2ndia",
        "name:qu": "Phinsuyu",
        "name:rm": "Finlanda",
        "name:rmy": "Finland",
        "name:ro": "Finlanda",
        "name:roa-rup": "Finlanda",
        "name:roa-tara": "Finlandie",
        "name:ru": "\u0424\u0438\u043d\u043b\u044f\u043d\u0434\u0438\u044f",
        "name:rue": "\u0424\u0456\u043d\u044c\u0441\u043a\u043e",
        "name:rw": "Finilande",
        "name:sa": "\u092b\u093f\u0928\u094d\u0932\u0948\u0902\u0921",
        "name:sah": "\u0424\u0438\u043d\u043b\u044f\u043d\u0434\u0438\u044f",
        "name:sc": "Finlandia",
        "name:scn": "Finlandia",
        "name:sco": "Finland",
        "name:se": "Suopma",
        "name:sh": "Finska",
        "name:si": "\u0dc6\u0dd2\u0db1\u0dca\u0dbd\u0db1\u0dca\u0dad\u0dba",
        "name:sje": "Suobma",
        "name:sk": "F\u00ednsko",
        "name:sl": "Finska",
        "name:sm": "Finalagi",
        "name:smn": "Suom\u00e2",
        "name:sms": "L\u00e4\u00e4\u02b9ddj\u00e2nnam",
        "name:so": "Finland",
        "name:sq": "Finlanda",
        "name:sr": "\u0424\u0438\u043d\u0441\u043a\u0430",
        "name:srn": "Finland",
        "name:ss": "IFini",
        "name:st": "Finland",
        "name:stq": "Finlound",
        "name:su": "Finlandia",
        "name:sv": "Finland",
        "name:sw": "Ufini",
        "name:szl": "Finland",
        "name:ta": "\u0baa\u0bbf\u0ba9\u0bcd\u0bb2\u0bbe\u0ba8\u0bcd\u0ba4\u0bc1",
        "name:te": "\u0c2b\u0c3f\u0c28\u0c4d\u0c32\u0c46\u0c02\u0c21\u0c4d",
        "name:tet": "Finl\u00e1ndia",
        "name:tg": "\u0424\u0438\u043d\u043b\u0430\u043d\u0434",
        "name:th": "\u0e1b\u0e23\u0e30\u0e40\u0e17\u0e28\u0e1f\u0e34\u0e19\u0e41\u0e25\u0e19\u0e14\u0e4c",
        "name:tk": "Finl\u00fdandi\u00fda",
        "name:tl": "Pinlandiya",
        "name:tok": "ma Sumi",
        "name:tpi": "Pinlan",
        "name:tr": "Finlandiya",
        "name:tt": "\u0424\u0438\u043d\u043b\u04d9\u043d\u0434\u0438\u044f",
        "name:tzl": "Finph\u00e4ts",
        "name:udm": "\u0424\u0438\u043d\u043b\u044f\u043d\u0434\u0438\u044f",
        "name:ug": "\u0641\u0649\u0646\u0644\u0627\u0646\u062f\u0649\u064a\u06d5",
        "name:uk": "\u0424\u0456\u043d\u043b\u044f\u043d\u0434\u0456\u044f",
        "name:ur": "\u0641\u0646 \u0644\u06cc\u0646\u0688",
        "name:uz": "Finlandiya",
        "name:vec": "Finlandia",
        "name:vep": "Suomenma",
        "name:vi": "Ph\u1ea7n Lan",
        "name:vls": "Finland",
        "name:vo": "Suomiy\u00e4n",
        "name:vro": "Soom\u00f5",
        "name:wa": "Finlande",
        "name:war": "Finlandya",
        "name:wo": "Finlaand",
        "name:wuu": "\u82ac\u5170",
        "name:xal": "\u0421\u0443\u04bb\u043e\u043c\u0443\u0434\u0438\u043d \u041e\u0440\u043d",
        "name:xmf": "\u10e4\u10d8\u10dc\u10d4\u10d7\u10d8",
        "name:yi": "\u05e4\u05d9\u05e0\u05dc\u05d0\u05e0\u05d3",
        "name:yo": "Finlandi",
        "name:yue": "\u82ac\u862d",
        "name:za": "Finlan",
        "name:zea": "Finland",
        "name:zh": "\u82ac\u5170",
        "name:zh-Hans": "\u82ac\u5170",
        "name:zh-Hant": "\u82ac\u862d",
        "name:zh-Latn-pinyin": "F\u0113nl\u00e1n",
        "name:zu": "IFinlandi",
        "official_name": "Suomen tasavalta / Republiken Finland",
        "official_name:ar": "\u062c\u0645\u0647\u0648\u0631\u064a\u0629 \u0641\u0646\u0644\u0646\u062f\u0627",
        "official_name:be": "\u0424\u0456\u043d\u043b\u044f\u043d\u0434\u0441\u043a\u0430\u044f \u0420\u044d\u0441\u043f\u0443\u0431\u043b\u0456\u043a\u0430",
        "official_name:ca": "Rep\u00fablica de Finl\u00e0ndia",
        "official_name:cs": "Finsk\u00e1 republika",
        "official_name:da": "Repbulikken Finland",
        "official_name:de": "Republik Finnland",
        "official_name:el": "\u0394\u03b7\u03bc\u03bf\u03ba\u03c1\u03b1\u03c4\u03af\u03b1 \u03c4\u03b7\u03c2 \u03a6\u03b9\u03bd\u03bb\u03b1\u03bd\u03b4\u03af\u03b1\u03c2",
        "official_name:en": "Republic of Finland",
        "official_name:eo": "Respubliko Finnlando",
        "official_name:es": "Rep\u00fablica de Finlandia",
        "official_name:et": "Soome Vabariik",
        "official_name:fa": "\u062c\u0645\u0647\u0648\u0631\u06cc \u0641\u0646\u0644\u0627\u0646\u062f",
        "official_name:fi": "Suomen tasavalta",
        "official_name:fr": "R\u00e9publique de Finlande",
        "official_name:id": "Republik Finlandia",
        "official_name:is": "L\u00fd\u00f0veldi\u00f0 Finnland",
        "official_name:it": "Repubblica di Finlandia",
        "official_name:ja": "\u30d5\u30a3\u30f3\u30e9\u30f3\u30c9\u5171\u548c\u56fd",
        "official_name:lt": "Suomijos Respublika",
        "official_name:nn": "Republikken Finland",
        "official_name:no": "Republikken Finland",
        "official_name:pl": "Republika Finlandii",
        "official_name:pt": "Rep\u00fablica da Finl\u00e2ndia",
        "official_name:ru": "\u0424\u0438\u043d\u043b\u044f\u043d\u0434\u0441\u043a\u0430\u044f \u0420\u0435\u0441\u043f\u0443\u0431\u043b\u0438\u043a\u0430",
        "official_name:se": "Suoma d\u00e1ssev\u00e1ldi",
        "official_name:sk": "F\u00ednska republika",
        "official_name:sv": "Republiken Finland",
        "official_name:ur": "\u062c\u0645\u06c1\u0648\u0631\u06cc\u06c1 \u0641\u0646 \u0644\u06cc\u0646\u0688",
        "official_name:vi": "C\u1ed9ng h\u00f2a Ph\u1ea7n Lan",
        "official_name:zh": "\u82ac\u5170\u5171\u548c\u56fd",
        "official_name:zh-Hans": "\u82ac\u5170\u5171\u548c\u56fd",
        "official_name:zh-Hant": "\u82ac\u862d\u5171\u548c\u570b",
        "type": "boundary",
        "website": "https://www.finland.fi/",
        "wikidata": "Q33",
        "wikipedia": "fi:Suomi"
      }
    },
    {
      "type": "relation",
      "id": 37355,
      "tags": {
        "ISO3166-2": "FI-18",
        "admin_level": "4",
        "alt_name:la": "Terra Nova",
        "boundary": "administrative",
        "name": "Uusimaa",
        "name:en": "Uusimaa",
        "name:fi": "Uusimaa",
        "name:hu": "Uusimaa",
        "name:la": "Nylandia",
        "name:ru": "\u0423\u0443\u0441\u0438\u043c\u0430\u0430",
        "name:sv": "Nyland",
        "official_name": "Uudenmaan maakunta",
        "official_name:en": "Uusimaa",
        "official_name:fi": "Uudenmaan maakunta",
        "official_name:sv": "Nylands landskap",
        "ref": "FI181",
        "ref:nuts": "FI1B;FI1B1",
        "ref:nuts:2": "FI1B",
        "ref:nuts:3": "FI1B1",
        "source:ref": "http://fi.wikipedia.org/wiki/NUTS:FI",
        "type": "boundary",
        "wikidata": "Q5711",
        "wikipedia": "fi:Uudenmaan maakunta"
      }
    },
    {
      "type": "relation",
      "id": 38092,
      "tags": {
        "ISO3166-2": "FI-19",
        "admin_level": "4",
        "alt_name:en": "Finland Proper",
        "alt_name:es": "Finlandia del Sudoeste",
        "alt_name:ru": "\u0421\u043e\u0431\u0441\u0442\u0432\u0435\u043d\u043d\u043e \u0424\u0438\u043d\u043b\u044f\u043d\u0434\u0438\u044f",
        "boundary": "administrative",
        "name": "Varsinais-Suomi",
        "name:ast": "Finlandia del Sudoeste",
        "name:bs": "Jugozapadna Finska",
        "name:cs": "Vlastn\u00ed Finsko",
        "name:da": "Egentlige Finland",
        "name:de": "Eigentliches Finnland",
        "name:en": "Southwest Finland",
        "name:eo": "Origina Finnlando",
        "name:es": "Finlandia Propia",
        "name:et": "P\u00e4ris-Soome",
        "name:fi": "Varsinais-Suomi",
        "name:fr": "Finlande-Propre",
        "name:frr": "Eegentelk Finlun",
        "name:ga": "Iardheisceart na Fionlainne",
        "name:hu": "Val\u00f3di Finnorsz\u00e1g",
        "name:is": "Su\u00f0vestur-Finnland",
        "name:la": "Finnia Propria",
        "name:lt": "Pietvakari\u0173 Suomija",
        "name:lv": "\u012ast\u0101 Somija",
        "name:nl": "Zuidwest-Finland",
        "name:no": "Egentliga Finland",
        "name:pl": "Finlandia Po\u0142udniowo-Zachodnia",
        "name:pt": "Finl\u00e2ndia Pr\u00f3pria",
        "name:ro": "Finlanda Propriu-Zis\u0103",
        "name:ru": "\u0412\u0430\u0440\u0441\u0438\u043d\u0430\u0439\u0441-\u0421\u0443\u043e\u043c\u0438",
        "name:se": "Varsinais-Suopma",
        "name:smn": "Varsinais-Suom\u00e2",
        "name:sq": "Finlanda Jugper\u00ebndimore",
        "name:sv": "Egentliga Finland",
        "name:tr": "G\u00fcneybat\u0131 Finlandiya",
        "name:uk": "\u041f\u0456\u0432\u0434\u0435\u043d\u043d\u043e-\u0417\u0430\u0445\u0456\u0434\u043d\u0430 \u0424\u0456\u043d\u043b\u044f\u043d\u0434\u0456\u044f",
        "name:zh": "\u897f\u5357\u82ac\u862d\u5340",
        "official_name": "Varsinais-Suomen maakunta",
        "official_name:en": "Southwest Finland County",
        "official_name:fi": "Varsinais-Suomen maakunta",
        "official_name:sv": "Landskapet Egentliga Finland",
        "ref": "FI183",
        "ref:nuts": "FI1C1",
        "ref:nuts:3": "FI1C1",
        "type": "boundary",
        "wikidata": "Q5712",
        "wikipedia": "fi:Varsinais-Suomen maakunta"
      }
    },
    {
      "type": "relation",
      "id": 918897,
      "tags": {
        "ISO3166-2": "FI-04",
        "admin_level": "4",
        "boundary": "administrative",
        "name": "Etel\u00e4-Savo",
        "name:cs": "Ji\u017en\u00ed Savo",
        "name:de": "S\u00fcdsavo",
        "name:en": "South Savo",
        "name:fi": "Etel\u00e4-Savo",
        "name:fr": "Savonie du Sud",
        "name:hu": "D\u00e9l-Szav\u00f3nia",
        "name:nl": "Zuid-Savo",
        "name:ru": "\u042d\u0442\u0435\u043b\u044f-\u0421\u0430\u0432\u043e",
        "name:se": "Lulli-Savo",
        "name:sv": "S\u00f6dra Savolax",
        "official_name:en": "South Savo",
        "ref": "FI131",
        "ref:nuts": "FI1DA",
        "ref:nuts:3": "FI1DA",
        "type": "boundary",
        "wikidata": "Q5693",
        "wikipedia": "fi:Etel\u00e4-Savon maakunta"
      }
    },
    {
      "type": "relation",
      "id": 918898,
      "tags": {
        "ISO3166-2": "FI-15",
        "admin_level": "4",
        "boundary": "administrative",
        "name": "Pohjois-Savo",
        "name:ast": "Savonia del Norte",
        "name:az": "\u015eimali Savoniya",
        "name:bs": "Sjeverna Savonija",
        "name:ca": "Sav\u00f2nia del Nord",
        "name:cs": "Severn\u00ed Savo",
        "name:da": "Norra Savolax",
        "name:de": "Nord-Savo",
        "name:en": "North Savo",
        "name:eo": "Norda Savonio",
        "name:et": "P\u00f5hja-Savo",
        "name:fi": "Pohjois-Savo",
        "name:fr": "Savonie du Nord",
        "name:ga": "tSabh\u00f3in Thuaidh",
        "name:he": "\u05e1\u05d0\u05d1\u05d5 \u05d4\u05e6\u05e4\u05d5\u05e0\u05d9\u05ea",
        "name:hu": "\u00c9szak-Szav\u00f3nia",
        "name:is": "Nor\u00f0ur-Savon\u00eda",
        "name:ja": "\u5317\u30b5\u30f4\u30a9\u770c",
        "name:ko": "\ubd81\uc0ac\ubcf4 \uc9c0\uc5ed",
        "name:koi": "\u041f\u043e\u0445\u044c\u0451\u0439\u0441 \u0421\u0430\u0432\u043e",
        "name:la": "Savonia Septentrionalis",
        "name:lt": "\u0160iaur\u0117s Savas",
        "name:lv": "Zieme\u013csavo",
        "name:nl": "Noord-Savo",
        "name:no": "Norra Savolax",
        "name:pl": "Sawonia P\u00f3\u0142nocna",
        "name:pt": "Sav\u00f4nia do Norte",
        "name:ro": "Savonia de Nord",
        "name:ru": "\u0421\u0435\u0432\u0435\u0440\u043d\u043e\u0435 \u0421\u0430\u0432\u043e",
        "name:se": "Davvi-Savo",
        "name:sh": "Sjeverna Savonija",
        "name:sq": "Savonia Veriore",
        "name:sv": "Norra Savolax",
        "name:tr": "Kuzey Savonya",
        "name:zh": "\u5317\u85a9\u6c83\u5340",
        "official_name:en": "North Savo",
        "ref": "FI132",
        "ref:nuts": "FI1DB",
        "ref:nuts:3": "FI1DB",
        "type": "boundary",
        "wikidata": "Q5706"
      }
    },
    {
      "type": "relation",
      "id": 1473990,
      "tags": {
        "ISO3166-2": "FI-06",
        "admin_level": "4",
        "alt_name:en": "Tavastia Proper",
        "boundary": "administrative",
        "name": "Kanta-H\u00e4me",
        "name:de": "Eigentliche H\u00e4me",
        "name:en": "Kanta-H\u00e4me",
        "name:fi": "Kanta-H\u00e4me",
        "name:hu": "Kanta H\u00e4me",
        "name:ru": "\u041a\u0430\u043d\u0442\u0430-\u0425\u044f\u043c\u0435",
        "name:sv": "Egentliga Tavastland",
        "official_name:en": "Kanta-H\u00e4me",
        "ref": "FI184",
        "ref:nuts": "FI1C2",
        "ref:nuts:3": "FI1C2",
        "type": "boundary",
        "wikidata": "Q5695",
        "wikipedia": "fi:Kanta-H\u00e4meen maakunta"
      }
    },
    {
      "type": "relation",
      "id": 1701740,
      "tags": {
        "ISO3166-2": "FI-08",
        "admin_level": "4",
        "boundary": "administrative",
        "name": "Keski-Suomi",
        "name:avk": "Keski-Suomi Gola",
        "name:az": "M\u0259rk\u0259zi Finlandiya",
        "name:bs": "Centralna Finska",
        "name:cs": "St\u0159edn\u00ed Finsko",
        "name:de": "Mittelfinnland",
        "name:en": "Central Finland",
        "name:et": "Kesk-Soome",
        "name:eu": "Erdialdeko Finlandia",
        "name:fi": "Keski-Suomi",
        "name:fr": "Finlande centrale",
        "name:ga": "L\u00e1r na Fionlainne",
        "name:hu": "K\u00f6z\u00e9p-Finnorsz\u00e1g",
        "name:id": "Finlandia Tengah",
        "name:is": "Mi\u00f0-Finnland",
        "name:lt": "Vidurio Suomija",
        "name:lv": "Vidussomija",
        "name:nl": "Centraal-Finland",
        "name:pl": "Finlandia \u015arodkowa",
        "name:pt": "Finl\u00e2ndia Central",
        "name:ru": "\u0426\u0435\u043d\u0442\u0440\u0430\u043b\u044c\u043d\u0430\u044f \u0424\u0438\u043d\u043b\u044f\u043d\u0434\u0438\u044f",
        "name:sq": "Finlanda Qendrore",
        "name:sv": "Mellersta Finland",
        "name:tr": "Orta Finlandiya",
        "name:zh": "\u4e2d\u82ac\u862d\u5340",
        "official_name:en": "Central Finland",
        "ref": "FI193",
        "ref:nuts": "FI198",
        "ref:nuts:3": "FI198",
        "type": "boundary",
        "wikidata": "Q5697"
      }
    },
    {
      "type": "relation",
      "id": 1701741,
      "tags": {
        "ISO3166-2": "FI-11",
        "admin_level": "4",
        "boundary": "administrative",
        "name": "Pirkanmaa",
        "name:en": "Pirkanmaa",
        "name:fi": "Pirkanmaa",
        "name:hu": "Pirkanmaa",
        "name:lt": "Pirkanma",
        "name:ru": "\u041f\u0438\u0440\u043a\u0430\u043d\u043c\u0430\u0430",
        "name:sv": "Birkaland",
        "official_name:en": "Pirkanmaa",
        "old_ref": "FI192",
        "ref": "FI197",
        "ref:nuts": "FI19B",
        "ref:nuts:3": "FI19B",
        "type": "boundary",
        "wikidata": "Q5701",
        "wikipedia": "fi:Pirkanmaan maakunta"
      }
    },
    {
      "type": "relation",
      "id": 1702263,
      "tags": {
        "ISO3166-2": "FI-03",
        "admin_level": "4",
        "boundary": "administrative",
        "name": "Etel\u00e4-Pohjanmaa",
        "name:ast": "Ostrobotnia del Sur",
        "name:az": "C\u0259nubi Ostrobotniya",
        "name:bs": "Ju\u017ena Ostrobotnija",
        "name:ca": "Ostrob\u00f2tnia del Sud",
        "name:cs": "Ji\u017en\u00ed Pohjanmaa",
        "name:de": "S\u00fcd\u00f6sterbotten",
        "name:en": "South Ostrobothnia",
        "name:eo": "Suda Ostrobotnio",
        "name:fi": "Etel\u00e4-Pohjanmaa",
        "name:fr": "Ostrobotnie du Sud",
        "name:ga": "Ostrab\u00f3itne Theas",
        "name:hu": "D\u00e9l-Pohjanmaa",
        "name:is": "Su\u00f0ur-Austurbotn",
        "name:lt": "Piet\u0173 Pohjanma",
        "name:lv": "Dienvidpohjanm\u0101",
        "name:nl": "Zuid-Oost-Botni\u00eb",
        "name:pl": "Ostrobotnia Po\u0142udniowa",
        "name:pt": "Ostrob\u00f3tnia do Sul",
        "name:ro": "Ostrobotnia de Sud",
        "name:ru": "\u042d\u0442\u0435\u043b\u044f-\u041f\u043e\u0445\u044c\u044f\u043d\u043c\u0430\u0430",
        "name:sh": "Ju\u017ena Ostrobotnija",
        "name:sq": "Ostrobothnia Jugore",
        "name:sv": "S\u00f6dra \u00d6sterbotten",
        "name:tr": "G\u00fcney Ostrobotniya",
        "name:zh": "\u5357\u535a\u6ed5\u5340",
        "official_name:en": "South Ostrobothnia",
        "ref": "FI194",
        "ref:nuts": "FI199",
        "ref:nuts:3": "FI199",
        "type": "boundary",
        "wikidata": "Q5692",
        "wikipedia": "fi:Etel\u00e4-Pohjanmaan maakunta"
      }
    },
    {
      "type": "relation",
      "id": 1702330,
      "tags": {
        "ISO3166-2": "FI-07",
        "admin_level": "4",
        "boundary": "administrative",
        "name": "Keski-Pohjanmaa",
        "name:cs": "St\u0159edn\u00ed Pohjanmaa",
        "name:de": "Mittel\u00f6sterbotten",
        "name:en": "Central Ostrobothnia",
        "name:fi": "Keski-Pohjanmaa",
        "name:fr": "Ostrobotnie centrale",
        "name:hu": "K\u00f6z\u00e9p-Pohjanmaa",
        "name:nl": "Centraal-Oost-Botni\u00eb",
        "name:ru": "\u041a\u0435\u0441\u043a\u0438-\u041f\u043e\u0445\u044c\u044f\u043d\u043c\u0430\u0430",
        "name:sv": "Mellersta \u00d6sterbotten",
        "official_name:en": "Central Ostrobothnia",
        "ref": "FI1A1",
        "ref:nuts": "FI1D5",
        "ref:nuts:3": "FI1D5",
        "type": "boundary",
        "wikidata": "Q5696"
      }
    },
    {
      "type": "relation",
      "id": 1703362,
      "tags": {
        "ISO3166-2": "FI-16",
        "admin_level": "4",
        "boundary": "administrative",
        "name": "P\u00e4ij\u00e4t-H\u00e4me",
        "name:en": "P\u00e4ij\u00e4t-H\u00e4me",
        "name:fi": "P\u00e4ij\u00e4t-H\u00e4me",
        "name:hu": "P\u00e4ij\u00e4t-H\u00e4me",
        "name:ru": "\u041f\u044f\u0439\u044f\u0442-\u0425\u044f\u043c\u0435",
        "name:sv": "P\u00e4ij\u00e4nne-Tavastland",
        "official_name:en": "P\u00e4ij\u00e4t-H\u00e4me",
        "ref": "FI185",
        "ref:nuts": "FI1C6",
        "ref:nuts:3": "FI1C6",
        "type": "boundary",
        "wikidata": "Q5708",
        "wikipedia": "fi:P\u00e4ij\u00e4t-H\u00e4meen maakunta"
      }
    },
    {
      "type": "relation",
      "id": 1724359,
      "tags": {
        "ISO3166-2": "FI-10",
        "admin_level": "4",
        "alt_name:eo": "Sameujo;Laponio;Laponujo",
        "alt_name:nl": "Samenland",
        "boundary": "administrative",
        "int_name": "Lappi",
        "name": "Lappi",
        "name:cs": "Laponsko (Finsko)",
        "name:de": "Lappland",
        "name:en": "Lapland",
        "name:eo": "Sameio",
        "name:fi": "Lappi",
        "name:fr": "Laponie",
        "name:fy": "Lapl\u00e2n",
        "name:hu": "Lappf\u00f6ld",
        "name:it": "Lapponia",
        "name:kw": "Pow an Sami",
        "name:nl": "Lapland",
        "name:pt": "Lap\u00f3nia",
        "name:ru": "\u041b\u0430\u043f\u043b\u0430\u043d\u0434\u0438\u044f",
        "name:se": "S\u00e1pmi",
        "name:sk": "Laponsko",
        "name:sv": "Lappland",
        "name:tok": "ma Sami",
        "name:vo": "Samiy\u00e4n",
        "official_name:en": "Lapland",
        "ref": "FI1A3",
        "ref:nuts": "FI1D7",
        "ref:nuts:3": "FI1D7",
        "type": "boundary",
        "wikidata": "Q5700",
        "wikipedia": "fi:Lapin maakunta"
      }
    },
    {
      "type": "relation",
      "id": 1724360,
      "tags": {
        "ISO3166-2": "FI-14",
        "admin_level": "4",
        "alt_name:en": "Northern Ostrobothnia",
        "boundary": "administrative",
        "name": "Pohjois-Pohjanmaa",
        "name:ast": "Ostrobotnia del Norte",
        "name:az": "\u015eimali Ostrobotniya",
        "name:bs": "Sjeverna Ostrobotnija",
        "name:ca": "Ostrob\u00f2tnia del Nord",
        "name:cs": "Severn\u00ed Pohjanmaa",
        "name:da": "Norra \u00d6sterbotten",
        "name:de": "Nord\u00f6sterbotten",
        "name:el": "\u0392\u03cc\u03c1\u03b5\u03b9\u03b1 \u039f\u03c3\u03c4\u03c1\u03bf\u03b2\u03cc\u03b8\u03bd\u03b9\u03b1",
        "name:en": "North Ostrobothnia",
        "name:eo": "Norda Ostrobotnio",
        "name:fi": "Pohjois-Pohjanmaa",
        "name:fr": "Ostrobotnie du Nord",
        "name:frr": "Nuurd\u00f6sterbotten",
        "name:he": "\u05d0\u05d5\u05e1\u05d8\u05e8\u05d5\u05d1\u05d5\u05d8\u05e0\u05d9\u05d4 \u05d4\u05e6\u05e4\u05d5\u05e0\u05d9\u05ea",
        "name:hu": "\u00c9szak-Pohjanmaa",
        "name:hy": "\u0540\u0575\u0578\u0582\u057d\u056b\u057d\u0561\u0575\u056b\u0576 \u0555\u057d\u057f\u0580\u0578\u0562\u0578\u057f\u0576\u056b\u0561",
        "name:is": "Nor\u00f0ur-Austurbotn",
        "name:lt": "\u0160iaur\u0117s Pohjanma",
        "name:lv": "Zieme\u013cpohjanm\u0101",
        "name:mk": "\u0421\u0435\u0432\u0435\u0440\u043d\u0430 \u041e\u0441\u0442\u0440\u043e\u0431\u043e\u0442\u043d\u0438\u0458\u0430",
        "name:nl": "Noord-Oost-Botni\u00eb",
        "name:pl": "Ostrobotnia P\u00f3\u0142nocna",
        "name:pt": "Ostrob\u00f3tnia do Norte",
        "name:ro": "Ostrobotnia de Nord",
        "name:ru": "\u041f\u043e\u0445\u044c\u043e\u0439\u0441-\u041f\u043e\u0445\u044c\u044f\u043d\u043c\u0430\u0430",
        "name:se": "Davvi-Pohjanmaa",
        "name:sh": "Sjeverna Ostrobotnija",
        "name:sq": "Ostrobothnia Veriore",
        "name:sv": "Norra \u00d6sterbotten",
        "name:tr": "Kuzey Ostrobotniya",
        "name:zh": "\u5317\u535a\u6ed5\u5340",
        "official_name:en": "North Ostrobothnia",
        "ref": "FI1A2",
        "ref:nuts": "FI1D9",
        "ref:nuts:3": "FI1D9",
        "type": "boundary",
        "wikidata": "Q5704"
      }
    },
    {
      "type": "relation",
      "id": 1997164,
      "tags": {
        "ISO3166-2": "FI-05",
        "admin_level": "4",
        "alt_name:la": "Quaenia",
        "boundary": "administrative",
        "name": "Kainuu",
        "name:en": "Kainuu",
        "name:et": "Kainuu",
        "name:fi": "Kainuu",
        "name:he": "\u05e7\u05d9\u05e0\u05d5\u05d0\u05d5",
        "name:hu": "Kainuu",
        "name:ja": "\u30ab\u30a4\u30cc\u30fc\u770c",
        "name:ko": "\uce74\uc774\ub204 \uc9c0\uc5ed",
        "name:la": "Caiania",
        "name:ru": "\u041a\u0430\u0439\u043d\u0443\u0443",
        "name:se": "Kainuu",
        "name:sv": "Kajanaland",
        "name:zh": "\u51f1\u52aa\u5340",
        "official_name": "Kainuun maakunta",
        "official_name:en": "Kainuu",
        "population": "73284",
        "ref": "FI134",
        "ref:nuts": "FI1D8",
        "ref:nuts:3": "FI1D8",
        "source:population": "wikipedia",
        "type": "boundary",
        "website": "https://www.kainuu.fi/",
        "wikidata": "Q5694",
        "wikipedia": "fi:Kainuun maakunta"
      }
    },
    {
      "type": "relation",
      "id": 1999428,
      "tags": {
        "ISO3166-2": "FI-13",
        "admin_level": "4",
        "boundary": "administrative",
        "name": "Pohjois-Karjala",
        "name:cs": "Severn\u00ed Kar\u00e9lie",
        "name:de": "Nordkarelien",
        "name:en": "North Karelia",
        "name:fi": "Pohjois-Karjala",
        "name:fr": "Car\u00e9lie du Nord",
        "name:hu": "\u00c9szak-Kar\u00e9lia",
        "name:nl": "Noord-Kareli\u00eb",
        "name:ru": "\u0421\u0435\u0432\u0435\u0440\u043d\u0430\u044f \u041a\u0430\u0440\u0435\u043b\u0438\u044f",
        "name:se": "Davvi-G\u00e1rjila",
        "name:sv": "Norra Karelen",
        "official_name:en": "North Karelia",
        "ref": "FI133",
        "ref:nuts": "FI1DC",
        "ref:nuts:3": "FI1DC",
        "type": "boundary",
        "wikidata": "Q5703"
      }
    },
    {
      "type": "relation",
      "id": 2000320,
      "tags": {
        "ISO3166-2": "FI-12",
        "admin_level": "4",
        "boundary": "administrative",
        "name": "\u00d6sterbotten",
        "name:de": "Ostbottnien",
        "name:en": "Ostrobothnia",
        "name:fi": "Pohjanmaa",
        "name:fr": "Ostrobotnie",
        "name:hu": "Pohjanmaa",
        "name:nl": "Oost-Botni\u00eb",
        "name:ru": "\u041f\u043e\u0445\u044c\u044f\u043d\u043c\u0430\u0430",
        "name:sv": "\u00d6sterbotten",
        "official_name:en": "Ostrobothnia",
        "old_name": "Ostrobothnia",
        "population": "181283",
        "population:date": "2015-08-31",
        "ref": "FI195",
        "ref:nuts": "FI19A",
        "ref:nuts:3": "FI19A",
        "start_date:old_name": "before 1532",
        "type": "boundary",
        "wikidata": "Q5702"
      }
    },
    {
      "type": "relation",
      "id": 2000361,
      "tags": {
        "ISO3166-2": "FI-17",
        "admin_level": "4",
        "boundary": "administrative",
        "name": "Satakunta",
        "name:en": "Satakunta",
        "name:fi": "Satakunta",
        "name:hu": "Satakunta",
        "name:ru": "\u0421\u0430\u0442\u0430\u043a\u0443\u043d\u0442\u0430",
        "name:sv": "Satakunta",
        "official_name:en": "Satakunta",
        "old_ref": "FI191",
        "ref": "FI196",
        "ref:nuts": "FI196",
        "ref:nuts:3": "FI196",
        "type": "boundary",
        "wikidata": "Q5709",
        "wikipedia": "fi:Satakunnan maakunta"
      }
    },
    {
      "type": "relation",
      "id": 2067231,
      "tags": {
        "ISO3166-2": "FI-02",
        "admin_level": "4",
        "boundary": "administrative",
        "fixme": "Check if addr:country=FI was intentional; likely a tagging error",
        "name": "Etel\u00e4-Karjala",
        "name:ast": "Carelia del Sur",
        "name:az": "C\u0259nubi Kareliya",
        "name:bs": "Ju\u017ena Karelija",
        "name:ca": "Car\u00e8lia Meridional",
        "name:cs": "Ji\u017en\u00ed Kar\u00e9lie",
        "name:da": "S\u00f6dra Karelen",
        "name:de": "S\u00fcdkarelien",
        "name:en": "South Karelia",
        "name:eo": "Suda Karelio",
        "name:et": "L\u00f5una-Karjala",
        "name:fi": "Etel\u00e4-Karjala",
        "name:fr": "Car\u00e9lie du Sud",
        "name:ga": "An Chair\u00e9il Theas",
        "name:he": "\u05d3\u05e8\u05d5\u05dd \u05e7\u05e8\u05dc\u05d9\u05d4",
        "name:hu": "D\u00e9l-Kar\u00e9lia",
        "name:id": "Karelia Selatan",
        "name:is": "Su\u00f0ur-Karel\u00eda",
        "name:lt": "Piet\u0173 Karelija",
        "name:lv": "Dienvidkar\u0113lija",
        "name:ms": "Karelia Selatan",
        "name:nl": "Zuid-Kareli\u00eb",
        "name:no": "S\u00f6dra Karelen",
        "name:pl": "Karelia Po\u0142udniowa",
        "name:pt": "Car\u00e9lia do Sul",
        "name:ro": "Carelia de Sud",
        "name:ru": "\u042e\u0436\u043d\u0430\u044f \u041a\u0430\u0440\u0435\u043b\u0438\u044f",
        "name:se": "Lulli-G\u00e1rjil",
        "name:sh": "Ju\u017ena Karelija",
        "name:sq": "Karelia Jugore",
        "name:sv": "S\u00f6dra Karelen",
        "name:tr": "G\u00fcney Karelya",
        "name:zh": "\u5357\u5361\u7d2f\u5229\u963f\u5340",
        "official_name:en": "South Karelia",
        "ref": "FI187",
        "ref:nuts": "FI1C5",
        "ref:nuts:3": "FI1C5",
        "type": "boundary",
        "wikidata": "Q5691",
        "wikipedia": "fi:Etel\u00e4-Karjalan maakunta"
      }
    },
    {
      "type": "relation",
      "id": 2102313,
      "tags": {
        "ISO3166-2": "FI-09",
        "admin_level": "4",
        "boundary": "administrative",
        "name": "Kymenlaakso",
        "name:de": "Kymenlaakso",
        "name:en": "Kymenlaakso",
        "name:et": "Kymenlaakso",
        "name:fi": "Kymenlaakso",
        "name:fr": "Vall\u00e9e de la Kymi",
        "name:hu": "Kymenlaakso",
        "name:ru": "\u041a\u044e\u043c\u0435\u043d\u043b\u0430\u0430\u043a\u0441\u043e",
        "name:se": "Kymileahki",
        "name:sv": "Kymmenedalen",
        "official_name:en": "Kymenlaakso",
        "ref": "FI186",
        "ref:nuts": "FI1C7",
        "ref:nuts:3": "FI1C7",
        "type": "boundary",
        "wikidata": "Q5698"
      }
    },
    {
      "type": "relation",
      "id": 2375171,
      "tags": {
        "ISO3166-2": "FI-01",
        "admin_level": "4",
        "boundary": "administrative",
        "name": "Landskapet \u00c5land",
        "name:ar": "\u062c\u0632\u0631 \u0622\u0644\u0627\u0646\u062f",
        "name:bn": "\u0985\u09b2\u09be\u09a8\u09cd\u09a6_\u09a6\u09cd\u09ac\u09c0\u09aa\u09aa\u09c1\u099e\u09cd\u099c",
        "name:cs": "\u00c5landy",
        "name:de": "\u00c5landinseln",
        "name:en": "\u00c5land Islands",
        "name:es": "Islas Aland",
        "name:fi": "Ahvenanmaan maakunta",
        "name:fr": "\u00celes \u00c5land",
        "name:gsw": "\u00c0l\u00e0nd\u00ecnsle",
        "name:hi": "\u090f\u0932\u0948\u0902\u0921 \u0926\u094d\u0935\u0940\u092a\u0938\u092e\u0942\u0939",
        "name:hu": "\u00c5land-szigetek",
        "name:id": "Kepulauan Aland",
        "name:ja": "\u30aa\u30fc\u30e9\u30f3\u30c9\u8af8\u5cf6",
        "name:ne": "\u0905\u0932\u093e\u0928\u094d\u0921 \u091f\u093e\u092a\u0941",
        "name:pt": "Alanda",
        "name:ru": "\u0410\u043b\u0430\u043d\u0434\u0441\u043a\u0438\u0435 \u043e\u0441\u0442\u0440\u043e\u0432\u0430",
        "name:sv": "Landskapet \u00c5land",
        "name:tr": "\u00c5land",
        "name:uk": "\u0410\u043b\u0430\u043d\u0434\u0441\u044c\u043a\u0456 \u043e\u0441\u0442\u0440\u043e\u0432\u0438",
        "name:ur": "\u0622\u0644\u06cc\u0646\u0688 \u0622\u0626\u0644\u06cc\u0646\u0688\u0632",
        "name:vi": "Qu\u1ea7n \u0111\u1ea3o Aland",
        "name:zh": "\u5965\u5170\u7fa4\u5c9b",
        "ref": "FI200",
        "type": "boundary",
        "wikidata": "Q5689",
        "wikipedia": "sv:\u00c5land"
      }
    }
  ]
}