{
  "version": 0.6,
  "generator": "Overpass API 0.7.62.8 e802775f",
  "osm3s": {
    "timestamp_osm_base": "2025-10-03T17:29:45Z",
    "timestamp_areas_base": "2025-10-03T13:36:01Z",
    "copyright": "The data included in this document is from www.openstreetmap.org. The data is made available under ODbL."
  },
  "elements": [
    {
      "type": "relation",
      "id": 90341,
      "tags": {
        "admin_level": "2",
        "boundary": "administrative",
        "left:country": "Belgique / Belgi\u00eb / Belgien",
        "name": "France - Belgique / Belgi\u00eb / Belgien",
        "name:ar": "\u0628\u0644\u062c\u064a\u0643\u0627 - \u0641\u0631\u0646\u0633\u0627",
        "name:ca": "Fran\u00e7a - B\u00e8lgica",
        "name:da": "Frankrig - Belgien",
        "name:de": "Frankreich - Belgien",
        "name:en": "France \u2013 Belgium",
        "name:fa": "\u0628\u0644\u0698\u06cc\u06a9 - \u0641\u0631\u0627\u0646\u0633\u0647",
        "name:fr": "France - Belgique",
        "name:lt": "Pranc\u016bzija - Belgija",
        "name:nl": "Frankrijk - Belgi\u00eb",
        "name:no": "Frankrike - Belgia",
        "name:pl": "Francja - Belgia",
        "name:pt": "Fran\u00e7a - B\u00e9lgica",
        "name:ro": "Fran\u021ba - Belgia",
        "name:ru": "\u0424\u0440\u0430\u043d\u0446\u0438\u044f \u2014 \u0411\u0435\u043b\u044c\u0433\u0438\u044f",
        "name:sv": "Frankrike - Belgien",
        "name:ur": "\u0628\u06cc\u0644\u062c\u06cc\u0645 - \u0641\u0631\u0627\u0646\u0633",
        "name:wa": "France - Beldjike",
        "note": "For%20explanations%20please%20read%20https://wiki.openstreetmap.org/wiki/France_boundary_pyramidal_construction",
        "note:important": "Be careful, this relation is used for France M\u00e9tropolitaine (terres) : please don't add ways in the seas !",
        "right:country": "France",
        "type": "multilinestring",
        "wikidata": "Q2052849"
      }
    }
  ]
}