{
  "version": 0.6,
  "generator": "Overpass API 0.7.62.8 e802775f",
  "osm3s": {
    "timestamp_osm_base": "2025-10-03T17:24:36Z",
    "timestamp_areas_base": "2025-10-03T13:36:01Z",
    "copyright": "The data included in this document is from www.openstreetmap.org. The data is made available under ODbL."
  },
  "elements": [
    {
      "type": "relation",
      "id": 5389302,
      "tags": {
        "admin_level": "2",
        "boundary": "administrative",
        "name": "France - Italy (section nord)",
        "name:ca": "Fran\u00e7a - It\u00e0lia (secci\u00f3 nord)",
        "name:de": "Frankreich - Italien",
        "name:en": "France - Italy",
        "name:fr": "France - Italie (section nord)",
        "name:it": "Francia - Italia",
        "name:ru": "\u0424\u0440\u0430\u043d\u0446\u0438\u044f - \u0418\u0442\u0430\u043b\u0438\u044f",
        "name:sl": "Francija - Italija",
        "note": "For explanations please read https://wiki.openstreetmap.org/wiki/France_boundary_pyramidal_construction",
        "note:important": "Be careful, this section is the border claimed by France but some parts are disputed by Italy. Use this relation only for France ! (see wikipedia link).",
        "note:important2": "Be careful not to confuse sections and ways (this section is composed of ways south of the borders claimed by Italy but stays the north part of all borders France-Italy",
        "type": "multilinestring",
        "wikidata": "Q1991288",
        "wikipedia": "fr:Fronti\u00e8re entre la France et l'Italie"
      }
    }
  ]
}