{
  "version": 0.6,
  "generator": "Overpass API 0.7.62.8 e802775f",
  "osm3s": {
    "timestamp_osm_base": "2025-10-03T17:29:45Z",
    "timestamp_areas_base": "2025-10-03T13:36:01Z",
    "copyright": "The data included in this document is from www.openstreetmap.org. The data is made available under ODbL."
  },
  "elements": [
    {
      "type": "relation",
      "id": 90689,
      "tags": {
        "ISO3166-1": "RO",
        "ISO3166-1:alpha2": "RO",
        "ISO3166-1:alpha3": "ROU",
        "ISO3166-1:numeric": "642",
        "admin_level": "2",
        "alt_name:eo": "Rumanujo",
        "boundary": "administrative",
        "default_language": "ro",
        "driving_side": "right",
        "flag": "https://upload.wikimedia.org/wikipedia/commons/7/73/Flag_of_Romania.svg",
        "int_name": "Romania",
        "name": "Rom\u00e2nia",
        "name:ace": "Rumania",
        "name:af": "Roemeni\u00eb",
        "name:als": "Rum\u00e4nien",
        "name:am": "\u122e\u121b\u1295\u12eb",
        "name:an": "Ruman\u00eda",
        "name:ang": "Rum\u01e3nia",
        "name:ar": "\u0631\u0648\u0645\u0627\u0646\u064a\u0627",
        "name:arc": "\u072a\u0718\u0721\u0722\u071d\u0710",
        "name:arz": "\u0631\u0648\u0645\u0627\u0646\u064a\u0627",
        "name:ast": "Ruman\u00eda",
        "name:ay": "Rumanya",
        "name:az": "Rum\u0131niya",
        "name:ba": "\u0420\u0443\u043c\u044b\u043d\u0438\u044f",
        "name:bar": "Rum\u00e4nien",
        "name:bat-smg": "Romun\u0117j\u0117",
        "name:bcl": "Romanya",
        "name:be": "\u0420\u0443\u043c\u044b\u043d\u0456\u044f",
        "name:be-tarask": "\u0420\u0443\u043c\u044b\u043d\u0456\u044f",
        "name:bg": "\u0420\u0443\u043c\u044a\u043d\u0438\u044f",
        "name:bi": "Romania",
        "name:bn": "\u09b0\u09cb\u09ae\u09be\u09a8\u09bf\u09af\u09bc\u09be",
        "name:bo": "\u0f62\u0f7c\u0f0b\u0f58\u0f0b\u0f53\u0f72\u0f0b\u0f61\u0f0d",
        "name:bpy": "\u09b0\u09cb\u09ae\u09be\u09a8\u09bf\u09af\u09bc\u09be",
        "name:br": "Roumania",
        "name:bs": "Rumunija",
        "name:bxr": "\u0420\u0443\u043c\u044b\u043d",
        "name:ca": "Romania",
        "name:cbk-zam": "Ruman\u00eda",
        "name:cdo": "L\u00f2\u0324-m\u0101-n\u00e0\u0324-\u0101",
        "name:ce": "\u0420\u0443\u043c\u044b\u043d\u0438",
        "name:ceb": "Rumanya",
        "name:chr": "\u13b6\u13b9\u13c2\u13ef",
        "name:ckb": "\u0695\u06c6\u0645\u0627\u0646\u06cc\u0627",
        "name:cnr": "Rumunija",
        "name:co": "Romania",
        "name:crh": "Romaniya",
        "name:cs": "Rumunsko",
        "name:csb": "Rum\u00f9\u0144sk\u00f4",
        "name:cu": "\u0420\u043e\u0443\u043c\ua651\u043d\u0457\ua657",
        "name:cv": "\u0420\u0443\u043c\u044b\u043d\u0438",
        "name:cy": "Rwmania",
        "name:da": "Rum\u00e6nien",
        "name:de": "Rum\u00e4nien",
        "name:diq": "Romanya",
        "name:dsb": "Rumu\u0144ska",
        "name:dv": "\u0783\u07aa\u0789\u07ad\u0782\u07a8\u0787\u07a7",
        "name:ee": "Romania",
        "name:el": "\u03a1\u03bf\u03c5\u03bc\u03b1\u03bd\u03af\u03b1",
        "name:eml": "Ruman\u00ee",
        "name:en": "Romania",
        "name:eo": "Rumanio",
        "name:es": "Ruman\u00eda",
        "name:et": "Rumeenia",
        "name:eu": "Errumania",
        "name:ext": "Rumania",
        "name:fa": "\u0631\u0648\u0645\u0627\u0646\u06cc",
        "name:fi": "Romania",
        "name:fo": "Rumenia",
        "name:fr": "Roumanie",
        "name:frp": "Roumanie",
        "name:frr": "Rum\u00e4nien",
        "name:fur": "Romanie",
        "name:fy": "Roemeenje",
        "name:ga": "An R\u00f3m\u00e1in",
        "name:gag": "Rom\u0131niya",
        "name:gd": "Rom\u00e0inia",
        "name:gl": "Roman\u00eda",
        "name:gn": "Rruma\u00f1a",
        "name:gu": "\u0ab0\u0acb\u0aae\u0abe\u0aa8\u0abf\u0aaf\u0abe",
        "name:gv": "Yn Romaan",
        "name:hak": "L\u00f2-m\u00e2-n\u00ec-\u00e2",
        "name:haw": "Rom\u0101nia",
        "name:he": "\u05e8\u05d5\u05de\u05e0\u05d9\u05d4",
        "name:hi": "\u0930\u094b\u092e\u093e\u0928\u093f\u092f\u093e",
        "name:hif": "Romania",
        "name:hr": "Rumunjska",
        "name:hsb": "Rumunska",
        "name:ht": "Woumani",
        "name:hu": "Rom\u00e1nia",
        "name:hy": "\u054c\u0578\u0582\u0574\u056b\u0576\u056b\u0561",
        "name:ia": "Romania",
        "name:id": "Rumania",
        "name:ie": "Rumania",
        "name:ilo": "Romania",
        "name:io": "Rumania",
        "name:is": "R\u00famen\u00eda",
        "name:it": "Romania",
        "name:ja": "\u30eb\u30fc\u30de\u30cb\u30a2",
        "name:jbo": "romanias",
        "name:jv": "Rumania",
        "name:ka": "\u10e0\u10e3\u10db\u10d8\u10dc\u10d4\u10d7\u10d8",
        "name:kaa": "Rum\u0131niya",
        "name:kab": "Rumani",
        "name:kbd": "\u0420\u0443\u043c\u044b\u043d\u0438\u044d",
        "name:kg": "Romania",
        "name:kk": "\u0420\u0443\u043c\u044b\u043d\u0438\u044f",
        "name:kl": "Rum\u00e6nia",
        "name:kn": "\u0cb0\u0cca\u0cae\u0cbe\u0ca8\u0cbf\u0caf",
        "name:ko": "\ub8e8\ub9c8\ub2c8\uc544",
        "name:koi": "\u0420\u043e\u043c\u044b\u043d\u0438\u044f",
        "name:krc": "\u0420\u0443\u043c\u044b\u043d\u0438\u044f",
        "name:ku": "Romanya",
        "name:kv": "\u0420\u0443\u043c\u044b\u043d\u0438\u044f",
        "name:kw": "Roumani",
        "name:ky": "\u0420\u0443\u043c\u044b\u043d\u0438\u044f",
        "name:la": "Romania",
        "name:lad": "Rumania",
        "name:lb": "Rum\u00e4nien",
        "name:li": "Roemeni\u00eb",
        "name:lij": "Romania",
        "name:lmo": "Rumania",
        "name:ln": "Rumania",
        "name:lt": "Rumunija",
        "name:ltg": "Rumuneja",
        "name:lv": "Rum\u0101nija",
        "name:lzh": "\u7f85\u99ac\u5c3c\u4e9e",
        "name:mdf": "\u0420\u0443\u043c\u044b\u043d\u0438\u0435",
        "name:mhr": "\u0420\u0443\u043c\u044b\u043d\u0438\u0439",
        "name:mi": "Romeinia",
        "name:mk": "\u0420\u043e\u043c\u0430\u043d\u0438\u0458\u0430",
        "name:ml": "\u0d31\u0d4a\u0d2e\u0d3e\u0d28\u0d3f\u0d2f",
        "name:mn": "\u0420\u0443\u043c\u044b\u043d",
        "name:mr": "\u0930\u094b\u092e\u0947\u0928\u093f\u092f\u093e",
        "name:ms": "Romania",
        "name:mt": "Rumanija",
        "name:my": "\u101b\u102d\u102f\u1019\u1031\u1038\u1014\u102e\u1038\u101a\u102c\u1038\u1014\u102d\u102f\u1004\u103a\u1004\u1036",
        "name:na": "Romania",
        "name:nah": "Rumania",
        "name:nan": "Rom\u00e2nia",
        "name:nap": "Rumania",
        "name:nds": "Rum\u00e4nien",
        "name:nds-nl": "Roemeni\u00eb",
        "name:ne": "\u0930\u094b\u092e\u093e\u0928\u093f\u092f\u093e",
        "name:new": "\u0930\u094b\u092e\u093e\u0928\u093f\u092f\u093e",
        "name:nl": "Roemeni\u00eb",
        "name:nn": "Romania",
        "name:no": "Romania",
        "name:nov": "Rumania",
        "name:nrm": "Roumanie",
        "name:nv": "Woom\u00e9iniya",
        "name:oc": "Romania",
        "name:or": "\u0b30\u0b4b\u0b2e\u0b3e\u0b28\u0b3f\u0b06",
        "name:os": "\u0420\u0443\u043c\u044b\u043d\u0438",
        "name:pa": "\u0a30\u0a4b\u0a2e\u0a3e\u0a28\u0a40\u0a06",
        "name:pam": "Romania",
        "name:pcd": "Roumanie",
        "name:pdc": "Rumeenie",
        "name:pih": "Romainya",
        "name:pl": "Rumunia",
        "name:pms": "Roman\u00eca",
        "name:pnb": "\u0631\u0648\u0645\u0627\u0646\u06cc\u06c1",
        "name:pnt": "\u03a1\u03bf\u03c5\u03bc\u03b1\u03bd\u03af\u03b1",
        "name:ps": "\u0631\u0648\u0645\u0627\u0646\u06cc\u0627",
        "name:pt": "Rom\u00e9nia",
        "name:qu": "Rumanya",
        "name:rm": "Rumenia",
        "name:rmy": "Rumuniya",
        "name:ro": "Rom\u00e2nia",
        "name:roa-rup": "Rom\u0103nia",
        "name:roa-tara": "Romanie",
        "name:ru": "\u0420\u0443\u043c\u044b\u043d\u0438\u044f",
        "name:rue": "\u0420\u0443\u043c\u0443\u043d\u044c\u0441\u043a\u043e",
        "name:rw": "Romaniya",
        "name:sah": "\u0420\u0443\u043c\u044b\u043d\u0438\u044f",
        "name:sc": "Romania",
        "name:scn": "Ruman\u00eca",
        "name:sco": "Romanie",
        "name:se": "Romania",
        "name:sh": "Rumunija",
        "name:si": "\u0dbb\u0dd4\u0db8\u0dda\u0db1\u0dd2\u0dba\u0dcf\u0dc0",
        "name:sk": "Rumunsko",
        "name:sl": "Romunija",
        "name:sm": "Romania",
        "name:smn": "Romania",
        "name:sms": "Romania",
        "name:so": "Romania",
        "name:sq": "Rumania",
        "name:sr": "\u0420\u0443\u043c\u0443\u043d\u0438\u0458\u0430",
        "name:ss": "IRomaniya",
        "name:stq": "Rum\u00e4nien",
        "name:su": "Romania",
        "name:sv": "Rum\u00e4nien",
        "name:sw": "Romania",
        "name:szl": "Rumynij\u014f",
        "name:ta": "\u0b89\u0bb0\u0bc1\u0bae\u0bc7\u0ba9\u0bbf\u0baf\u0bbe",
        "name:te": "\u0c30\u0c4a\u0c2e\u0c47\u0c28\u0c3f\u0c2f\u0c3e",
        "name:tet": "Rom\u00e9nia",
        "name:tg": "\u0420\u0443\u043c\u0438\u043d\u0438\u044f",
        "name:th": "\u0e1b\u0e23\u0e30\u0e40\u0e17\u0e28\u0e42\u0e23\u0e21\u0e32\u0e40\u0e19\u0e35\u0e22",
        "name:tk": "Rumyni\u00fda",
        "name:tl": "Rumanya",
        "name:tok": "ma Lomani",
        "name:tpi": "Romenia",
        "name:tr": "Romanya",
        "name:tt": "\u0420\u0443\u043c\u044b\u043d\u0438\u044f",
        "name:tzl": "Romania",
        "name:udm": "\u0420\u0443\u043c\u044b\u043d\u0438\u044f",
        "name:ug": "Ruminiye",
        "name:uk": "\u0420\u0443\u043c\u0443\u043d\u0456\u044f",
        "name:ur": "\u0631\u0648\u0645\u0627\u0646\u06cc\u06c1",
        "name:uz": "Ruminiya",
        "name:vec": "Roman\u00eca",
        "name:vep": "Romanii",
        "name:vi": "Romania",
        "name:vls": "Roemeni\u00eb",
        "name:vo": "Rum\u00e4n",
        "name:vro": "Rumeeni\u00e4",
        "name:wa": "Roumaneye",
        "name:war": "Rumania",
        "name:wo": "Romaani",
        "name:wuu": "\u7f57\u9a6c\u5c3c\u4e9a",
        "name:xal": "\u0420\u0443\u043c\u0443\u0434\u0438\u043d \u041e\u0440\u043d",
        "name:xmf": "\u10e0\u10e3\u10db\u10d8\u10dc\u10d4\u10d7\u10d8",
        "name:yi": "\u05e8\u05d5\u05de\u05e2\u05e0\u05d9\u05e2",
        "name:yo": "Rom\u00e1n\u00ed\u00e0",
        "name:yue": "\u7f85\u99ac\u5c3c\u4e9e",
        "name:zea": "Roemeni\u00eb",
        "name:zh": "\u7f57\u9a6c\u5c3c\u4e9a",
        "name:zh-Hans": "\u7f57\u9a6c\u5c3c\u4e9a",
        "name:zh-Hant": "\u7f85\u99ac\u5c3c\u4e9e",
        "official_name": "Rom\u00e2nia",
        "population": "19064409",
        "timezone": "Europe/Bucharest",
        "type": "boundary",
        "wikidata": "Q218",
        "wikipedia": "en:Romania"
      }
    },
    {
      "type": "relation",
      "id": 55466,
      "tags": {
        "ISO3166-2": "RO-BN",
        "admin_level": "4",
        "boundary": "administrative",
        "is_in:country_code": "RO",
        "name": "Bistri\u021ba-N\u0103s\u0103ud",
        "name:de": "Bistri\u021ba-N\u0103s\u0103ud",
        "name:en": "Bistri\u021ba-N\u0103s\u0103ud",
        "name:hu": "Beszterce-Nasz\u00f3d megye",
        "name:ru": "\u0411\u0438\u0441\u0442\u0440\u0438\u0446\u0430-\u041d\u044d\u0441\u044d\u0443\u0434",
        "name:sr": "\u0411\u0438\u0441\u0442\u0440\u0438\u0446\u0430-\u041d\u0430\u0441\u0430\u0443\u0434",
        "name:sr-Latn": "Bistrica-Nasaud",
        "name:uk": "\u0411\u0438\u0441\u0442\u0440\u0438\u0446\u044f-\u041d\u0435\u0441\u0435\u0443\u0434",
        "old_name:de": "Bistritz-Nussdorf",
        "place": "county",
        "place:ro": "jude\u021b",
        "ref:nuts": "RO112",
        "ref:nuts:3": "RO112",
        "type": "boundary",
        "wikidata": "Q181513",
        "wikipedia": "en:Bistri\u021ba-N\u0103s\u0103ud County"
      }
    },
    {
      "type": "relation",
      "id": 72481,
      "tags": {
        "ISO3166-2": "RO-MM",
        "admin_level": "4",
        "boundary": "administrative",
        "name": "Maramure\u0219",
        "name:de": "Maramure\u0219",
        "name:en": "Maramure\u0219",
        "name:hu": "M\u00e1ramaros megye",
        "name:ru": "\u041c\u0430\u0440\u0430\u043c\u0443\u0440\u0435\u0448",
        "name:sk": "Maramure\u0161",
        "name:sr": "\u041c\u0430\u0440\u0430\u043c\u0443\u0440\u0435\u0448",
        "name:sr-Latn": "Maramure\u0161",
        "name:uk": "\u041c\u0430\u0440\u0430\u043c\u0443\u0440\u0435\u0448",
        "name:zh": "\u9a6c\u62c9\u7a46\u5217\u4ec0\u53bf",
        "old_name:de": "Maramuresch",
        "place": "county",
        "place:ro": "jude\u021b",
        "ref:nuts": "RO114",
        "ref:nuts:3": "RO114",
        "type": "boundary",
        "wikidata": "Q188813",
        "wikipedia": "ro:Jude\u021bul Maramure\u0219"
      }
    },
    {
      "type": "relation",
      "id": 72482,
      "tags": {
        "ISO3166-2": "RO-SM",
        "admin_level": "4",
        "boundary": "administrative",
        "name": "Satu Mare",
        "name:de": "Sathmar",
        "name:en": "Satu Mare",
        "name:hu": "Szatm\u00e1r megye",
        "name:ru": "\u0421\u0430\u0442\u0443-\u041c\u0430\u0440\u0435",
        "name:sr": "\u0421\u0430\u0442\u0443 \u041c\u0430\u0440\u0435",
        "name:sr-Latn": "Satu Mare",
        "name:uk": "\u0421\u0430\u0442\u0443-\u041c\u0430\u0440\u0435",
        "name:zh": "\u8428\u56fe\u9a6c\u96f7\u53bf",
        "place": "county",
        "place:ro": "jude\u021b",
        "ref:nuts": "RO115",
        "ref:nuts:3": "RO115",
        "type": "boundary",
        "wikidata": "Q165459"
      }
    },
    {
      "type": "relation",
      "id": 91685,
      "tags": {
        "ISO3166-2": "RO-SJ",
        "admin_level": "4",
        "boundary": "administrative",
        "name": "S\u0103laj",
        "name:en": "S\u0103laj",
        "name:hu": "Szil\u00e1gy megye",
        "name:ro": "S\u0103laj",
        "name:ru": "\u0421\u044d\u043b\u0430\u0436",
        "name:sr": "\u0421\u0430\u043b\u0430\u0436",
        "name:sr-Latn": "Sala\u017e",
        "place": "county",
        "place:ro": "jude\u021b",
        "ref:nuts": "RO116",
        "ref:nuts:3": "RO116",
        "type": "boundary",
        "wikidata": "Q190690"
      }
    },
    {
      "type": "relation",
      "id": 91731,
      "tags": {
        "ISO3166-2": "RO-BH",
        "admin_level": "4",
        "boundary": "administrative",
        "is_in:country_code": "RO",
        "name": "Bihor",
        "name:en": "Bihor",
        "name:hu": "Bihar megye",
        "name:ru": "\u0411\u0438\u0445\u043e\u0440",
        "name:sr": "\u0411\u0438\u0445\u043e\u0440",
        "name:sr-Latn": "Bihor",
        "place": "county",
        "place:ro": "jude\u021b",
        "ref:nuts": "RO111",
        "ref:nuts:3": "RO111",
        "type": "boundary",
        "wikidata": "Q179588",
        "wikipedia": "en:Bihor County"
      }
    },
    {
      "type": "relation",
      "id": 91733,
      "tags": {
        "ISO3166-2": "RO-CJ",
        "admin_level": "4",
        "boundary": "administrative",
        "name": "Cluj",
        "name:de": "Klausenburg",
        "name:en": "Cluj",
        "name:hu": "Kolozs megye",
        "name:la": "Claudianopolis",
        "name:ro": "Cluj",
        "name:ru": "\u041a\u043b\u0443\u0436",
        "name:sk": "Klu\u017e",
        "name:sr": "\u041a\u043b\u0443\u0436",
        "name:sr-Latn": "Klu\u017e",
        "place": "county",
        "place:ro": "jude\u021b",
        "ref:nuts": "RO113",
        "ref:nuts:3": "RO113",
        "type": "boundary",
        "wikidata": "Q182624",
        "wikipedia": "en:Cluj County"
      }
    },
    {
      "type": "relation",
      "id": 194271,
      "tags": {
        "ISO3166-2": "RO-AB",
        "admin_level": "4",
        "boundary": "administrative",
        "is_in:country_code": "RO",
        "name": "Alba",
        "name:en": "Alba",
        "name:hu": "Feh\u00e9r megye",
        "name:ro": "Alba",
        "name:ru": "\u0410\u043b\u0431\u0430",
        "name:sr": "\u0410\u043b\u0431\u0430",
        "name:sr-Latn": "Alba",
        "place": "county",
        "place:ro": "jude\u021b",
        "ref:nuts": "RO121",
        "ref:nuts:3": "RO121",
        "type": "boundary",
        "wikidata": "Q45868",
        "wikipedia": "ro:Jude\u021bul Alba"
      }
    },
    {
      "type": "relation",
      "id": 377733,
      "tags": {
        "ISO3166-2": "RO-B",
        "admin_level": "4",
        "alt_name": "Municipiul Bucure\u0219ti",
        "alt_name:gl": "Bucure\u015fti",
        "boundary": "administrative",
        "name": "Bucure\u0219ti",
        "name:ace": "Buchar\u00e8st",
        "name:af": "Boekarest",
        "name:am": "\u1261\u12ab\u1228\u1235\u1275",
        "name:an": "Bucarest",
        "name:ar": "\u0628\u0648\u062e\u0627\u0631\u0633\u062a",
        "name:arz": "\u0628\u0648\u062e\u0627\u0631\u0633\u062a",
        "name:ast": "Bucarest",
        "name:az": "Buxarest",
        "name:bat-smg": "Bukar\u0117\u0161tos",
        "name:be": "\u0411\u0443\u0445\u0430\u0440\u044d\u0441\u0442",
        "name:be-tarask": "\u0411\u0443\u0445\u0430\u0440\u044d\u0441\u0442",
        "name:bg": "\u0411\u0443\u043a\u0443\u0440\u0435\u0449",
        "name:bn": "\u09ac\u09c1\u0996\u09be\u09b0\u09c7\u09b8\u09cd\u099f",
        "name:bo": "\u0f54\u0f74\u0f0b\u0f41\u0f0b\u0f62\u0f7a\u0f0b\u0f66\u0f72\u0f51\u0f0d",
        "name:bs": "Bukure\u0161t",
        "name:ca": "Bucarest",
        "name:ckb": "\u0628\u0648\u062e\u0627\u0631\u06ce\u0633\u062a",
        "name:co": "Bucarest",
        "name:crh": "B\u00fckre\u0219",
        "name:cs": "Bukure\u0161\u0165",
        "name:csb": "B\u00f9kareszt",
        "name:cv": "\u0411\u0443\u0445\u0430\u0440\u0435\u0441\u0442",
        "name:cy": "Bucure\u015fti",
        "name:da": "Bukarest",
        "name:de": "Bukarest",
        "name:diq": "Bukre\u0219",
        "name:ee": "Bucharest",
        "name:el": "\u0392\u03bf\u03c5\u03ba\u03bf\u03c5\u03c1\u03ad\u03c3\u03c4\u03b9",
        "name:en": "Bucharest",
        "name:eo": "Bukare\u015dto",
        "name:es": "Bucarest",
        "name:et": "Bukarest",
        "name:ext": "Bucarest",
        "name:fa": "\u0628\u062e\u0627\u0631\u0633\u062a",
        "name:fi": "Bukarest",
        "name:fr": "Bucarest",
        "name:frp": "Bucar\u00e8st",
        "name:fy": "B\u00fbkarest",
        "name:ga": "B\u00facairist",
        "name:gd": "Bucharest",
        "name:gl": "Bucarest",
        "name:gv": "Bucharest",
        "name:he": "\u05d1\u05d5\u05e7\u05e8\u05e9\u05d8",
        "name:hi": "\u092c\u0941\u0916\u093e\u0930\u0947\u0938\u094d\u091f",
        "name:hif": "Bucharest",
        "name:hr": "Bukure\u0161t",
        "name:ht": "Boukar\u00e8s",
        "name:hu": "Bukarest",
        "name:hy": "\u0532\u0578\u0582\u056d\u0561\u0580\u0565\u057d\u057f",
        "name:ia": "Bucarest",
        "name:id": "Bukares",
        "name:ie": "Bucarest",
        "name:io": "Bucarest",
        "name:is": "B\u00fakarest",
        "name:it": "Bucarest",
        "name:ja": "\u30d6\u30ab\u30ec\u30b9\u30c8",
        "name:jv": "Bukar\u00e8s",
        "name:ka": "\u10d1\u10e3\u10e5\u10d0\u10e0\u10d4\u10e1\u10e2\u10d8",
        "name:kk": "\u0411\u0443\u0445\u0430\u0440\u0435\u0441\u0442",
        "name:kn": "\u0cac\u0cc1\u0c95\u0cc1\u0cb0\u0cc6\u0cb6\u0ccd\u0ca4\u0cbf",
        "name:ko": "\ubd80\ucfe0\ub808\uc288\ud2f0",
        "name:ku": "B\u00fbkare\u015ft",
        "name:kv": "\u0411\u0443\u0445\u0430\u0440\u0435\u0441\u0442",
        "name:la": "Bucaresta",
        "name:lad": "Bukureshti",
        "name:li": "Boekares",
        "name:lij": "Bucarest",
        "name:lmo": "Bucarest",
        "name:ln": "Bukaresti",
        "name:lt": "Bukare\u0161tas",
        "name:lv": "Bukareste",
        "name:mi": "Bucharest",
        "name:mk": "\u0411\u0443\u043a\u0443\u0440\u0435\u0448\u0442",
        "name:ml": "\u0d2c\u0d41\u0d15\u0d4d\u0d15\u0d3e\u0d31\u0d46\u0d38\u0d4d\u0d31\u0d4d\u0d31\u0d4d",
        "name:mr": "\u092c\u0941\u0916\u093e\u0930\u0947\u0938\u094d\u091f",
        "name:ms": "Bucharest",
        "name:my": "\u1017\u1030\u1038\u1001\u101b\u1000\u103a\u1019\u103c\u102d\u102f\u1037",
        "name:na": "Bucuresti",
        "name:nan": "Bucharest",
        "name:nap": "Bucarest",
        "name:ne": "\u092c\u0941\u0916\u093e\u0930\u0947\u0938\u094d\u091f",
        "name:nl": "Boekarest",
        "name:nn": "Bucure\u015fti",
        "name:no": "Bucure\u0219ti",
        "name:nov": "Bukareshti",
        "name:oc": "Bucar\u00e8st",
        "name:os": "\u0411\u0443\u0445\u0430\u0440\u0435\u0441\u0442",
        "name:pl": "Bukareszt",
        "name:pms": "B\u00f9carest",
        "name:pnb": "\u0628\u062e\u0627\u0631\u0633\u0679",
        "name:ps": "\u0628\u062e\u0627\u0631\u0633\u062a",
        "name:pt": "Bucareste",
        "name:qu": "Bukuresti",
        "name:rm": "Bucarest",
        "name:rmy": "Bukureshti",
        "name:ro": "Bucure\u0219ti",
        "name:roa-rup": "Bucureshci",
        "name:roa-tara": "Bucarest",
        "name:ru": "\u0411\u0443\u0445\u0430\u0440\u0435\u0441\u0442",
        "name:sah": "\u0411\u0443\u0445\u0430\u0440\u0435\u0441\u0442",
        "name:scn": "Bucarest",
        "name:sco": "Bucharest",
        "name:sh": "Bukure\u0161t",
        "name:simple": "Bucharest",
        "name:sk": "Bukure\u0161\u0165",
        "name:sl": "Bukare\u0161ta",
        "name:sq": "Bukureshti",
        "name:sr": "\u0411\u0443\u043a\u0443\u0440\u0435\u0448\u0442",
        "name:sv": "Bukarest",
        "name:szl": "Bukareszt",
        "name:ta": "\u0baa\u0bc1\u0b95\u0bcd\u0b95\u0bb0\u0bc6\u0bb8\u0bcd\u0b9f\u0bcd",
        "name:tet": "Bukareste",
        "name:tg": "\u0411\u0443\u0445\u0430\u0440\u0435\u0441\u0442",
        "name:th": "\u0e1a\u0e39\u0e04\u0e32\u0e40\u0e23\u0e2a\u0e15\u0e4c",
        "name:tl": "Bucharest",
        "name:tpi": "Busares",
        "name:tr": "Bukres",
        "name:udm": "\u0411\u0443\u0445\u0430\u0440\u0435\u0441\u0442",
        "name:ug": "\u0628\u06c7\u062e\u0627\u0631\u06d0\u0633\u062a",
        "name:uk": "\u0411\u0443\u0445\u0430\u0440\u0435\u0441\u0442",
        "name:ur": "\u0628\u062e\u0627\u0631\u0633\u0679",
        "name:vec": "B\u00f9carest",
        "name:vep": "Buharest",
        "name:vi": "Bucharest",
        "name:vo": "Bucure\u015fti",
        "name:war": "Bucharest",
        "name:yi": "\u05d1\u05d5\u05e7\u05d0\u05e8\u05e2\u05e9\u05d8",
        "name:yo": "Bucharest",
        "name:zh": "\u5e03\u52a0\u52d2\u65af\u7279",
        "place": "city",
        "ref:nuts": "RO321",
        "ref:nuts:3": "RO321",
        "type": "boundary",
        "wikidata": "Q19660",
        "wikipedia": "en:Bucharest"
      }
    },
    {
      "type": "relation",
      "id": 2077868,
      "tags": {
        "ISO3166-2": "RO-SV",
        "admin_level": "4",
        "boundary": "administrative",
        "name": "Suceava",
        "name:de": "Suczawa",
        "name:en": "Suceava",
        "name:hu": "Szucs\u00e1va megye",
        "name:pl": "Suczawa",
        "name:ro": "Suceava",
        "name:ru": "\u0421\u0443\u0447\u0430\u0432\u0430",
        "name:sr": "\u0421\u0443\u0447\u0430\u0432\u0430",
        "name:sr-Latn": "Su\u010dava",
        "name:zh": "\u82cf\u6070\u74e6\u53bf",
        "place": "county",
        "place:ro": "jude\u021b",
        "ref:nuts": "RO215",
        "ref:nuts:3": "RO215",
        "type": "boundary",
        "wikidata": "Q181209",
        "wikipedia": "en:Suceava County"
      }
    },
    {
      "type": "relation",
      "id": 2248573,
      "tags": {
        "ISO3166-2": "RO-MS",
        "admin_level": "4",
        "boundary": "administrative",
        "is_in:country_code": "RO",
        "name": "Mure\u0219",
        "name:de": "Mieresch",
        "name:en": "Mure\u0219",
        "name:hu": "Maros megye",
        "name:ro": "Mure\u0219",
        "name:ru": "\u041c\u0443\u0440\u0435\u0448",
        "name:sr": "\u041c\u0443\u0440\u0435\u0448",
        "name:sr-Latn": "Mure\u0161",
        "place": "county",
        "place:ro": "jude\u021b",
        "ref:nuts": "RO125",
        "ref:nuts:3": "RO125",
        "type": "boundary",
        "wikidata": "Q190711"
      }
    },
    {
      "type": "relation",
      "id": 2248586,
      "tags": {
        "ISO3166-2": "RO-SB",
        "admin_level": "4",
        "boundary": "administrative",
        "is_in:country_code": "RO",
        "name": "Sibiu",
        "name:de": "Hermannstadt",
        "name:en": "Sibiu",
        "name:hu": "Szeben megye",
        "name:ru": "\u0421\u0438\u0431\u0438\u0443",
        "name:sr": "\u0421\u0438\u0431\u0438\u045a",
        "name:sr-Latn": "Sibinj",
        "place": "county",
        "place:ro": "jude\u021b",
        "ref:nuts": "RO126",
        "ref:nuts:3": "RO126",
        "type": "boundary",
        "wikidata": "Q184797"
      }
    },
    {
      "type": "relation",
      "id": 2248612,
      "tags": {
        "ISO3166-2": "RO-BV",
        "admin_level": "4",
        "boundary": "administrative",
        "name": "Bra\u0219ov",
        "name:de": "Kronstadt",
        "name:en": "Bra\u0219ov",
        "name:hu": "Brass\u00f3 megye",
        "name:ja": "\u30d6\u30e9\u30b7\u30e7\u30f4",
        "name:ja-Hira": "\u3076\u3089\u3057\u3087\u3076",
        "name:ru": "\u0411\u0440\u0430\u0448\u043e\u0432",
        "name:sk": "Bra\u0161ov",
        "name:sr": "\u0411\u0440\u0430\u0448\u043e\u0432",
        "name:sr-Latn": "Bra\u0161ov",
        "place": "county",
        "place:ro": "jude\u021b",
        "ref:nuts": "RO122",
        "ref:nuts:3": "RO122",
        "type": "boundary",
        "wikidata": "Q182614"
      }
    },
    {
      "type": "relation",
      "id": 2248621,
      "tags": {
        "ISO3166-2": "RO-CV",
        "admin_level": "4",
        "boundary": "administrative",
        "name": "Covasna",
        "name:de": "Kovasna",
        "name:en": "Covasna",
        "name:hu": "Kov\u00e1szna megye",
        "name:ru": "\u041a\u043e\u0432\u0430\u0441\u043d\u0430",
        "name:sr": "\u041a\u043e\u0432\u0430\u0441\u043d\u0430",
        "name:sr-Latn": "Kovasna",
        "place": "county",
        "place:ro": "jude\u021b",
        "ref:nuts": "RO123",
        "ref:nuts:3": "RO123",
        "type": "boundary",
        "wikidata": "Q188959"
      }
    },
    {
      "type": "relation",
      "id": 2248660,
      "tags": {
        "ISO3166-2": "RO-HR",
        "admin_level": "4",
        "boundary": "administrative",
        "name": "Harghita",
        "name:en": "Harghita",
        "name:hu": "Hargita megye",
        "name:ru": "\u0425\u0430\u0440\u0433\u0438\u0442\u0430",
        "name:sr": "\u0425\u0430\u0440\u0433\u0438\u0442\u0430",
        "name:sr-Latn": "Hargita",
        "name:zh": "\u54c8\u5c14\u5409\u5854\u53bf",
        "place": "county",
        "place:ro": "jude\u021b",
        "ref:nuts": "RO124",
        "ref:nuts:3": "RO124",
        "type": "boundary",
        "wikidata": "Q190702"
      }
    },
    {
      "type": "relation",
      "id": 2248675,
      "tags": {
        "ISO3166-2": "RO-NT",
        "admin_level": "4",
        "boundary": "administrative",
        "name": "Neam\u021b",
        "name:en": "Neam\u021b",
        "name:hu": "Nemc megye",
        "name:ru": "\u041d\u044f\u043c\u0446",
        "name:sr": "\u040a\u0430\u043c\u0446",
        "name:sr-Latn": "Njamc",
        "name:zh": "\u5c3c\u4e9a\u59c6\u8328\u53bf",
        "place": "county",
        "place:ro": "jude\u021b",
        "ref:nuts": "RO214",
        "ref:nuts:3": "RO214",
        "type": "boundary",
        "wikidata": "Q188661",
        "wikipedia": "en:Neam\u021b County"
      }
    },
    {
      "type": "relation",
      "id": 2248681,
      "tags": {
        "ISO3166-2": "RO-BC",
        "admin_level": "4",
        "boundary": "administrative",
        "name": "Bac\u0103u",
        "name:de": "Barchau",
        "name:en": "Bac\u0103u",
        "name:hu": "B\u00e1k\u00f3 megye",
        "name:pl": "Bak\u00f3w",
        "name:ro": "Bac\u0103u",
        "name:ru": "\u0411\u0430\u043a\u044d\u0443",
        "name:sr": "\u0411\u0430\u043a\u0430\u0443",
        "name:sr-Latn": "Bakau",
        "name:zh": "\u5df4\u514b\u4e4c\u53bf",
        "place": "county",
        "place:ro": "jude\u021b",
        "ref:nuts": "RO211",
        "ref:nuts:3": "RO211",
        "type": "boundary",
        "wikidata": "Q179779"
      }
    },
    {
      "type": "relation",
      "id": 2248721,
      "tags": {
        "ISO3166-2": "RO-AR",
        "admin_level": "4",
        "boundary": "administrative",
        "is_in:country_code": "RO",
        "name": "Arad",
        "name:en": "Arad",
        "name:hu": "Arad megye",
        "name:ru": "\u0410\u0440\u0430\u0434",
        "name:sr": "\u0410\u0440\u0430\u0434",
        "name:sr-Latn": "Arad",
        "place": "county",
        "place:ro": "jude\u021b",
        "ref:nuts": "RO421",
        "ref:nuts:3": "RO421",
        "type": "boundary",
        "wikidata": "Q179559"
      }
    },
    {
      "type": "relation",
      "id": 2248737,
      "tags": {
        "ISO3166-2": "RO-HD",
        "admin_level": "4",
        "boundary": "administrative",
        "name": "Hunedoara",
        "name:de": "Eisenmarkt",
        "name:en": "Hunedoara",
        "name:hu": "Hunyad megye",
        "name:ru": "\u0425\u0443\u043d\u0435\u0434\u043e\u0430\u0440\u0430",
        "name:sr": "\u0425\u0443\u043d\u0435\u0434\u043e\u0430\u0440\u0430",
        "name:sr-Latn": "Hunedoara",
        "place": "county",
        "place:ro": "jude\u021b",
        "ref:nuts": "RO423",
        "ref:nuts:3": "RO423",
        "type": "boundary",
        "wikidata": "Q191071"
      }
    },
    {
      "type": "relation",
      "id": 2256729,
      "tags": {
        "ISO3166-2": "RO-BT",
        "admin_level": "4",
        "boundary": "administrative",
        "name": "Boto\u0219ani",
        "name:de": "Botoschan",
        "name:en": "Boto\u0219ani",
        "name:lt": "Boto\u0161anis",
        "name:ru": "\u0411\u043e\u0442\u043e\u0448\u0430\u043d\u0438",
        "name:sr": "\u0411\u043e\u0442\u043e\u0448\u0430\u043d\u0438",
        "name:sr-Latn": "Boto\u0161ani",
        "name:uk": "\u0411\u043e\u0442\u043e\u0448\u0430\u043d\u0456",
        "name:zh": "\u535a\u6258\u6c99\u5c3c\u53bf",
        "place": "county",
        "place:ro": "jude\u021b",
        "ref:nuts": "RO212",
        "ref:nuts:3": "RO212",
        "type": "boundary",
        "wikidata": "Q178861",
        "wikipedia": "en:Boto\u0219ani County"
      }
    },
    {
      "type": "relation",
      "id": 2256747,
      "tags": {
        "ISO3166-2": "RO-IS",
        "admin_level": "4",
        "alt_name:sr": "\u0408\u0430\u0448",
        "alt_name:sr-Latn": "Ja\u0161",
        "boundary": "administrative",
        "name": "Ia\u0219i",
        "name:de": "Jassy",
        "name:en": "Ia\u0219i",
        "name:ru": "\u042f\u0441\u0441\u044b",
        "name:sk": "Jasy",
        "name:sr": "\u0408\u0430\u0448\u0438",
        "name:sr-Latn": "Ja\u0161i",
        "name:zh": "\u96c5\u897f\u53bf",
        "place": "county",
        "place:ro": "jude\u021b",
        "ref:nuts": "RO213",
        "ref:nuts:3": "RO213",
        "type": "boundary",
        "wikidata": "Q182888",
        "wikipedia": "en:Ia\u0219i County"
      }
    },
    {
      "type": "relation",
      "id": 2256753,
      "tags": {
        "ISO3166-2": "RO-VS",
        "admin_level": "4",
        "boundary": "administrative",
        "name": "Vaslui",
        "name:de": "Wassluy",
        "name:en": "Vaslui",
        "name:ro": "Vaslui",
        "name:ru": "\u0412\u0430\u0441\u043b\u0443\u0439",
        "name:sr": "\u0412\u0430\u0441\u043b\u0443\u0458",
        "name:sr-Latn": "Vasluj",
        "name:zh": "\u74e6\u65af\u5362\u4f0a\u53bf",
        "place": "county",
        "place:ro": "jude\u021b",
        "ref:nuts": "RO216",
        "ref:nuts:3": "RO216",
        "type": "boundary",
        "wikidata": "Q167199"
      }
    },
    {
      "type": "relation",
      "id": 2260187,
      "tags": {
        "ISO3166-2": "RO-VN",
        "admin_level": "4",
        "boundary": "administrative",
        "is_in:country_code": "RO",
        "name": "Vrancea",
        "name:en": "Vrancea",
        "name:hu": "Vr\u00e1ncsa megye",
        "name:ru": "\u0412\u0440\u0430\u043d\u0447\u0430",
        "name:sr": "\u0412\u0440\u0430\u043d\u0447\u0430",
        "name:sr-Latn": "Vran\u010da",
        "name:zh": "\u5f17\u6717\u6070\u53bf",
        "place": "county",
        "place:ro": "jude\u021b",
        "ref:nuts": "RO226",
        "ref:nuts:3": "RO226",
        "type": "boundary",
        "wikidata": "Q182778"
      }
    },
    {
      "type": "relation",
      "id": 2260192,
      "tags": {
        "ISO3166-2": "RO-GL",
        "admin_level": "4",
        "boundary": "administrative",
        "name": "Gala\u021bi",
        "name:de": "Galatz",
        "name:en": "Gala\u021bi",
        "name:hu": "Galac",
        "name:ro": "Gala\u021bi",
        "name:ru": "\u0413\u0430\u043b\u0430\u0446",
        "name:sk": "Galac",
        "name:sr": "\u0413\u0430\u043b\u0430\u0446",
        "name:sr-Latn": "Galac",
        "name:zh": "\u52a0\u62c9\u8328\u53bf",
        "place": "county",
        "place:ro": "jude\u021b",
        "ref:nuts": "RO224",
        "ref:nuts:3": "RO224",
        "type": "boundary",
        "wikidata": "Q188796"
      }
    },
    {
      "type": "relation",
      "id": 2261275,
      "tags": {
        "ISO3166-2": "RO-GJ",
        "admin_level": "4",
        "boundary": "administrative",
        "name": "Gorj",
        "name:en": "Gorj",
        "name:hu": "Hegyi-Zsil megye",
        "name:ru": "\u0413\u043e\u0440\u0436",
        "name:sr": "\u0413\u043e\u0440\u0436",
        "place": "county",
        "place:ro": "jude\u021b",
        "ref:nuts": "RO412",
        "ref:nuts:3": "RO412",
        "type": "boundary",
        "wikidata": "Q190406"
      }
    },
    {
      "type": "relation",
      "id": 2261289,
      "tags": {
        "ISO3166-2": "RO-VL",
        "admin_level": "4",
        "boundary": "administrative",
        "name": "V\u00e2lcea",
        "name:en": "V\u00e2lcea",
        "name:hu": "Valcsa megye",
        "name:ru": "\u0412\u044b\u043b\u0447\u0430",
        "name:sr": "\u0412\u0430\u043b\u0447\u0430",
        "name:sr-Latn": "Val\u010da",
        "place": "county",
        "place:ro": "jude\u021b",
        "ref:nuts": "RO415",
        "ref:nuts:3": "RO415",
        "type": "boundary",
        "wikidata": "Q186838"
      }
    },
    {
      "type": "relation",
      "id": 2261315,
      "tags": {
        "ISO3166-2": "RO-AG",
        "admin_level": "4",
        "boundary": "administrative",
        "name": "Arge\u0219",
        "name:de": "Argisch",
        "name:en": "Arge\u0219",
        "name:hu": "Argyas megye",
        "name:ru": "\u0410\u0440\u0434\u0436\u0435\u0448",
        "name:sr": "\u0410\u0440\u0452\u0435\u0448",
        "name:sr-Latn": "Ar\u0111e\u0161",
        "place": "county",
        "place:ro": "jude\u021b",
        "ref:nuts": "RO311",
        "ref:nuts:3": "RO311",
        "type": "boundary",
        "wikidata": "Q179567"
      }
    },
    {
      "type": "relation",
      "id": 2355471,
      "tags": {
        "ISO3166-2": "RO-DB",
        "admin_level": "4",
        "boundary": "administrative",
        "is_in:country_code": "RO",
        "name": "D\u00e2mbovi\u021ba",
        "name:en": "D\u00e2mbovi\u021ba",
        "name:ru": "\u0414\u044b\u043c\u0431\u043e\u0432\u0438\u0446\u0430",
        "name:sr": "\u0414\u0430\u043c\u0431\u043e\u0432\u0438\u0446\u0430",
        "name:sr-Latn": "Dambovica",
        "place": "county",
        "place:ro": "jude\u021b",
        "ref:nuts": "RO313",
        "ref:nuts:3": "RO313",
        "type": "boundary",
        "wikidata": "Q188797"
      }
    },
    {
      "type": "relation",
      "id": 2355507,
      "tags": {
        "ISO3166-2": "RO-PH",
        "admin_level": "4",
        "boundary": "administrative",
        "is_in:country_code": "RO",
        "name": "Prahova",
        "name:en": "Prahova",
        "name:ru": "\u041f\u0440\u0430\u0445\u043e\u0432\u0430",
        "name:sr": "\u041f\u0440\u0430\u0445\u043e\u0432\u0430",
        "name:sr-Latn": "Prahova",
        "place": "county",
        "place:ro": "jude\u021b",
        "ref:nuts": "RO316",
        "ref:nuts:3": "RO316",
        "type": "boundary",
        "wikidata": "Q188665"
      }
    },
    {
      "type": "relation",
      "id": 2355511,
      "tags": {
        "ISO3166-2": "RO-BZ",
        "admin_level": "4",
        "boundary": "administrative",
        "is_in:country_code": "RO",
        "name": "Buz\u0103u",
        "name:en": "Buz\u0103u",
        "name:hu": "Bodza megye",
        "name:ru": "\u0411\u0443\u0437\u044d\u0443",
        "name:sr": "\u0411\u0443\u0437\u0430\u0443",
        "name:sr-Latn": "Buzau",
        "place": "county",
        "place:ro": "jude\u021b",
        "ref:nuts": "RO222",
        "ref:nuts:3": "RO222",
        "type": "boundary",
        "wikidata": "Q185309"
      }
    },
    {
      "type": "relation",
      "id": 2355512,
      "tags": {
        "ISO3166-2": "RO-BR",
        "admin_level": "4",
        "boundary": "administrative",
        "is_in:country_code": "RO",
        "name": "Br\u0103ila",
        "name:en": "Br\u0103ila",
        "name:pl": "Brai\u0142a",
        "name:ru": "\u0411\u0440\u044d\u0438\u043b\u0430",
        "name:sk": "Braila",
        "name:sr": "\u0411\u0440\u0430\u0438\u043b\u0430",
        "name:sr-Latn": "Braila",
        "place": "county",
        "place:ro": "jude\u021b",
        "ref:nuts": "RO221",
        "ref:nuts:3": "RO221",
        "type": "boundary",
        "wikidata": "Q188503"
      }
    },
    {
      "type": "relation",
      "id": 2355517,
      "tags": {
        "ISO3166-2": "RO-IL",
        "admin_level": "4",
        "boundary": "administrative",
        "is_in:country_code": "RO",
        "name": "Ialomi\u021ba",
        "name:en": "Ialomi\u021ba",
        "name:lt": "Jalomica",
        "name:ru": "\u042f\u043b\u043e\u043c\u0438\u0446\u0430",
        "name:sr": "\u0408\u0430\u043b\u043e\u043c\u0438\u0446\u0430",
        "name:sr-Latn": "Jalomica",
        "place": "county",
        "place:ro": "jude\u021b",
        "ref:nuts": "RO315",
        "ref:nuts:3": "RO315",
        "type": "boundary",
        "wikidata": "Q193044"
      }
    },
    {
      "type": "relation",
      "id": 2366863,
      "tags": {
        "ISO3166-2": "RO-TM",
        "admin_level": "4",
        "boundary": "administrative",
        "is_in:country_code": "RO",
        "name": "Timi\u0219",
        "name:de": "Temesch",
        "name:el": "\u03a4\u03b9\u03bc\u03af\u03c2",
        "name:en": "Timi\u0219",
        "name:hu": "Temes megye",
        "name:lt": "Timi\u0161as",
        "name:ro": "Timi\u0219",
        "name:ru": "\u0422\u0438\u043c\u0438\u0448",
        "name:sk": "Teme\u0161",
        "name:sr": "\u0422\u0438\u043c\u0438\u0448",
        "place": "county",
        "place:ro": "jude\u021b",
        "ref:nuts": "RO424",
        "ref:nuts:3": "RO424",
        "type": "boundary",
        "wikidata": "Q185586"
      }
    },
    {
      "type": "relation",
      "id": 2366873,
      "tags": {
        "ISO3166-2": "RO-CS",
        "admin_level": "4",
        "boundary": "administrative",
        "name": "Cara\u0219-Severin",
        "name:en": "Cara\u0219-Severin",
        "name:hu": "Krass\u00f3-Sz\u00f6r\u00e9ny megye",
        "name:ru": "\u041a\u0430\u0440\u0430\u0448-\u0421\u0435\u0432\u0435\u0440\u0438\u043d",
        "name:sr": "\u041a\u0430\u0440\u0430\u0448-\u0421\u0435\u0432\u0435\u0440\u0438\u043d",
        "place": "county",
        "place:ro": "jude\u021b",
        "ref:nuts": "RO422",
        "ref:nuts:3": "RO422",
        "type": "boundary",
        "wikidata": "Q187925"
      }
    },
    {
      "type": "relation",
      "id": 2366962,
      "tags": {
        "ISO3166-2": "RO-MH",
        "admin_level": "4",
        "boundary": "administrative",
        "is_in:country_code": "RO",
        "name": "Mehedin\u021bi",
        "name:en": "Mehedin\u021bi",
        "name:hu": "M\u00e9hed megye",
        "name:ru": "\u041c\u0435\u0445\u0435\u0434\u0438\u043d\u0446\u0438",
        "name:sr": "\u041c\u0435\u0445\u0435\u0434\u0438\u043d\u0446\u0438",
        "place": "county",
        "place:ro": "jude\u021b",
        "ref:nuts": "RO413",
        "ref:nuts:3": "RO413",
        "type": "boundary",
        "wikidata": "Q191717"
      }
    },
    {
      "type": "relation",
      "id": 2366970,
      "tags": {
        "ISO3166-2": "RO-DJ",
        "admin_level": "4",
        "boundary": "administrative",
        "is_in:country_code": "RO",
        "name": "Dolj",
        "name:en": "Dolj",
        "name:ru": "\u0414\u043e\u043b\u0436",
        "name:sr": "\u0414\u043e\u043b\u0436",
        "place": "county",
        "place:ro": "jude\u021b",
        "ref:nuts": "RO411",
        "ref:nuts:3": "RO411",
        "type": "boundary",
        "wikidata": "Q191065"
      }
    },
    {
      "type": "relation",
      "id": 2366978,
      "tags": {
        "ISO3166-2": "RO-OT",
        "admin_level": "4",
        "boundary": "administrative",
        "is_in:country_code": "RO",
        "name": "Olt",
        "name:de": "Alt",
        "name:en": "Olt",
        "name:ro": "Olt",
        "name:ru": "\u041e\u043b\u0442",
        "name:sr": "\u041e\u043b\u0442",
        "name:sr-Latn": "Olt",
        "place": "county",
        "place:ro": "jude\u021b",
        "ref:nuts": "RO414",
        "ref:nuts:3": "RO414",
        "type": "boundary",
        "wikidata": "Q188945"
      }
    },
    {
      "type": "relation",
      "id": 2366986,
      "tags": {
        "ISO3166-2": "RO-TR",
        "admin_level": "4",
        "boundary": "administrative",
        "is_in:country_code": "RO",
        "name": "Teleorman",
        "name:en": "Teleorman",
        "name:ru": "\u0422\u0435\u043b\u0435\u043e\u0440\u043c\u0430\u043d",
        "name:sr": "\u0422\u0435\u043b\u0435\u043e\u0440\u043c\u0430\u043d",
        "name:sr-Latn": "Teleorman",
        "place": "county",
        "place:ro": "jude\u021b",
        "ref:nuts": "RO317",
        "ref:nuts:3": "RO317",
        "type": "boundary",
        "wikidata": "Q191653"
      }
    },
    {
      "type": "relation",
      "id": 2366987,
      "tags": {
        "ISO3166-2": "RO-GR",
        "admin_level": "4",
        "boundary": "administrative",
        "is_in:country_code": "RO",
        "name": "Giurgiu",
        "name:en": "Giurgiu",
        "name:ru": "\u0414\u0436\u0443\u0440\u0434\u0436\u0443",
        "name:sr": "\u0402\u0443\u0440\u0452\u0443",
        "name:sr-Latn": "\u0110ur\u0111u",
        "place": "county",
        "place:ro": "jude\u021b",
        "ref:nuts": "RO314",
        "ref:nuts:3": "RO314",
        "type": "boundary",
        "wikidata": "Q193055"
      }
    },
    {
      "type": "relation",
      "id": 2366996,
      "tags": {
        "ISO3166-2": "RO-IF",
        "admin_level": "4",
        "boundary": "administrative",
        "is_in:country_code": "RO",
        "name": "Ilfov",
        "name:en": "Ilfov",
        "name:ru": "\u0418\u043b\u0444\u043e\u0432",
        "name:sr": "\u0418\u043b\u0444\u043e\u0432",
        "name:sr-Latn": "Ilfov",
        "place": "county",
        "place:ro": "jude\u021b",
        "ref:nuts": "RO322",
        "ref:nuts:3": "RO322",
        "type": "boundary",
        "wikidata": "Q191670"
      }
    },
    {
      "type": "relation",
      "id": 2367015,
      "tags": {
        "ISO3166-2": "RO-CL",
        "admin_level": "4",
        "boundary": "administrative",
        "is_in:country_code": "RO",
        "name": "C\u0103l\u0103ra\u0219i",
        "name:en": "C\u0103l\u0103ra\u0219i",
        "name:lt": "Kelera\u0161is",
        "name:ru": "\u041a\u044d\u043b\u044d\u0440\u0430\u0448\u0438",
        "name:sr": "\u041a\u0430\u043b\u0430\u0440\u0430\u0448\u0438",
        "name:sr-Latn": "Kalara\u0161i",
        "place": "county",
        "place:ro": "jude\u021b",
        "ref:nuts": "RO312",
        "ref:nuts:3": "RO312",
        "type": "boundary",
        "wikidata": "Q188948"
      }
    },
    {
      "type": "relation",
      "id": 2367022,
      "tags": {
        "ISO3166-2": "RO-CT",
        "admin_level": "4",
        "boundary": "administrative",
        "is_in:country_code": "RO",
        "name": "Constan\u021ba",
        "name:ar": "\u0643\u0648\u0646\u0633\u062a\u0627\u0646\u062a\u0633\u0627",
        "name:bg": "\u041a\u043e\u043d\u0441\u0442\u0430\u043d\u0446\u0430",
        "name:de": "Konstanza",
        "name:el": "\u039a\u03c9\u03bd\u03c3\u03c4\u03ac\u03bd\u03c4\u03b6\u03b1",
        "name:en": "Constan\u021ba",
        "name:eo": "Konstanco",
        "name:es": "Constanza",
        "name:he": "\u05e7\u05d5\u05e0\u05e1\u05d8\u05e0\u05e6\u05d4",
        "name:hu": "Konstanca",
        "name:it": "Costanza",
        "name:la": "Constantia",
        "name:lt": "Konstanca",
        "name:lv": "Konstanca",
        "name:pl": "Konstanca",
        "name:pt": "Constan\u00e7a",
        "name:ru": "\u041a\u043e\u043d\u0441\u0442\u0430\u043d\u0446\u0430",
        "name:sk": "Konstanca",
        "name:sr": "\u041a\u043e\u043d\u0441\u0442\u0430\u043d\u0446\u0430",
        "name:tr": "K\u00f6stence",
        "name:uk": "\u041a\u043e\u043d\u0441\u0442\u0430\u043d\u0446\u0430",
        "old_name:la": "Tomis",
        "place": "county",
        "place:ro": "jude\u021b",
        "ref:nuts": "RO223",
        "ref:nuts:3": "RO223",
        "type": "boundary",
        "wikidata": "Q188505"
      }
    },
    {
      "type": "relation",
      "id": 2367044,
      "tags": {
        "ISO3166-2": "RO-TL",
        "admin_level": "4",
        "boundary": "administrative",
        "is_in:country_code": "RO",
        "name": "Tulcea",
        "name:de": "Tultscha",
        "name:en": "Tulcea",
        "name:lt": "Tul\u010da",
        "name:pl": "Tulcza",
        "name:ro": "Tulcea",
        "name:ru": "\u0422\u0443\u043b\u0447\u0430",
        "name:sr": "\u0422\u0443\u043b\u0447\u0430",
        "name:sr-Latn": "Tul\u010da",
        "place": "county",
        "place:ro": "jude\u021b",
        "ref:nuts": "RO225",
        "ref:nuts:3": "RO225",
        "type": "boundary",
        "wikidata": "Q191078"
      }
    }
  ]
}