{
  "version": 0.6,
  "generator": "Overpass API 0.7.62.8 e802775f",
  "osm3s": {
    "timestamp_osm_base": "2025-10-03T02:22:54Z",
    "timestamp_areas_base": "2025-10-02T22:16:13Z",
    "copyright": "The data included in this document is from www.openstreetmap.org. The data is made available under ODbL."
  },
  "elements": [
    {
      "type": "relation",
      "id": 49903,
      "tags": {
        "ISO3166-1": "LA",
        "ISO3166-1:alpha2": "LA",
        "ISO3166-1:alpha3": "LAO",
        "ISO3166-1:numeric": "418",
        "admin_level": "2",
        "boundary": "administrative",
        "default_language": "lo",
        "driving_side": "right",
        "flag": "https://upload.wikimedia.org/wikipedia/commons/5/56/Flag_of_Laos.svg",
        "int_name": "Laos",
        "name": "\u0e9b\u0eb0\u0ec0\u0e97\u0e94\u0ea5\u0eb2\u0ea7",
        "name:UN:ar": "\u062c\u0645\u0647\u0648\u0631\u064a\u0629 \u0644\u0627\u0648 \u0627\u0644\u062f\u064a\u0645\u0642\u0631\u0627\u0637\u064a\u0629 \u0627\u0644\u0634\u0639\u0628\u064a\u0629",
        "name:UN:en": "Lao People's Democratic Republic (the)",
        "name:UN:es": "Rep\u00fablica Democr\u00e1tica Popular Lao (la)",
        "name:UN:fr": "R\u00e9publique d\u00e9mocratique populaire lao (la)",
        "name:UN:ru": "\u041b\u0430\u043e\u0441\u0441\u043a\u0430\u044f \u041d\u0430\u0440\u043e\u0434\u043d\u043e-\u0414\u0435\u043c\u043e\u043a\u0440\u0430\u0442\u0438\u0447\u0435\u0441\u043a\u0430\u044f \u0420\u0435\u0441\u043f\u0443\u0431\u043b\u0438\u043a\u0430",
        "name:UN:zh": "\u8001\u631d\u4eba\u6c11\u6c11\u4e3b\u5171\u548c\u56fd",
        "name:ace": "Laos",
        "name:af": "Laos",
        "name:als": "Laos",
        "name:am": "\u120b\u12ce\u1235",
        "name:an": "Laos",
        "name:ar": "\u0644\u0627\u0648\u0633",
        "name:arz": "\u0644\u0627\u0648\u0633",
        "name:ast": "Laos",
        "name:az": "Laos",
        "name:ba": "\u041b\u0430\u043e\u0441",
        "name:bar": "Laos",
        "name:bat-smg": "Lauosos",
        "name:bcl": "Laos",
        "name:be": "\u041b\u0430\u043e\u0441",
        "name:be-tarask": "\u041b\u0430\u043e\u0441",
        "name:bg": "\u041b\u0430\u043e\u0441",
        "name:bi": "Laos",
        "name:bn": "\u09b2\u09be\u0993\u09b8",
        "name:bo": "\u0f63\u0f60\u0f7c\u0f0b\u0f66\u0f74\u0f0d",
        "name:bpy": "\u09b2\u09be\u0993\u09b8",
        "name:br": "Laos",
        "name:bs": "Laos",
        "name:bug": "Laos",
        "name:bxr": "\u041b\u0430\u043e\u0441",
        "name:ca": "Laos",
        "name:ce": "\u041b\u0430\u043e\u0441",
        "name:ceb": "Laos",
        "name:ckb": "\u0644\u0627\u0648\u0633",
        "name:crh": "Laos",
        "name:cs": "Laos",
        "name:csb": "La\u00f2s",
        "name:cv": "\u041b\u0430\u043e\u0441",
        "name:cy": "Laos",
        "name:da": "Laos",
        "name:de": "Laos",
        "name:diq": "Laos",
        "name:dsb": "Laos",
        "name:dv": "\u078d\u07a7\u0787\u07af\u0790\u07b0",
        "name:el": "\u039b\u03ac\u03bf\u03c2",
        "name:en": "Laos",
        "name:eo": "Laoso",
        "name:es": "Laos",
        "name:et": "Laos",
        "name:eu": "Laos",
        "name:ext": "Laos",
        "name:fa": "\u0644\u0627\u0626\u0648\u0633",
        "name:fi": "Laos",
        "name:fo": "Laos",
        "name:fr": "Laos",
        "name:frp": "Laos",
        "name:fy": "Laos",
        "name:ga": "Laos",
        "name:gag": "Laos",
        "name:gan": "\u8001\u64be",
        "name:gd": "L\u00e0thos",
        "name:gl": "Laos",
        "name:gn": "L\u00e1o",
        "name:gu": "\u0ab2\u0abe\u0a93\u0ab8",
        "name:gv": "Yn Laos",
        "name:hak": "Li\u00e0u-koet",
        "name:haw": "Laosa",
        "name:he": "\u05dc\u05d0\u05d5\u05e1",
        "name:hi": "\u0932\u093e\u0913\u0938",
        "name:hif": "Laos",
        "name:hr": "Laos",
        "name:hsb": "Laos",
        "name:ht": "Laos",
        "name:hu": "Laosz",
        "name:hy": "\u053c\u0561\u0578\u057d",
        "name:ia": "Laos",
        "name:id": "Laos",
        "name:ie": "Laos",
        "name:ilo": "Laos",
        "name:io": "Laos",
        "name:is": "Laos",
        "name:it": "Laos",
        "name:ja": "\u30e9\u30aa\u30b9",
        "name:jbo": "luaos",
        "name:jv": "Laos",
        "name:ka": "\u10da\u10d0\u10dd\u10e1\u10d8",
        "name:kbd": "\u041b\u0430\u043e\u0441",
        "name:ki": "Laos",
        "name:kk": "\u041b\u0430\u043e\u0441",
        "name:km": "\u17a1\u17b6\u179c",
        "name:kn": "\u0cb2\u0cbe\u0cb5\u0ccb\u0cb8\u0ccd",
        "name:ko": "\ub77c\uc624\uc2a4",
        "name:ku": "Laos",
        "name:kv": "\u041b\u0430\u043e\u0441",
        "name:kw": "Pow Lao",
        "name:la": "Laotia",
        "name:lb": "Laos",
        "name:li": "Laos",
        "name:lij": "La\u00f2s",
        "name:lmo": "Laos",
        "name:ln": "Laos",
        "name:lo": "\u0e9b\u0eb0\u0ec0\u0e97\u0e94\u0ea5\u0eb2\u0ea7",
        "name:lt": "Laosas",
        "name:lv": "Laosa",
        "name:lzh": "\u8001\u64be",
        "name:map-bms": "Laos",
        "name:mdf": "\u041b\u0430\u043e\u0441",
        "name:mhr": "\u041b\u0430\u043e\u0441",
        "name:mi": "R\u0101oho",
        "name:mk": "\u041b\u0430\u043e\u0441",
        "name:ml": "\u0d32\u0d3e\u0d35\u0d4b\u0d38\u0d4d",
        "name:mn": "\u041b\u0430\u043e\u0441",
        "name:mr": "\u0932\u093e\u0913\u0938",
        "name:ms": "Laos",
        "name:my": "\u101c\u102c\u1021\u102d\u102f\u1014\u102d\u102f\u1004\u103a\u1004\u1036",
        "name:mzn": "\u0644\u0627\u0626\u0648\u0633",
        "name:na": "Raot",
        "name:nah": "Lao",
        "name:nan": "Lao-kok",
        "name:nap": "Laos",
        "name:nds": "Laos",
        "name:new": "\u0932\u093e\u0913\u0938",
        "name:nl": "Laos",
        "name:nn": "Laos",
        "name:no": "Laos",
        "name:nov": "Laos",
        "name:nv": "L\u00e1\u00e1\u02bcos",
        "name:oc": "Laos",
        "name:or": "\u0b32\u0b3e\u0b13\u0b38",
        "name:os": "\u041b\u0430\u043e\u0441",
        "name:pa": "\u0a32\u0a3e\u0a13\u0a38",
        "name:pam": "Laos",
        "name:pap": "Laos",
        "name:pih": "Layos",
        "name:pl": "Laos",
        "name:pms": "L\u00e0os",
        "name:pnb": "\u0644\u0627\u0624\u0633",
        "name:ps": "\u0644\u0627\u0648\u0648\u0633",
        "name:pt": "Laos",
        "name:qu": "Law suyu",
        "name:ro": "Laos",
        "name:ru": "\u041b\u0430\u043e\u0441",
        "name:rw": "Lawosi",
        "name:sa": "\u0932\u093e\u0913\u0938",
        "name:sah": "\u041b\u0430\u043e\u0441",
        "name:scn": "Laos",
        "name:sco": "Laos",
        "name:se": "Laos",
        "name:sh": "Laos",
        "name:si": "\u0dbd\u0dcf\u0d95\u0dc3\u0dba",
        "name:sk": "Laos",
        "name:sl": "Laos",
        "name:smn": "Laos",
        "name:sms": "Laos",
        "name:so": "Laos",
        "name:sq": "Laosi",
        "name:sr": "\u041b\u0430\u043e\u0441",
        "name:ss": "ILawoso",
        "name:su": "Laos",
        "name:sv": "Laos",
        "name:sw": "Laos",
        "name:szl": "Laos",
        "name:ta": "\u0bb2\u0bbe\u0bb5\u0bcb\u0bb8\u0bcd",
        "name:te": "\u0c32\u0c3e\u0c35\u0c4b\u0c38\u0c4d",
        "name:tet": "Laos",
        "name:tg": "\u041b\u0430\u043e\u0441",
        "name:th": "\u0e1b\u0e23\u0e30\u0e40\u0e17\u0e28\u0e25\u0e32\u0e27",
        "name:tk": "Laos",
        "name:tl": "Laos",
        "name:tr": "Laos",
        "name:tt": "\u041b\u0430\u043e\u0441",
        "name:udm": "\u041b\u0430\u043e\u0441",
        "name:ug": "\u0644\u0627\u0626\u0648\u0633",
        "name:uk": "\u041b\u0430\u043e\u0441",
        "name:ur": "\u0644\u0627\u0624\u0633",
        "name:uz": "Laos",
        "name:vi": "L\u00e0o",
        "name:vo": "Laos\u00e4n",
        "name:vro": "Laos",
        "name:war": "Laos",
        "name:wo": "R\u00e9ewum Lawos",
        "name:wuu": "\u8001\u631d",
        "name:xal": "\u041b\u0430\u043e\u0441\u0438\u043d \u0423\u043b\u0441 \u041e\u0440\u043d",
        "name:yo": "L\u00e1\u1ecd\u0300s",
        "name:yue": "\u8001\u64be",
        "name:za": "Lao",
        "name:zea": "Laos",
        "name:zh": "\u8001\u631d",
        "name:zh-Hans": "\u8001\u631d",
        "name:zh-Hans-CN": "\u8001\u631d",
        "name:zh-Hans-MY": "\u5bee\u56fd",
        "name:zh-Hans-SG": "\u5bee\u56fd",
        "name:zh-Hant": "\u5bee\u570b",
        "name:zh-Hant-CN": "\u8001\u64be",
        "name:zh-Hant-HK": "\u8001\u64be",
        "name:zh-Hant-TW": "\u5bee\u570b",
        "official_name:cs": "Laosk\u00e1 lidov\u011b demokratick\u00e1 republika",
        "official_name:en": "Lao People's Democratic Republic",
        "official_name:es": "Rep\u00fablica Democr\u00e1tica Popular Lao",
        "official_name:fr": "R\u00e9publique populaire d\u00e9mocratique du Laos",
        "official_name:gn": "L\u00e1o Tekoha Tavakuairet\u00e3 Jekopytyjoj\u00e1pe",
        "official_name:pl": "Laota\u0144ska Republika Ludowo-Demokratyczna",
        "official_name:pt": "Rep\u00fablica Democr\u00e1tica Popular do Laos",
        "official_name:ru": "\u041b\u0430\u043e\u0441\u0441\u043a\u0430\u044f \u041d\u0430\u0440\u043e\u0434\u043d\u043e-\u0414\u0435\u043c\u043e\u043a\u0440\u0430\u0442\u0438\u0447\u0435\u0441\u043a\u0430\u044f \u0420\u0435\u0441\u043f\u0443\u0431\u043b\u0438\u043a\u0430",
        "source": "CIA World database II",
        "timezone": "Asia/Vientiane",
        "type": "boundary",
        "wdb:source": "CIA World database II - asia-bdy.txt - segment 99",
        "wikidata": "Q819",
        "wikipedia": "en:Laos"
      }
    },
    {
      "type": "relation",
      "id": 5831653,
      "tags": {
        "ISO3166-2": "LA-AT",
        "admin_level": "4",
        "alt_name": "Attapu",
        "alt_name:ja": "\u30a2\u30c3\u30bf\u30d7\u30fc\u770c",
        "alt_name:ko": "\uc557\ub530\uc058\uc8fc",
        "alt_name:lo": "\u0ec1\u0e82\u0ea7\u0e87\u0ead\u0eb1\u0e94\u0e95\u0eb0\u0e9b\u0eb7",
        "alt_name:tr": "Attapeu B\u00f6lgesi",
        "alt_name:vi": "Attapeu",
        "boundary": "administrative",
        "name": "\u0ead\u0eb1\u0e94\u0e95\u0eb0\u0e9b\u0eb7",
        "name:ace": "Propinsi Attapeu",
        "name:ar": "\u0645\u062d\u0627\u0641\u0638\u0629 \u0623\u062a\u0627\u0628\u064a\u0648",
        "name:be": "\u0410\u0442\u0430\u043f\u044b",
        "name:bg": "\u0410\u0442\u0430\u043f\u0435\u0443",
        "name:ceb": "Attapu",
        "name:de": "Provinz Attapeu",
        "name:diq": "Attapeu",
        "name:en": "Attapeu",
        "name:eo": "Provinco Attapeu",
        "name:es": "Provincia de Attapeu",
        "name:eu": "Attapu probintzia",
        "name:fa": "\u0627\u0633\u062a\u0627\u0646 \u0622\u062a\u0627\u067e\u06cc\u0648",
        "name:fi": "Attapu",
        "name:fr": "Province d\u2019Attapu",
        "name:hi": "\u0905\u0924\u094d\u0924\u093e\u092a\u094d\u092f\u0941 \u092a\u094d\u0930\u093e\u0928\u094d\u0924",
        "name:hr": "Attapeu",
        "name:hu": "Attap\u00f6 tartom\u00e1ny",
        "name:id": "Provinsi Attapu",
        "name:it": "Provincia di Attapeu",
        "name:ja": "\u30a2\u30c3\u30bf\u30d7\u30fc",
        "name:ka": "\u10d0\u10e2\u10d0\u10de\u10d4\u10e3\u10e1 \u10de\u10e0\u10dd\u10d5\u10d8\u10dc\u10ea\u10d8\u10d0",
        "name:km": "\u1781\u17d2\u179c\u17c2\u1784\u17a2\u17b6\u1785\u1798\u17cd\u1780\u17d2\u179a\u1796\u17be",
        "name:ko": "\uc557\ud0c0\ud478\uc8fc",
        "name:lo": "\u0ead\u0eb1\u0e94\u0e95\u0eb0\u0e9b\u0eb7",
        "name:lo-Latn": "Attapu",
        "name:lt": "Atapu provincija",
        "name:ms": "Wilayah Attapeu",
        "name:nan": "Attapeu S\u00e9ng",
        "name:nl": "Attapeu",
        "name:no": "Attapeu",
        "name:pl": "Prowincja Attapu",
        "name:pt": "Attapeu",
        "name:ru": "\u0410\u0442\u0442\u0430\u043f\u044b",
        "name:sv": "Attapeu",
        "name:tg": "\u0412\u0438\u043b\u043e\u044f\u0442\u0438 \u0410\u0442\u0442\u0430\u043f\u0443",
        "name:th": "\u0e41\u0e02\u0e27\u0e07\u0e2d\u0e31\u0e15\u0e15\u0e30\u0e1b\u0e37\u0e2d",
        "name:tr": "Attapeu",
        "name:uk": "\u0410\u0442\u0442\u0430\u043f\u0438",
        "name:ur": "\u0627\u062a\u0648\u067e\u0648 \u0635\u0648\u0628\u06c1",
        "name:vi": "\u00c1t-ta-p\u1eeb",
        "name:war": "Attapeu",
        "name:wuu": "\u963f\u901f\u5761\u7701",
        "name:zh": "\u963f\u901f\u5761\u7701",
        "type": "boundary",
        "wikidata": "Q503004",
        "wikipedia": "en:Attapeu Province"
      }
    },
    {
      "type": "relation",
      "id": 5831654,
      "tags": {
        "ISO3166-2": "LA-BK",
        "admin_level": "4",
        "alt_name": "Bokeo",
        "alt_name:de": "Provinz Bokeo",
        "alt_name:hr": "Bokeo",
        "alt_name:ja": "\u30dc\u30fc\u30b1\u30fc\u30aa\u770c",
        "alt_name:lo": "\u0ec1\u0e82\u0ea7\u0e87\u0e9a\u0ecd\u0ec8\u0ec1\u0e81\u0ec9\u0ea7",
        "alt_name:no": "Bokeo",
        "alt_name:sv": "Bokeo",
        "boundary": "administrative",
        "name": "\u0e9a\u0ecd\u0ec8\u0ec1\u0e81\u0ec9\u0ea7",
        "name:ace": "Propinsi Bokeo",
        "name:ar": "\u0645\u062d\u0627\u0641\u0638\u0629 \u0628\u0648\u0643\u064a\u0648",
        "name:ceb": "Khou\u00e8ng Bok\u00e8o",
        "name:de": "Bokeo",
        "name:en": "Bokeo Province",
        "name:eo": "Provinco Bokeo",
        "name:es": "Provincia de Bokeo",
        "name:fa": "\u0627\u0633\u062a\u0627\u0646 \u0628\u0648\u06a9\u06cc\u0648",
        "name:fi": "Bokeo",
        "name:fr": "Bok\u00e8o",
        "name:hi": "\u092c\u094b\u0915\u0948\u0913 \u092a\u094d\u0930\u093e\u0928\u094d\u0924",
        "name:hr": "Provincija Bokeo",
        "name:hu": "Bokeo tartom\u00e1ny",
        "name:id": "Provinsi Bokeo",
        "name:it": "Provincia di Bokeo",
        "name:ja": "\u30dc\u30fc\u30b1\u30fc\u30aa",
        "name:ka": "\u10d1\u10dd\u10d9\u10d4\u10dd\u10e1 \u10de\u10e0\u10dd\u10d5\u10d8\u10dc\u10ea\u10d8\u10d0",
        "name:km": "\u1781\u17c1\u178f\u17d2\u178f\u1794\u1780\u17c2\u179c",
        "name:ko": "\ubcf4\ucf00\uc624\uc8fc",
        "name:lo": "\u0e9a\u0ecd\u0ec8\u0ec1\u0e81\u0ec9\u0ea7",
        "name:lo-Latn": "Bok\u00e8o",
        "name:lt": "Bokeo provincija",
        "name:ms": "Wilayah Bokeo",
        "name:nan": "Bokeo S\u00e9ng",
        "name:nl": "Bokeo",
        "name:no": "Provins Bokeo",
        "name:pl": "Prowincja Bok\u00e9o",
        "name:pt": "Bokeo",
        "name:ru": "\u0411\u043e\u043a\u044d\u0443",
        "name:sv": "Provins Bokeo",
        "name:tg": "\u0412\u0438\u043b\u043e\u044f\u0442\u0438 \u0411\u043e\u043a\u0435\u043e",
        "name:th": "\u0e41\u0e02\u0e27\u0e07\u0e1a\u0e48\u0e2d\u0e41\u0e01\u0e49\u0e27",
        "name:uk": "\u0411\u043e\u043a\u0435\u0443",
        "name:ur": "\u0628\u0648\u06a9\u06cc\u0648 \u0635\u0648\u0628\u06c1",
        "name:vi": "Bokeo",
        "name:war": "Bokeo",
        "name:wuu": "\u535a\u80f6\u7701",
        "name:zh": "\u535a\u80f6\u7701",
        "old_name": "Hua Khong",
        "type": "boundary",
        "wikidata": "Q334884",
        "wikipedia": "en:Bokeo Province"
      }
    },
    {
      "type": "relation",
      "id": 5831655,
      "tags": {
        "ISO3166-2": "LA-BL",
        "admin_level": "4",
        "alt_name": "Borikhamxay;Bolikhamsai Province",
        "alt_name:fr": "Borikhamxai",
        "alt_name:ja": "\u30dc\u30fc\u30ea\u30ab\u30e0\u30b5\u30a4\u770c",
        "alt_name:lo": "\u0ec1\u0e82\u0ea7\u0e87\u0e9a\u0ecd\u0ea5\u0eb4\u0e84\u0eb3\u0ec4\u0e8a",
        "alt_name:zh": "\u6ce2\u91cc\u574e\u585e\u7701",
        "boundary": "administrative",
        "name": "\u0e9a\u0ecd\u0ea5\u0eb4\u0e84\u0eb3\u0ec4\u0e8a",
        "name:ace": "Propinsi Bolikhamsai",
        "name:ar": "\u0645\u062d\u0627\u0641\u0638\u0629 \u0628\u0648\u0644\u064a\u062e\u0627\u0645\u0627\u0633\u064a",
        "name:ceb": "Bolikhamxai",
        "name:de": "Provinz Bolikhamsai",
        "name:en": "Bolikhamsai",
        "name:eo": "Provinco Boli\u0125amsai",
        "name:es": "Provincia de Bolikhamxai",
        "name:fa": "\u0627\u0633\u062a\u0627\u0646 \u0628\u0648\u0644\u06cc\u06a9\u0627\u0645\u200c\u0633\u0627\u06cc",
        "name:fi": "Bolikhamxai",
        "name:fr": "Bolikhamxai",
        "name:hi": "\u092c\u094b\u0932\u093f\u0916\u092e\u0938\u093e\u0907 \u092a\u094d\u0930\u093e\u0928\u094d\u0924",
        "name:hr": "Bolikhamsai",
        "name:hu": "Bolikhamszaj tartom\u00e1ny",
        "name:id": "Provinsi Bolikhamsai",
        "name:it": "Provincia di Bolikhamxai",
        "name:ja": "\u30dc\u30fc\u30ea\u30ab\u30e0\u30b5\u30a4",
        "name:km": "\u1781\u17c1\u178f\u17d2\u178f\u1794\u179b\u17b7\u1781\u17b6\u17c6\u179f\u17c3",
        "name:ko": "\ubcfc\ub9ac\uce84\uc0ac\uc774\uc8fc",
        "name:lo": "\u0e9a\u0ecd\u0ea5\u0eb4\u0e84\u0ecd\u0eb2\u0ec4\u0e8a",
        "name:lo-Latn": "Bolikhamxai",
        "name:lt": "Bolikamsajaus provincija",
        "name:ms": "Wilayah Bolikhamsai",
        "name:nan": "Bolikhamsai S\u00e9ng",
        "name:nl": "Bolikhamsai",
        "name:no": "Bolikhamsai",
        "name:pl": "Prowincja Bolikhamxai",
        "name:pt": "Borikhamxai",
        "name:ru": "\u0411\u043e\u043b\u0438\u043a\u0445\u0430\u043c\u0441\u0430\u0439",
        "name:sv": "Bolikhamsai",
        "name:tg": "\u0412\u0438\u043b\u043e\u044f\u0442\u0438 \u0411\u043e\u043b\u0438x\u0430\u043d",
        "name:th": "\u0e41\u0e02\u0e27\u0e07\u0e1a\u0e2d\u0e25\u0e34\u0e04\u0e33\u0e44\u0e0b",
        "name:uk": "\u0411\u043e\u043b\u0456\u043a\u0445\u0430\u043c\u0441\u0430\u0439",
        "name:ur": "\u0628\u0648\u0644\u06cc\u062e\u0627\u0645\u0633\u0627\u0626\u06cc \u0635\u0648\u0628\u06c1",
        "name:vi": "Borikhamxay",
        "name:war": "Bolikhamsai",
        "name:wuu": "\u6ce2\u91cc\u574e\u585e\u7701",
        "name:zh": "\u535a\u5229\u574e\u8d5b\u7701",
        "type": "boundary",
        "wikidata": "Q2403514",
        "wikipedia": "en:Bolikhamsai Province"
      }
    },
    {
      "type": "relation",
      "id": 5831656,
      "tags": {
        "ISO3166-2": "LA-CH",
        "admin_level": "4",
        "alt_name": "Champassak;Champasack;Champasak",
        "alt_name:ja": "\u30c1\u30e3\u30f3\u30d1\u30fc\u30b5\u30c3\u30af\u770c",
        "alt_name:lo": "\u0ec1\u0e82\u0ea7\u0e87\u0e88\u0eb3\u0e9b\u0eb2\u0eaa\u0eb1\u0e81",
        "alt_name:vi": "Champasack",
        "boundary": "administrative",
        "name": "\u0e88\u0eb3\u0e9b\u0eb2\u0eaa\u0eb1\u0e81",
        "name:ace": "Propinsi Champasak",
        "name:ar": "\u0645\u062d\u0627\u0641\u0638\u0629 \u062a\u0634\u0627\u0645\u0628\u0627\u0633\u0627\u0643",
        "name:ceb": "Champasak",
        "name:cs": "\u010campasak",
        "name:cv": "\u0427\u0430\u043c\u043f\u0430\u0441\u0430\u043a",
        "name:de": "Provinz Champasak",
        "name:diq": "\u00c7ampasak",
        "name:en": "Champasak Province",
        "name:eo": "Provinco \u0108ampasako",
        "name:es": "Provincia de Champasak",
        "name:fa": "\u0627\u0633\u062a\u0627\u0646 \u0686\u0627\u0645\u067e\u0627\u0633\u0627\u06a9",
        "name:fi": "Champasak",
        "name:fr": "Province de Champasak",
        "name:hi": "\u091a\u092e\u094d\u092a\u093e\u0938\u0915 \u092a\u094d\u0930\u093e\u0928\u094d\u0924",
        "name:hr": "\u010campasak",
        "name:hu": "Tjampatszak tartom\u00e1ny",
        "name:id": "Provinsi Champasak",
        "name:it": "Provincia di Champasak",
        "name:ja": "\u30c1\u30e3\u30f3\u30d1\u30fc\u30b5\u30c3\u30af",
        "name:km": "\u1781\u17c1\u178f\u17d2\u178f\u1785\u17c6\u1794\u17c9\u17b6\u179f\u1780\u17d2\u178f\u17b7",
        "name:ko": "\ucc38\ud30c\uc0ac\ud06c\uc8fc",
        "name:lo": "\u0e88\u0ecd\u0eb2\u0e9b\u0eb2\u0eaa\u0eb1\u0e81",
        "name:lo-Latn": "Champasak",
        "name:mn": "\u0427\u0430\u043c\u043f\u0430\u0441\u0430\u043a \u0430\u0439\u043c\u0430\u0433",
        "name:ms": "Wilayah Champasak",
        "name:nan": "Champasak S\u00e9ng",
        "name:nl": "Champassak",
        "name:nn": "Champasak-fylket",
        "name:no": "Champasack",
        "name:pl": "Prowincja Champasak",
        "name:pt": "Champassak",
        "name:ru": "\u0422\u044f\u043c\u043f\u0430\u0441\u0430\u043a",
        "name:sv": "Champassak",
        "name:tg": "\u0412\u0438\u043b\u043e\u044f\u0442\u0438 \u0427\u0430\u043c\u043f\u0430\u0441\u0430\u043a",
        "name:th": "\u0e41\u0e02\u0e27\u0e07\u0e08\u0e33\u0e1b\u0e32\u0e28\u0e31\u0e01\u0e14\u0e34\u0e4c",
        "name:tr": "\u00c7ampasak B\u00f6lgesi",
        "name:uk": "\u0422\u044f\u043c\u043f\u0430\u0441\u0430\u043a",
        "name:ur": "\u0686\u0627\u0645\u067e\u0627\u0633\u0627\u06a9 \u0635\u0648\u0628\u06c1",
        "name:vi": "Ch\u0103m-pa-s\u1eafc",
        "name:war": "Champasak",
        "name:wuu": "\u5360\u5df4\u585e\u7701",
        "name:zh": "\u5360\u5df4\u585e\u7701",
        "type": "boundary",
        "wikidata": "Q334888",
        "wikipedia": "en:Champasak Province"
      }
    },
    {
      "type": "relation",
      "id": 5831657,
      "tags": {
        "ISO3166-2": "LA-HO",
        "admin_level": "4",
        "alt_name": "Houaphan",
        "alt_name:en": "Houaphanh province",
        "alt_name:ja": "\u30d5\u30a2\u30d1\u30f3\u770c",
        "alt_name:lo": "\u0ec1\u0e82\u0ea7\u0e87\u0eab\u0ebb\u0ea7\u0e9e\u0eb1\u0e99",
        "alt_name:vi": "Huaphanh",
        "boundary": "administrative",
        "name": "\u0eab\u0ebb\u0ea7\u0e9e\u0eb1\u0e99",
        "name:ace": "Propinsi Houaphanh",
        "name:ar": "\u0645\u062d\u0627\u0641\u0638\u0629 \u0647\u0648\u0627 \u0641\u0627\u0646",
        "name:ceb": "Houaphan",
        "name:de": "Provinz Houaphan",
        "name:en": "Houaphanh",
        "name:eo": "Provinco Huaphanh",
        "name:es": "Provincia de Houaphan",
        "name:fa": "\u0627\u0633\u062a\u0627\u0646 \u0647\u0648\u0627\u0641\u0627\u0646",
        "name:fi": "Houaphan",
        "name:fr": "Houaphan",
        "name:hi": "\u0939\u0941\u0906\u092b\u093e\u0928\u094d\u0939 \u092a\u094d\u0930\u093e\u0928\u094d\u0924",
        "name:hr": "Houaphan",
        "name:hu": "Huaphan tartom\u00e1ny",
        "name:id": "Provinsi Houaphanh",
        "name:it": "Provincia di Houaphan",
        "name:ja": "\u30d5\u30a2\u30d1\u30f3",
        "name:km": "\u1781\u17c1\u178f\u17d2\u178f \u17a0\u17bd \u1795\u17b6\u1793\u17cb",
        "name:ko": "\ud6c4\uc544\ud310\uc8fc",
        "name:lo": "\u0eab\u0ebb\u0ea7\u0e9e\u0eb1\u0e99",
        "name:lo-Latn": "Houaphan",
        "name:ms": "Wilayah Houaphanh",
        "name:nan": "Houaphanh S\u00e9ng",
        "name:nl": "Hua Phan",
        "name:no": "Hua Phan",
        "name:pl": "Prowincja Houaphan",
        "name:pt": "Houaphanh",
        "name:ru": "\u0425\u0443\u0430\u043f\u0445\u0430\u043d",
        "name:so": "Houaphanh Province",
        "name:sv": "Hua Phan",
        "name:tg": "\u0412\u0438\u043b\u043e\u044f\u0442\u0438 \u04b2\u043e\u0443\u0430\u043f\u0430\u043d",
        "name:th": "\u0e41\u0e02\u0e27\u0e07\u0e2b\u0e31\u0e27\u0e1e\u0e31\u0e19",
        "name:uk": "\u0425\u0443\u0430\u043f\u0445\u0430\u043d",
        "name:ur": "\u06c1\u0648\u0627\u0641\u0627\u0646 \u0635\u0648\u0628\u06c1",
        "name:vi": "H\u1ee7a Ph\u0103n",
        "name:war": "Hua Phan",
        "name:wuu": "\u534e\u6f58\u7701",
        "name:zh": "\u534e\u6f58\u7701",
        "old_name": "Hua Phan",
        "old_name:vi": "S\u1ea7m Ch\u00e2u;Ch\u00e2u S\u1ea7m",
        "type": "boundary",
        "wikidata": "Q502997",
        "wikipedia": "en:Houaphanh Province"
      }
    },
    {
      "type": "relation",
      "id": 5831658,
      "tags": {
        "ISO3166-2": "LA-KH",
        "admin_level": "4",
        "alt_name:uk": "\u041a\u0445\u0430\u043c\u0443\u0430\u043d \u043f\u0440\u043e\u0432\u0456\u043d\u0446\u0456\u044f",
        "boundary": "administrative",
        "name": "\u0e84\u0ecd\u0eb2\u0ea1\u0ec8\u0ea7\u0e99",
        "name:ar": "\u0645\u062d\u0627\u0641\u0638\u0629 \u062e\u0627\u0645\u0648\u0627\u0646\u064a",
        "name:de": "Provinz Khammuan",
        "name:en": "Khammouane",
        "name:eo": "Provinco \u0124amuan",
        "name:es": "Provincia de Khammouan",
        "name:fa": "\u0627\u0633\u062a\u0627\u0646 \u062e\u0627\u0645\u0648\u0627\u0646",
        "name:fi": "Khammouan",
        "name:fr": "Khammouan",
        "name:hi": "\u0916\u092e\u094d\u092e\u0941\u0906\u0928 \u092a\u094d\u0930\u093e\u0928\u094d\u0924",
        "name:hr": "Khammouane",
        "name:hu": "Khammuan tartom\u00e1ny",
        "name:id": "Provinsi Khammouan",
        "name:it": "Provincia di Khammouan",
        "name:ja": "\u30ab\u30e0\u30e0\u30a2\u30f3",
        "name:km": "\u1781\u17c1\u178f\u17d2\u178f\u1781\u17b6\u17c6\u1798\u17bd\u1793",
        "name:ko": "\uce84\ubb34\uc548 \uc8fc",
        "name:lo": "\u0e84\u0ecd\u0eb2\u0ea1\u0ec8\u0ea7\u0e99",
        "name:lo-Latn": "Khammouan",
        "name:ms": "Wilayah Khammouane",
        "name:nl": "Khammuan",
        "name:no": "Khammuan",
        "name:pl": "Prowincja Khammouan",
        "name:pt": "Khammouane",
        "name:ru": "\u041a\u0445\u0430\u043c\u043c\u0443\u0430\u043d",
        "name:sv": "Khammuan",
        "name:tg": "\u0412\u0438\u043b\u043e\u044f\u0442\u0438 \u0425\u0430\u043c\u043c\u043e\u0443\u0430\u043d",
        "name:th": "\u0e41\u0e02\u0e27\u0e07\u0e04\u0e33\u0e21\u0e48\u0e27\u0e19",
        "name:uk": "\u041a\u0445\u0430\u043c\u043c\u0443\u0430\u043d \u043f\u0440\u043e\u0432\u0456\u043d\u0446\u0456\u044f",
        "name:ur": "\u062e\u0627\u0645\u0648\u0627\u0646 \u0635\u0648\u0628\u06c1",
        "name:vi": "Khammuane",
        "name:zh": "\u7518\u8499\u7701",
        "type": "boundary",
        "wikidata": "Q506641",
        "wikipedia": "en:Khammouane Province"
      }
    },
    {
      "type": "relation",
      "id": 5831659,
      "tags": {
        "ISO3166-2": "LA-LM",
        "admin_level": "4",
        "alt_name:ja": "\u30eb\u30a2\u30f3\u30ca\u30e0\u30bf\u30fc\u770c",
        "alt_name:lo": "\u0ec1\u0e82\u0ea7\u0e87\u0eab\u0ebc\u0ea7\u0e87\u0e99\u0ecd\u0ec9\u0eb2\u0e97\u0eb2",
        "boundary": "administrative",
        "name": "\u0eab\u0ea5\u0ea7\u0e87\u0e99\u0ecd\u0ec9\u0eb2\u0e97\u0eb2",
        "name:ace": "Propinsi Louang Namtha",
        "name:ar": "\u0645\u062d\u0627\u0641\u0638\u0629 \u0644\u0648\u0627\u0646\u063a \u0646\u0627\u0645\u062b\u0627",
        "name:ceb": "Louangnamtha",
        "name:de": "Provinz Luang Namtha",
        "name:en": "Luang Namtha",
        "name:eo": "Provinco Luang Namtha",
        "name:es": "Provincia de Luang Namtha",
        "name:fa": "\u0627\u0633\u062a\u0627\u0646 \u0644\u0648\u0622\u0646\u06af \u0646\u0627\u0645\u062a\u0627",
        "name:fi": "Loung Namtha",
        "name:fr": "Province de Louangnamtha",
        "name:hi": "\u0932\u0941\u0905\u0902\u0917 \u0928\u092e\u094d\u0925\u093e \u092a\u094d\u0930\u093e\u0928\u094d\u0924",
        "name:hr": "Luang Namtha",
        "name:hu": "Luangnamtha tartom\u00e1ny",
        "name:id": "Provinsi Louang Namtha",
        "name:it": "Provincia di Luang Namtha",
        "name:ja": "\u30eb\u30a2\u30f3\u30ca\u30e0\u30bf\u30fc",
        "name:km": "\u1781\u17c1\u178f\u17d2\u178f\u17a0\u17d2\u179b\u17bd\u1784\u178e\u17b6\u17c6\u1790\u17b6",
        "name:ko": "\ub8e8\uc559\ub0a8\ud0c0\uc8fc",
        "name:lo": "\u0eab\u0ea5\u0ea7\u0e87\u0e99\u0ecd\u0ec9\u0eb2\u0e97\u0eb2",
        "name:lo-Latn": "Louangnamtha",
        "name:ms": "Wilayah Louang Namtha",
        "name:my": "\u101c\u103d\u1019\u103a\u1014\u1019\u103a\u1011\u102c\u1015\u103c\u100a\u103a\u1014\u101a\u103a",
        "name:nan": "Luang Namtha S\u00e9ng",
        "name:nl": "Luang Namtha",
        "name:no": "Luang Namtha",
        "name:pl": "Prowincja Louang Namtha",
        "name:pt": "Luang Namtha",
        "name:ru": "\u041b\u0443\u0430\u043d\u0433\u043d\u0430\u043c\u0442\u0445\u0430",
        "name:sv": "Luang Namtha",
        "name:tg": "\u0412\u0438\u043b\u043e\u044f\u0442\u0438 \u041b\u043e\u0443\u043d\u0433 \u041d\u0430\u043c\u0442\u0430",
        "name:th": "\u0e41\u0e02\u0e27\u0e07\u0e2b\u0e25\u0e27\u0e07\u0e19\u0e49\u0e33\u0e17\u0e32",
        "name:ur": "\u0644\u0648\u0627\u0646\u06af \u0646\u0627\u0645\u062a\u06be\u0627 \u0635\u0648\u0628\u06c1",
        "name:vi": "Luangnamtha",
        "name:war": "Luang Nam Tha",
        "name:wuu": "\u7405\u5357\u5854\u7701",
        "name:zh": "\u7405\u5357\u5854\u7701",
        "type": "boundary",
        "wikidata": "Q948691",
        "wikipedia": "en:Luang Namtha Province"
      }
    },
    {
      "type": "relation",
      "id": 5831660,
      "tags": {
        "ISO3166-2": "LA-LP",
        "admin_level": "4",
        "alt_name:en": "Luangprabang;Louangphabang",
        "alt_name:fi": "Luang Prabang",
        "alt_name:ja": "\u30eb\u30a2\u30f3\u30d1\u30d0\u30fc\u30f3\u770c",
        "alt_name:ko": "\ub8e8\uc559\ud30c\ubc29;\ub8e8\uc559\ud504\ub77c\ubc29\uc8fc;\ub8e8\uc559\ud30c\ubc29\uc8fc",
        "alt_name:lo": "\u0ec1\u0e82\u0ea7\u0e87\u0eab\u0ebc\u0ea7\u0e87\u0e9e\u0eb0\u0e9a\u0eb2\u0e87",
        "alt_name:mn": "\u041b\u0443\u0430\u043d\u0433 \u041f\u0440\u0430\u0431\u0430\u043d\u0433 \u0430\u0439\u043c\u0430\u0433",
        "alt_name:pl": "Prowincja Luang Prabang",
        "boundary": "administrative",
        "name": "\u0eab\u0ea5\u0ea7\u0e87\u0e9e\u0eb0\u0e9a\u0eb2\u0e87",
        "name:ace": "Propinsi Luang Prabang",
        "name:ar": "\u0645\u062d\u0627\u0641\u0638\u0629 \u0644\u0648\u0627\u0646\u063a \u0628\u0631\u0627\u0628\u0627\u0646\u063a",
        "name:ceb": "Luang Prabang Province",
        "name:de": "Provinz Luang Prabang",
        "name:en": "Luang Prabang",
        "name:eo": "Provinco Luangprabango",
        "name:es": "Provincia de Luang Prabang",
        "name:fa": "\u0627\u0633\u062a\u0627\u0646 \u0644\u0648\u0622\u0646\u06af \u067e\u0631\u0627\u0628\u0627\u0646\u06af",
        "name:fi": "Louangphabang",
        "name:fr": "Province de Louangphabang",
        "name:hi": "\u0932\u0941\u0905\u0902\u0917 \u092a\u094d\u0930\u092c\u093e\u0902\u0917 \u092a\u094d\u0930\u093e\u0928\u094d\u0924",
        "name:hr": "Luang Prabang",
        "name:hu": "Luangprabang tartom\u00e1ny",
        "name:id": "Provinsi Louangphabang",
        "name:it": "Provincia di Luang Prabang",
        "name:ja": "\u30eb\u30a2\u30f3\u30d1\u30d0\u30fc\u30f3",
        "name:km": "\u1781\u17c1\u178f\u17d2\u178f\u17a0\u17d2\u179b\u17bd\u1784\u1796\u17d2\u179a\u17c7\u1794\u17b6\u1784",
        "name:ko": "\ub8e8\uc559\ud504\ub77c\ubc29",
        "name:lo": "\u0eab\u0ea5\u0ea7\u0e87\u0e9e\u0eb0\u0e9a\u0eb2\u0e87",
        "name:lo-Latn": "Louangphabang",
        "name:mn": "\u041b\u0443\u0430\u043d\u0433\u043f\u0445\u0430\u0431\u0430\u043d\u0433 \u0430\u0439\u043c\u0430\u0433",
        "name:ms": "Wilayah Luang Prabang",
        "name:nan": "Luang Prabang S\u00e9ng",
        "name:nl": "Luang Prabang",
        "name:no": "Luang Prabang",
        "name:pl": "Prowincja Louangphrabang",
        "name:pt": "Luang Prabang",
        "name:ru": "\u041b\u0443\u0430\u043d\u0433\u043f\u0445\u0430\u0431\u0430\u043d\u0433",
        "name:sv": "Louang Prabang",
        "name:ta": "\u0b87\u0bb2\u0bc1\u0bb5\u0bbe\u0b99\u0bcd \u0baa\u0bbf\u0bb0\u0baa\u0bbe\u0b99\u0bcd \u0bae\u0bbe\u0b95\u0bbe\u0ba3\u0bae\u0bcd, \u0bb2\u0bbe\u0bb5\u0bcb\u0bb8\u0bcd",
        "name:tg": "\u0412\u0438\u043b\u043e\u044f\u0442\u0438 \u041b\u043e\u0443\u0430\u043d\u0433\u043f\u0430\u0431\u0430\u043d\u0433",
        "name:th": "\u0e41\u0e02\u0e27\u0e07\u0e2b\u0e25\u0e27\u0e07\u0e1e\u0e23\u0e30\u0e1a\u0e32\u0e07",
        "name:tr": "Luang Prabang B\u00f6lgesi",
        "name:ur": "\u0644\u0648\u0627\u0646\u06af \u067e\u0631\u0627\u0628\u0627\u0646\u06af \u0635\u0648\u0628\u06c1",
        "name:vi": "Luangprabang",
        "name:war": "Luang Prabang",
        "name:wuu": "\u7405\u52c3\u62c9\u90a6\u7701",
        "name:yue": "\u9f8d\u5e15\u90a6\u7701",
        "name:zh": "\u7405\u52c3\u62c9\u90a6\u7701",
        "type": "boundary",
        "wikidata": "Q747881",
        "wikipedia": "en:Luang Prabang Province"
      }
    },
    {
      "type": "relation",
      "id": 5831661,
      "tags": {
        "ISO3166-2": "LA-OU",
        "admin_level": "4",
        "alt_name": "Oudomxai",
        "alt_name:ja": "\u30a6\u30c9\u30e0\u30b5\u30a4\u770c",
        "alt_name:ko": "\uc6b0\ub3d4\uc0ac\uc774\uc8fc",
        "alt_name:lo": "\u0ec1\u0e82\u0ea7\u0e87\u0ead\u0eb8\u0e94\u0ebb\u0ea1\u0ec4\u0e8a",
        "alt_name:vi": "Oud\u00f4mxai",
        "boundary": "administrative",
        "name": "\u0ead\u0eb8\u0e94\u0ebb\u0ea1\u0ec4\u0e8a",
        "name:ace": "Propinsi Oudomxay",
        "name:ar": "\u0645\u062d\u0627\u0641\u0638\u0629 \u0623\u0648\u062f\u0648\u0645\u0643\u0633\u0627\u064a",
        "name:az": "Udomsay \u0259yal\u0259ti",
        "name:ceb": "Khou\u00e8ng Oud\u00f4mxai",
        "name:da": "Udomxai",
        "name:de": "Provinz Oudomxay",
        "name:en": "Oudomxay",
        "name:eo": "Provinco Udomsai",
        "name:es": "Provincia de Oudomxay",
        "name:fa": "\u0627\u0633\u062a\u0627\u0646 \u0627\u0648\u062f\u0648\u0645\u0634\u0627\u06cc",
        "name:fi": "Oudomxai",
        "name:fr": "Oud\u00f4mxai",
        "name:hi": "\u0909\u0921\u094b\u092e\u0938\u093e\u090f \u092a\u094d\u0930\u093e\u0928\u094d\u0924",
        "name:hr": "Oudomxay",
        "name:hu": "Udomszaj tartom\u00e1ny",
        "name:id": "Provinsi Oudomxai",
        "name:it": "Provincia di Oudomxay",
        "name:ja": "\u30a6\u30c9\u30e0\u30b5\u30a4",
        "name:km": "\u1781\u17c1\u178f\u17d2\u178f\u17a7\u178f\u17d2\u178f\u1798\u1787\u17d0\u1799",
        "name:ko": "\uc6b0\ub3d4\uc2f8\uc774\uc8fc",
        "name:lo": "\u0ead\u0eb8\u0e94\u0ebb\u0ea1\u0ec4\u0e8a",
        "name:lo-Latn": "Oud\u00f4mxai",
        "name:lt": "Udomsajaus provincija",
        "name:ms": "Wilayah Oudomxay",
        "name:nan": "Oudomxay S\u00e9ng",
        "name:nl": "Udomxai",
        "name:no": "Udomxai",
        "name:pl": "Prowincja Oud\u00f4mxai",
        "name:pt": "Oudomxai",
        "name:ru": "\u0423\u0434\u043e\u043c\u0441\u0430\u0439",
        "name:sv": "Udomxai",
        "name:tg": "\u0412\u0438\u043b\u043e\u044f\u0442\u0438 \u041e\u0443\u0434\u043e\u043c\u0441\u0430\u0438",
        "name:th": "\u0e41\u0e02\u0e27\u0e07\u0e2d\u0e38\u0e14\u0e21\u0e44\u0e0b",
        "name:uk": "\u0423\u0434\u043e\u043c\u0441\u0430\u0439",
        "name:ur": "\u0627\u0648\u062f\u0627\u0645\u0633\u0627\u0626\u06d2 \u0635\u0648\u0628\u06c1",
        "name:vi": "Oudomxay",
        "name:war": "Udomsai",
        "name:wuu": "\u4e4c\u591a\u59c6\u585e\u7701",
        "name:zh": "\u4e4c\u591a\u59c6\u585e\u7701",
        "type": "boundary",
        "wikidata": "Q465961",
        "wikipedia": "en:Oudomxay Province"
      }
    },
    {
      "type": "relation",
      "id": 5831662,
      "tags": {
        "ISO3166-2": "LA-PH",
        "admin_level": "4",
        "alt_name:en": "Phongsaly province",
        "alt_name:ja": "\u30dd\u30f3\u30b5\u30fc\u30ea\u30fc\u770c",
        "alt_name:lo": "\u0ec1\u0e82\u0ea7\u0e87\u0e9c\u0ebb\u0ec9\u0e87\u0eaa\u0eb2\u0ea5\u0eb5",
        "alt_name:vi": "Ph\u00f4ngsali",
        "boundary": "administrative",
        "name": "\u0e9c\u0ebb\u0ec9\u0e87\u0eaa\u0eb2\u0ea5\u0eb5",
        "name:ace": "Propinsi Phongsali",
        "name:ar": "\u0645\u062d\u0627\u0641\u0638\u0629 \u0641\u0648\u0646\u063a \u0633\u0627\u0644\u064a",
        "name:ca": "Prov\u00edncia de Phongsali",
        "name:ceb": "Khou\u00e8ng Ph\u00f4ngsali",
        "name:de": "Provinz Phongsali",
        "name:en": "Phongsaly",
        "name:eo": "Provinco Phongsali",
        "name:es": "Provincia de Phongsali",
        "name:fa": "\u0627\u0633\u062a\u0627\u0646 \u0641\u0648\u0646\u06af\u0633\u0627\u0644\u06cc",
        "name:fi": "Phongsali",
        "name:fr": "Province de Ph\u00f4ngsali",
        "name:frr": "Phongsaalii",
        "name:hi": "\u092b\u094b\u0902\u0917\u0938\u093e\u0932\u0940 \u092a\u094d\u0930\u093e\u0928\u094d\u0924",
        "name:hr": "Phongsali",
        "name:hu": "Phongszali tartom\u00e1ny",
        "name:id": "Provinsi Phongsali",
        "name:it": "Provincia di Phongsali",
        "name:ja": "\u30dd\u30f3\u30b5\u30fc\u30ea\u30fc",
        "name:km": "\u1781\u17c1\u178f\u17d2\u178f\u1795\u17bb\u1784\u179f\u17b6\u179b\u17b8",
        "name:ko": "\ud401\uc0b4\ub9ac\uc8fc",
        "name:lo": "\u0e9c\u0ebb\u0ec9\u0e87\u0eaa\u0eb2\u0ea5\u0eb5",
        "name:lo-Latn": "Ph\u00f4ngsali",
        "name:ms": "Wilayah Phongsaly",
        "name:nan": "Phongsaly S\u00e9ng",
        "name:nl": "Phongsali",
        "name:no": "Phongsali",
        "name:pl": "Prowincja Ph\u00f4ngsali",
        "name:pt": "Phongsali",
        "name:ru": "\u041f\u0445\u043e\u043d\u0433\u0441\u0430\u043b\u0438",
        "name:sv": "Phongsali",
        "name:tg": "\u0412\u0438\u043b\u043e\u044f\u0442\u0438 \u041f\u043e\u043d\u0433\u0441\u0430\u043b\u0438",
        "name:th": "\u0e41\u0e02\u0e27\u0e07\u0e1e\u0e07\u0e2a\u0e32\u0e25\u0e35",
        "name:uk": "\u041f\u0445\u043e\u043d\u0491\u0441\u0430\u043b\u0456",
        "name:ur": "\u0641\u0648\u0646\u06af\u0633\u0627\u0644\u06cc \u0635\u0648\u0628\u06c1",
        "name:vi": "Phong Sa L\u1ef3",
        "name:war": "Phongsali",
        "name:wuu": "\u4e30\u6c99\u91cc\u7701",
        "name:zh": "\u4e30\u6c99\u91cc\u7701",
        "type": "boundary",
        "wikidata": "Q334868",
        "wikipedia": "en:Phongsaly Province"
      }
    },
    {
      "type": "relation",
      "id": 5831663,
      "tags": {
        "ISO3166-2": "LA-XA",
        "admin_level": "4",
        "alt_name": "Sainyabuli;Xaignabury;Xaignabouli;Xayaburi;Xayaboury;Xayabouly",
        "alt_name:fr": "Sayaboury",
        "alt_name:ja": "\u30b5\u30a4\u30cb\u30e3\u30d6\u30fc\u30ea\u30fc\u770c",
        "alt_name:km": "\u1781\u17c1\u178f\u17d2\u178f\u1787\u17d0\u1799\u1794\u17bb\u179a\u17b8",
        "alt_name:lo": "\u0ec1\u0e82\u0ea7\u0e87\u0ec4\u0e8a\u0e8d\u0eb0\u0e9a\u0eb9\u0ea5\u0eb5",
        "alt_name:no": "Sainyabuli",
        "alt_name:sv": "Sainyabuli",
        "alt_name:vi": "Xayabury",
        "boundary": "administrative",
        "name": "\u0ec4\u0e8a\u0e8d\u0eb0\u0e9a\u0eb9\u0ea5\u0eb5",
        "name:ace": "Propinsi Sainyabuli",
        "name:ar": "\u0645\u062d\u0627\u0641\u0638\u0629 \u0633\u0627\u064a\u0630\u064a\u0628\u0648\u0644\u064a",
        "name:ca": "Prov\u00edncia de Sainyabuli",
        "name:ceb": "Xaignabouli",
        "name:ckb": "\u067e\u0627\u0631\u06ce\u0632\u06af\u0627\u06cc \u0633\u0627\u06cc\u0646\u0627\u0628\u0648\u0644\u06cc",
        "name:de": "Provinz Sainyabuli",
        "name:en": "Sainyabuli Province",
        "name:eo": "Provinco Sainjabuli",
        "name:es": "Provincia de Sainyabuli",
        "name:fa": "\u0627\u0633\u062a\u0627\u0646 \u0633\u0627\u06cc\u0646\u06cc\u0627\u0628\u0648\u0644\u06cc",
        "name:fi": "Xaignabouli",
        "name:fr": "Province de Xaignabouli",
        "name:hi": "\u0938\u0948\u0902\u092f\u093e\u092c\u0941\u0932\u0940 \u092a\u094d\u0930\u093e\u0928\u094d\u0924",
        "name:hr": "Provincija Sainyabuli",
        "name:hu": "Szajnjabuli tartom\u00e1ny",
        "name:id": "Provinsi Xaignabouli",
        "name:it": "Provincia di Xaignabouli",
        "name:ja": "\u30b5\u30a4\u30cb\u30e3\u30d6\u30fc\u30ea\u30fc",
        "name:km": "\u1781\u17d2\u179c\u17c2\u1784\u1787\u17d0\u1799\u1794\u17bb\u179a\u17b8",
        "name:ko": "\uc0ac\uc774\ub0d0\ubd88\ub9ac\uc8fc",
        "name:lo": "\u0ec4\u0e8a\u0e8d\u0eb0\u0e9a\u0eb9\u0ea5\u0eb5",
        "name:lo-Latn": "Xaignabouli",
        "name:ml": "\u0d38\u0d48\u0d28\u0d4d\u0d2f\u0d3e\u0d2c\u0d41\u0d32\u0d3f \u0d2a\u0d4d\u0d30\u0d35\u0d3f\u0d36\u0d4d\u0d2f",
        "name:ms": "Wilayah Sainyabuli",
        "name:nan": "Sainyabuli S\u00e9ng",
        "name:nl": "Sainyabuli",
        "name:no": "Provins Sainyabuli",
        "name:pl": "Prowincja Xaignabouli",
        "name:pt": "Sayaburi",
        "name:ru": "\u0421\u0430\u0439\u043d\u044f\u0431\u0443\u043b\u0438",
        "name:sv": "Provins Sainyabuli",
        "name:tg": "\u0412\u0438\u043b\u043e\u044f\u0442\u0438 \u0421\u0430\u0438\u0433\u043d\u0430\u0431\u043e\u0443\u043b\u0438",
        "name:th": "\u0e41\u0e02\u0e27\u0e07\u0e44\u0e0a\u0e22\u0e1a\u0e38\u0e23\u0e35",
        "name:uk": "\u0421\u0430\u0439\u043d\u044f\u0431\u0443\u043b\u0456",
        "name:ur": "\u0633\u0627\u0626\u0646\u06cc\u0627\u0628\u0648\u0644\u06cc \u0635\u0648\u0628\u06c1",
        "name:vi": "Xay Nha Bu Ly",
        "name:war": "Sainyabuli",
        "name:wuu": "\u6c99\u8036\u6b66\u91cc\u7701",
        "name:zh": "\u6c99\u8036\u6b66\u91cc\u7701",
        "type": "boundary",
        "wikidata": "Q465929",
        "wikipedia": "en:Sainyabuli Province"
      }
    },
    {
      "type": "relation",
      "id": 5831664,
      "tags": {
        "ISO3166-2": "LA-SL",
        "admin_level": "4",
        "alt_name": "Salavan;Saravan",
        "alt_name:fr": "Saravane",
        "alt_name:ja": "\u30b5\u30fc\u30e9\u30ef\u30f3\u770c",
        "alt_name:lo": "\u0ec1\u0e82\u0ea7\u0e87\u0eaa\u0eb2\u0ea5\u0eb0\u0ea7\u0eb1\u0e99",
        "boundary": "administrative",
        "name": "\u0eaa\u0eb2\u0ea5\u0eb0\u0ea7\u0eb1\u0e99",
        "name:ace": "Propinsi Salavan",
        "name:ar": "\u0633\u0627\u0644\u0627\u0641\u0627\u0646",
        "name:ceb": "Salavan",
        "name:cs": "Salavan",
        "name:de": "Provinz Salavan",
        "name:diq": "Salavan",
        "name:en": "Salavan Province",
        "name:eo": "Provinco Salavan",
        "name:es": "Provincia de Salavan",
        "name:fa": "\u0627\u0633\u062a\u0627\u0646 \u0633\u0627\u0644\u0627\u0648\u0627\u0646",
        "name:fi": "Salavan",
        "name:fr": "Province de Salavan",
        "name:hi": "\u0938\u0932\u093e\u0935\u093e\u0928 \u092a\u094d\u0930\u093e\u0928\u094d\u0924",
        "name:hr": "Salavan",
        "name:hu": "Szalavan tartom\u00e1ny",
        "name:id": "Provinsi Salavan",
        "name:it": "Provincia di Salavan",
        "name:ja": "\u30b5\u30fc\u30e9\u30ef\u30f3",
        "name:km": "\u1781\u17c1\u178f\u17d2\u178f\u179f\u17b6\u17a1\u17c8\u179c\u17c9\u17b6\u1793\u17cb",
        "name:ko": "\uc0b4\ub77c\uc644 \uc8fc",
        "name:lo": "\u0eaa\u0eb2\u0ea5\u0eb0\u0ea7\u0eb1\u0e99",
        "name:lo-Latn": "Salavan",
        "name:lt": "Salavano provincija",
        "name:ms": "Wilayah Salavan",
        "name:nan": "Salavan S\u00e9ng",
        "name:nl": "Salavan",
        "name:no": "Saravane",
        "name:pl": "Prowincja Saravane",
        "name:pt": "Saravane",
        "name:ru": "\u0421\u0430\u0440\u0430\u0432\u0430\u043d",
        "name:sv": "Saravane",
        "name:tg": "\u0412\u0438\u043b\u043e\u044f\u0442\u0438 \u0421\u0430\u043b\u0430\u0432\u0430\u043d",
        "name:th": "\u0e41\u0e02\u0e27\u0e07\u0e2a\u0e32\u0e25\u0e30\u0e27\u0e31\u0e19",
        "name:uk": "\u0421\u0430\u0440\u0430\u0432\u0430\u043d",
        "name:ur": "\u0633\u0627\u0644\u0627\u0648\u0627\u0646 \u0635\u0648\u0628\u06c1",
        "name:vi": "Saravane",
        "name:war": "Salavan",
        "name:wuu": "\u6c99\u62c9\u6e7e\u7701",
        "name:zh": "\u6c99\u62c9\u6e7e\u7701",
        "type": "boundary",
        "wikidata": "Q302656",
        "wikipedia": "en:Salavan Province"
      }
    },
    {
      "type": "relation",
      "id": 5831665,
      "tags": {
        "ISO3166-2": "LA-SV",
        "admin_level": "4",
        "alt_name": "Savannakhet",
        "alt_name:ja": "\u30b5\u30ef\u30f3\u30ca\u30b1\u30fc\u30c8\u770c",
        "alt_name:ko": "\uc0ac\uc644\ub098\ucf13\uc8fc",
        "alt_name:lo": "\u0ec1\u0e82\u0ea7\u0e87\u0eaa\u0eb0\u0eab\u0ea7\u0eb1\u0e99\u0e99\u0eb0\u0ec0\u0e82\u0e94",
        "boundary": "administrative",
        "name": "\u0eaa\u0eb0\u0eab\u0ea7\u0eb1\u0e99\u0e99\u0eb0\u0ec0\u0e82\u0e94",
        "name:ace": "Propinsi Savannakhet",
        "name:ar": "\u0645\u062d\u0627\u0641\u0638\u0629 \u0633\u0627\u0641\u0627\u0646\u0627\u0643\u064a\u062a",
        "name:ceb": "Khou\u00e8ng Savannakh\u00e9t",
        "name:de": "Provinz Savannakhet",
        "name:en": "Savannakhet Province",
        "name:eo": "Provinco Savanna\u0125et",
        "name:es": "Provincia de Savannakhet",
        "name:fa": "\u0627\u0633\u062a\u0627\u0646 \u0633\u0627\u0648\u0627\u0646\u200c\u0646\u0627\u06a9\u062a",
        "name:fi": "Savannakhet",
        "name:fr": "Province de Savannakh\u00e9t",
        "name:hi": "\u0938\u0935\u0928\u094d\u0928\u093e\u0916\u0947\u0924 \u092a\u094d\u0930\u093e\u0928\u094d\u0924",
        "name:hr": "Savannakhet",
        "name:hu": "Szavannakhet tartom\u00e1ny",
        "name:id": "Provinsi Savannakhet",
        "name:it": "Provincia di Savannakhet",
        "name:ja": "\u30b5\u30ef\u30f3\u30ca\u30b1\u30fc\u30c8",
        "name:km": "\u1781\u17c1\u178f\u17d2\u178f\u200b\u179f\u17bd\u1782\u17cc\u1781\u17c1\u178f\u17d2\u178f",
        "name:ko": "\uc0ac\ubc18\ub098\ucf00\ud2b8 \uc8fc",
        "name:lo": "\u0eaa\u0eb0\u0eab\u0ea7\u0eb1\u0e99\u0e99\u0eb0\u0ec0\u0e82\u0e94",
        "name:lo-Latn": "Savannakh\u00e9t",
        "name:lt": "Savanaketo provincija",
        "name:ml": "\u0d38\u0d35\u0d23\u0d4d\u0d23\u0d16\u0d47\u0d24\u0d4d",
        "name:mn": "\u0421\u0430\u0432\u0430\u043d\u043d\u0430\u043a\u0445\u0435\u0442 \u0430\u0439\u043c\u0430\u0433",
        "name:ms": "Wilayah Savannakhet",
        "name:nan": "Savannakhet S\u00e9ng",
        "name:nl": "Savannakhet",
        "name:no": "Savannakhet",
        "name:pl": "Prowincja Savannakh\u00e9t",
        "name:pt": "Savannakhet",
        "name:ru": "\u0421\u0430\u0432\u0430\u043d\u043d\u0430\u043a\u0445\u0435\u0442",
        "name:sv": "Savannakhet",
        "name:tg": "\u0412\u0438\u043b\u043e\u044f\u0442\u0438 \u0421\u0430\u0432\u0430\u043d\u043d\u0430x\u0435\u0442",
        "name:th": "\u0e41\u0e02\u0e27\u0e07\u0e2a\u0e38\u0e27\u0e23\u0e23\u0e13\u0e40\u0e02\u0e15",
        "name:tr": "Savannakhet B\u00f6lgesi",
        "name:uk": "\u0421\u0430\u0432\u0430\u043d\u043d\u0430\u043a\u0445\u0435\u0442",
        "name:ur": "\u0633\u0627\u0648\u0627\u0646\u0627\u062e\u06cc\u062a \u0635\u0648\u0628\u06c1",
        "name:vi": "Savannakhet",
        "name:war": "Savannakhet",
        "name:wuu": "\u6c99\u6e7e\u62ff\u5409\u7701",
        "name:zh": "\u6c99\u6e7e\u62ff\u5409\u7701",
        "type": "boundary",
        "wikidata": "Q465940",
        "wikipedia": "en:Savannakhet Province"
      }
    },
    {
      "type": "relation",
      "id": 5831666,
      "tags": {
        "ISO3166-2": "LA-VT",
        "admin_level": "4",
        "boundary": "administrative",
        "name": "\u0e99\u0eb0\u0e84\u0ead\u0e99\u0eab\u0ebc\u0ea7\u0e87\u0ea7\u0ebd\u0e87\u0e88\u0eb1\u0e99",
        "name:ar": "\u0645\u0642\u0627\u0637\u0639\u0629 \u0641\u064a\u064a\u0646\u062a\u064a\u0627\u0646",
        "name:de": "Pr\u00e4fektur Vientiane",
        "name:en": "Vientiane Prefecture",
        "name:eo": "Prefektlando Vjentiano",
        "name:es": "Prefectura de Vienti\u00e1n",
        "name:fa": "\u0645\u0646\u0637\u0642\u0647 \u0648\u06cc\u0646\u062a\u06cc\u0627\u0646",
        "name:fr": "Pr\u00e9fecture de Vientiane",
        "name:hi": "\u0935\u094d\u092f\u093f\u0902\u091a\u0928 \u092a\u094d\u0930\u0936\u093e\u0938\u093f\u0924\u0915\u094d\u0937\u0947\u0924\u094d\u0930",
        "name:hr": "Prefektura Vientiane",
        "name:hu": "Vienti\u00e1n prefekt\u00fara",
        "name:id": "Prefektur Vientiane",
        "name:it": "Prefettura di Vientiane",
        "name:ja": "\u30f4\u30a3\u30a8\u30f3\u30c1\u30e3\u30f3",
        "name:ko": "\ube44\uc5d4\ud2f0\uc548\ub3c4",
        "name:lo": "\u0e99\u0eb0\u0e84\u0ead\u0e99\u0eab\u0ebc\u0ea7\u0e87\u0ea7\u0ebd\u0e87\u0e88\u0eb1\u0e99",
        "name:lo-Latn": "Nakhonlouang Viangchan",
        "name:lt": "Vientiano prefekt\u016bra",
        "name:mn": "\u0412\u044c\u0435\u043d\u0442\u044c\u044f\u043d \u0442\u043e\u0439\u0440\u043e\u0433",
        "name:ms": "Prefektur Vientiane",
        "name:nl": "Prefectuur Vientiane",
        "name:pl": "Prefektura Wientian",
        "name:pt": "Prefeitura Vientiane",
        "name:ru": "\u0412\u044c\u0435\u043d\u0442\u044c\u044f\u043d",
        "name:sk": "Vientiansk\u00e1 prefekt\u00fara",
        "name:th": "\u0e19\u0e04\u0e23\u0e2b\u0e25\u0e27\u0e07\u0e40\u0e27\u0e35\u0e22\u0e07\u0e08\u0e31\u0e19\u0e17\u0e19\u0e4c",
        "name:ur": "\u0648\u06cc\u0646\u062a\u06cc\u0627\u0646 \u067e\u0631\u06cc\u0641\u06cc\u06a9\u0686\u0631",
        "name:zh": "\u4e07\u8c61\u5730\u533a",
        "type": "boundary",
        "wikidata": "Q390377",
        "wikipedia": "en:Vientiane Prefecture"
      }
    },
    {
      "type": "relation",
      "id": 5831667,
      "tags": {
        "ISO3166-2": "LA-VI",
        "admin_level": "4",
        "alt_name": "Vientiane",
        "alt_name:hr": "Vientiane",
        "alt_name:ja": "\u30f4\u30a3\u30a8\u30f3\u30c1\u30e3\u30f3\u770c",
        "alt_name:lo": "\u0ec1\u0e82\u0ea7\u0e87\u0ea7\u0ebd\u0e87\u0e88\u0eb1\u0e99",
        "alt_name:no": "Vientiane",
        "alt_name:pt": "Vientiane",
        "alt_name:sv": "Vientiane",
        "alt_name:uk": "\u0412'\u0454\u043d\u0442\u044c\u044f\u043d",
        "alt_name:vi": "Vi\u00eang Ch\u0103n",
        "boundary": "administrative",
        "name": "\u0ea7\u0ebd\u0e87\u0e88\u0eb1\u0e99",
        "name:ace": "Propinsi Vientiane",
        "name:ar": "\u0645\u062d\u0627\u0641\u0638\u0629 \u0641\u064a\u064a\u0646\u062a\u064a\u0627\u0646",
        "name:ceb": "Vientiane Province",
        "name:ckb": "\u067e\u0627\u0631\u06ce\u0632\u06af\u0627\u06cc \u06a4\u06cc\u06ce\u0646\u062a\u06cc\u0627\u0646",
        "name:de": "Provinz Vientiane",
        "name:en": "Vientiane Province",
        "name:eo": "Provinco Vjentiano",
        "name:es": "Provincia de Vienti\u00e1n",
        "name:fa": "\u0627\u0633\u062a\u0627\u0646 \u0648\u06cc\u0646\u062a\u06cc\u0627\u0646",
        "name:fi": "Vientiane",
        "name:fr": "Province de Vientiane",
        "name:hi": "\u0935\u094d\u092f\u093f\u0902\u091a\u0928 \u092a\u094d\u0930\u093e\u0928\u094d\u0924",
        "name:hr": "Provincija Vientiane",
        "name:hu": "Vienti\u00e1n tartom\u00e1ny",
        "name:id": "Provinsi Vientiane",
        "name:it": "Provincia di Vientiane",
        "name:ja": "\u30f4\u30a3\u30a8\u30f3\u30c1\u30e3\u30f3",
        "name:km": "\u1781\u17c1\u178f\u17d2\u178f\u179c\u17c0\u1784\u1785\u17d0\u1793\u17d2\u1791\u1793\u17cd",
        "name:ko": "\ube44\uc5d4\ud2f0\uc548\uc8fc",
        "name:lo": "\u0ea7\u0ebd\u0e87\u0e88\u0eb1\u0e99",
        "name:lo-Latn": "Viangchan",
        "name:mn": "\u0412\u044c\u0435\u043d\u0442\u044c\u044f\u043d \u0430\u0439\u043c\u0430\u0433",
        "name:ms": "Wilayah Vientiane",
        "name:nan": "Vientiane S\u00e9ng",
        "name:nl": "Vientiane",
        "name:nn": "Viengchan-fylket",
        "name:no": "Provins Vientiane",
        "name:pl": "Prowincja Wientian",
        "name:pt": "Prov\u00edncia Vientiane",
        "name:ru": "\u0412\u044c\u0435\u043d\u0442\u044c\u044f\u043d",
        "name:so": "Vientiane Province",
        "name:sv": "Provins Vientiane",
        "name:tg": "\u0412\u0438\u043b\u043e\u044f\u0442\u0438 \u0412\u0438\u0435\u043d\u0442\u0438\u0430\u043d",
        "name:th": "\u0e41\u0e02\u0e27\u0e07\u0e40\u0e27\u0e35\u0e22\u0e07\u0e08\u0e31\u0e19\u0e17\u0e19\u0e4c",
        "name:tr": "Vientiane B\u00f6lgesi",
        "name:uk": "\u043f\u0440\u043e\u0432\u0456\u043d\u0446\u0456\u044f \u0412'\u0454\u043d\u0442\u044c\u044f\u043d",
        "name:ur": "\u0648\u06cc\u0646\u062a\u06cc\u0627\u0646 \u0635\u0648\u0628\u06c1",
        "name:vi": "T\u1ec9nh Vi\u00eang Ch\u0103n",
        "name:war": "Vientiane",
        "name:wuu": "\u4e07\u8c61\u7701",
        "name:zh": "\u4e07\u8c61\u7701",
        "type": "boundary",
        "wikidata": "Q720066",
        "wikipedia": "en:Vientiane Province"
      }
    },
    {
      "type": "relation",
      "id": 5831668,
      "tags": {
        "ISO3166-2": "LA-XS",
        "admin_level": "4",
        "alt_name": "Xaisomboun",
        "alt_name:de": "Provinz Saysomboun",
        "alt_name:ja": "\u30b5\u30a4\u30bd\u30e0\u30d6\u30fc\u30f3\u770c",
        "alt_name:lo": "\u0ec1\u0e82\u0ea7\u0e87\u0ec4\u0e8a\u0eaa\u0ebb\u0ea1\u0e9a\u0eb9\u0e99",
        "alt_name:pl": "Prowincja Xais\u00f4mboun",
        "alt_name:vi": "Xaysomboun",
        "boundary": "administrative",
        "name": "\u0ec4\u0e8a\u0eaa\u0ebb\u0ea1\u0e9a\u0eb9\u0e99",
        "name:de": "Saysomboun",
        "name:en": "Xaisomboun Province",
        "name:es": "Provincia de Xaisomboun",
        "name:fr": "Province de Xaisomboun",
        "name:hi": "\u0938\u093e\u0907\u0938\u094b\u092e\u094d\u092c\u0942\u0928 \u092a\u094d\u0930\u093e\u0928\u094d\u0924",
        "name:it": "Provincia di Xaisomboun",
        "name:ja": "\u30b5\u30a4\u30bd\u30e0\u30d6",
        "name:km": "\u1781\u17c1\u178f\u17d2\u178f\u1787\u17d0\u1799\u179f\u1798\u17d2\u1794\u17bc\u179a\u178e\u17cd",
        "name:ko": "\uc0ac\uc774\uc19c\ubd84\uc8fc",
        "name:lo": "\u0ec4\u0e8a\u0eaa\u0ebb\u0ea1\u0e9a\u0eb9\u0e99",
        "name:nan": "Xaisomboun S\u00e9ng",
        "name:pl": "Xais\u00f4mboun",
        "name:ru": "\u0421\u0430\u0439\u0441\u043e\u043c\u0431\u0443\u043d",
        "name:th": "\u0e41\u0e02\u0e27\u0e07\u0e44\u0e0a\u0e22\u0e2a\u0e21\u0e1a\u0e39\u0e23\u0e13\u0e4c",
        "name:ur": "\u0633\u0627\u0626\u0633\u0648\u0645\u0628\u0648\u0646 \u0635\u0648\u0628\u06c1",
        "name:vi": "Xaisomboun",
        "name:war": "Saisombun",
        "name:wuu": "\u8d5b\u5b8b\u5954\u7701",
        "name:zh": "\u8d5b\u5b8b\u5954\u7701",
        "type": "boundary",
        "wikidata": "Q20202028",
        "wikipedia": "en:Xaisomboun Province"
      }
    },
    {
      "type": "relation",
      "id": 5831669,
      "tags": {
        "ISO3166-2": "LA-XE",
        "admin_level": "4",
        "alt_name": "Xekong;Sekong",
        "alt_name:ja": "\u30bb\u30fc\u30b3\u30fc\u30f3\u770c",
        "alt_name:lo": "\u0ec1\u0e82\u0ea7\u0e87\u0ec0\u0e8a\u0e81\u0ead\u0e87",
        "alt_name:vi": "Sekong",
        "boundary": "administrative",
        "name": "\u0ec0\u0e8a\u0e81\u0ead\u0e87",
        "name:ace": "Propinsi Sekong",
        "name:ar": "\u0645\u062d\u0627\u0641\u0638\u0629 \u0633\u064a\u0643\u0648\u0646\u063a",
        "name:ceb": "Khou\u00e8ng X\u00e9kong",
        "name:de": "Provinz Sekong",
        "name:diq": "Sekong",
        "name:en": "Sekong Province",
        "name:eo": "Provinco Sekong",
        "name:es": "Provincia de Sekong",
        "name:fa": "\u0627\u0633\u062a\u0627\u0646 \u0633\u06a9\u0648\u0646\u06af",
        "name:fi": "Xekong",
        "name:fr": "Province de X\u00e9kong",
        "name:hi": "\u0938\u0947\u0915\u094b\u0902\u0917 \u092a\u094d\u0930\u093e\u0928\u094d\u0924",
        "name:hr": "Sekong",
        "name:hu": "Szekong tartom\u00e1ny",
        "name:hy": "\u054d\u0565\u056f\u0578\u0576\u0563",
        "name:id": "Provinsi Xekong",
        "name:it": "Provincia di Xekong",
        "name:ja": "\u30bb\u30fc\u30b3\u30fc\u30f3",
        "name:km": "\u1781\u17c1\u178f\u17d2\u178f\u200b\u179f\u17d2\u179a\u17c2\u1782\u1784\u17d2\u1782",
        "name:ko": "\uc138\ucf69 \uc8fc",
        "name:lo": "\u0ec0\u0e8a\u0e81\u0ead\u0e87",
        "name:lo-Latn": "X\u00e9kong",
        "name:ms": "Wilayah Sekong",
        "name:nan": "Sekong S\u00e9ng",
        "name:nl": "Sekong",
        "name:no": "Sekong",
        "name:pl": "Prowincja X\u00e9kong",
        "name:pt": "Sekong",
        "name:ru": "\u0421\u0435\u043a\u043e\u043d\u0433",
        "name:sv": "Sekong",
        "name:tg": "\u0412\u0438\u043b\u043e\u044f\u0442\u0438 \u0421\u0435\u043a\u043e\u043d\u0433",
        "name:th": "\u0e41\u0e02\u0e27\u0e07\u0e40\u0e0b\u0e01\u0e2d\u0e07",
        "name:uk": "\u0421\u0435\u043a\u043e\u043d\u0433",
        "name:ur": "\u0633\u06cc\u06a9\u0648\u0646\u06af \u0635\u0648\u0628\u06c1",
        "name:vi": "S\u00ea-k\u00f4ng",
        "name:war": "Sekong",
        "name:wuu": "\u585e\u516c\u7701",
        "name:zh": "\u585e\u516c\u7701",
        "type": "boundary",
        "wikidata": "Q585707",
        "wikipedia": "en:Sekong Province"
      }
    },
    {
      "type": "relation",
      "id": 5831670,
      "tags": {
        "ISO3166-2": "LA-XI",
        "admin_level": "4",
        "alt_name": "Xiangkhouang",
        "alt_name:en": "Xiangkhouang",
        "alt_name:ja": "\u30b7\u30a8\u30f3\u30af\u30ef\u30fc\u30f3\u770c",
        "alt_name:km": "\u1781\u17c1\u178f\u17d2\u178f\u179f\u17c0\u1784\u1781\u17d2\u179c\u17b6\u1784",
        "alt_name:lo": "\u0ec1\u0e82\u0ea7\u0e87\u0e8a\u0ebd\u0e87\u0e82\u0ea7\u0eb2\u0e87",
        "alt_name:vi": "Xiengkhuang",
        "boundary": "administrative",
        "name": "\u0e8a\u0ebd\u0e87\u0e82\u0ea7\u0eb2\u0e87",
        "name:ace": "Propinsi Xiangkhouang",
        "name:ar": "\u0645\u062d\u0627\u0641\u0638\u0629 \u0632\u064a\u0627\u0646\u063a\u0647\u0648\u0627\u0646\u063a",
        "name:ceb": "Xiangkhouang",
        "name:de": "Provinz Xieng Khouang",
        "name:en": "Xiangkhouang Province",
        "name:eo": "Provinco Siang\u0125uang",
        "name:es": "Provincia de Xiangkhoang",
        "name:fa": "\u0627\u0633\u062a\u0627\u0646 \u0634\u06cc\u0627\u0646\u06af\u062e\u0648\u0627\u0646\u06af",
        "name:fi": "Xieng Khouang",
        "name:fr": "Xiangkhouang",
        "name:hi": "\u0938\u093f\u090f\u0902\u0917\u0916\u0941\u0905\u0902\u0917 \u092a\u094d\u0930\u093e\u0928\u094d\u0924",
        "name:hr": "Xiang Khouang",
        "name:hu": "Sziangkhuang tartom\u00e1ny",
        "name:id": "Provinsi Xiangkhoang",
        "name:it": "Provincia di Xiangkhoang",
        "name:ja": "\u30b7\u30a8\u30f3\u30af\u30ef\u30fc\u30f3",
        "name:km": "\u1781\u17d2\u179c\u17c2\u1784\u1787\u17be\u1784\u1781\u17d2\u179c\u17c2\u1784",
        "name:ko": "\uc528\uc559\ucfe0\uc559\uc8fc",
        "name:lo": "\u0e8a\u0ebd\u0e87\u0e82\u0ea7\u0eb2\u0e87",
        "name:lo-Latn": "Xiangkhoang",
        "name:lt": "Siankuano provincija",
        "name:ms": "Wilayah Xiangkhouang",
        "name:nan": "Xiangkhouang S\u00e9ng",
        "name:nl": "Xieng Khuang",
        "name:no": "Xieng Khouang",
        "name:pl": "Prowincja Xieng Khouang",
        "name:pt": "Xieng Khouang",
        "name:ru": "\u0421\u0438\u0430\u043d\u0433\u043a\u0445\u0443\u0430\u043d\u0433",
        "name:sv": "Xieng Khouang",
        "name:tg": "\u0412\u0438\u043b\u043e\u044f\u0442\u0438 \u0421\u0438\u0430\u043d\u0433x\u043e\u0430\u043d\u0433",
        "name:th": "\u0e41\u0e02\u0e27\u0e07\u0e40\u0e0a\u0e35\u0e22\u0e07\u0e02\u0e27\u0e32\u0e07",
        "name:uk": "\u0421\u0456\u0430\u043d\u0433\u043a\u0445\u0443\u0430\u043d\u0433",
        "name:ur": "\u0633\u06cc\u0627\u0646\u06af\u06c1\u0648\u0627\u0646\u06af \u0635\u0648\u0628\u06c1",
        "name:vi": "Xi\u00eang Kho\u1ea3ng",
        "name:war": "Xieng Khuang",
        "name:wuu": "\u5ddd\u5739\u7701",
        "name:zh": "\u5ddd\u5739\u7701",
        "type": "boundary",
        "wikidata": "Q465947",
        "wikipedia": "en:Xiangkhouang Province"
      }
    },
    {
      "type": "rel",
      "id": 5831761,
      "tags": {
        "ADMIN_DIS_": "68",
        "DISTNEW_": "145",
        "DISTNEW_ID": "67",
        "DNAME": "Phouvong",
        "PNAME": "P.ATTAPU",
        "admin_level": "6",
        "alt_name": "Phouvong",
        "boundary": "administrative",
        "name": "\u0ec0\u0ea1\u0eb7\u0ead\u0e87\u0e9e\u0eb9\u0ea7\u0ebb\u0e87",
        "name:en": "Phouvong District",
        "name:it": "Distretto di Phouvong",
        "name:lo": "\u0e9e\u0eb9\u0ea7\u0ebb\u0e87",
        "name:pl": "Phouvong",
        "name:th": "\u0e40\u0e21\u0e37\u0e2d\u0e07\u0e20\u0e39\u0e27\u0e07",
        "name:uk": "\u041f\u0445\u0443\u0432\u043e\u043d\u0433",
        "name:vi": "Phouvong",
        "type": "boundary",
        "wikidata": "Q7187960",
        "wikipedia": "en:Phouvong District",
        "parent_id": "5831653"
      }
    },
    {
      "type": "rel",
      "id": 5831762,
      "tags": {
        "ADMIN_DIS_": "128",
        "DISTNEW_": "143",
        "DISTNEW_ID": "127",
        "DNAME": "Samakkhixai",
        "PNAME": "P.ATTAPU",
        "admin_level": "6",
        "alt_name": "Samakkhixai;Samakkhixay",
        "boundary": "administrative",
        "name": "\u0ec0\u0ea1\u0eb7\u0ead\u0e87\u0eaa\u0eb2\u0ea1\u0eb1\u0e81\u0e84\u0eb5\u0ec4\u0e8a",
        "name:en": "Samakkhixay District",
        "name:it": "Distretto di Samakkhixay",
        "name:lo": "\u0eaa\u0eb2\u0ea1\u0eb1\u0e81\u0e84\u0eb5\u0ec4\u0e8a",
        "name:pl": "Samakkhixay",
        "name:th": "\u0e2a\u0e32\u0e21\u0e31\u0e04\u0e04\u0e35\u0e0a\u0e31\u0e22",
        "name:uk": "\u0421\u0430\u043c\u0430\u043a\u0445\u0438\u0441\u0430\u0439",
        "name:ur": "\u0633\u0627\u0645\u0627\u06a9\u062e\u06cc\u0633\u0627\u0626\u06d2 \u0636\u0644\u0639",
        "name:vi": "Samakkhixai",
        "type": "boundary",
        "wikidata": "Q7408511",
        "wikipedia": "en:Samakkhixay District",
        "parent_id": "5831653"
      }
    },
    {
      "type": "rel",
      "id": 5831765,
      "tags": {
        "ADMIN_DIS_": "127",
        "DISTNEW_": "142",
        "DISTNEW_ID": "126",
        "DNAME": "Sanamxai",
        "PNAME": "P.ATTAPU",
        "admin_level": "6",
        "alt_name": "Sanamxai;Sanamxay District",
        "boundary": "administrative",
        "name": "\u0ec0\u0ea1\u0eb7\u0ead\u0e87\u0eaa\u0eb0\u0edc\u0eb2\u0ea1\u0ec4\u0e8a",
        "name:en": "Sanamxay District",
        "name:it": "Distretto di Sanamxay",
        "name:lo": "\u0eaa\u0eb0\u0edc\u0eb2\u0ea1\u0ec4\u0e8a",
        "name:pl": "Sanamxay",
        "name:th": "\u0e40\u0e21\u0e37\u0e2d\u0e07\u0e2a\u0e19\u0e32\u0e21\u0e0a\u0e31\u0e22",
        "name:uk": "\u0421\u0430\u043d\u0430\u043c\u0441\u0430\u0439",
        "name:vi": "Sanamxai",
        "type": "boundary",
        "wikidata": "Q7415490",
        "wikipedia": "en:Sanamxay District",
        "parent_id": "5831653"
      }
    },
    {
      "type": "rel",
      "id": 5831767,
      "tags": {
        "ADMIN_DIS_": "67",
        "DISTNEW_": "137",
        "DISTNEW_ID": "66",
        "DNAME": "Sanxai",
        "PNAME": "P.ATTAPU",
        "admin_level": "6",
        "alt_name": "Sanxay;Sanxai;Sanxai District",
        "boundary": "administrative",
        "name": "\u0ec0\u0ea1\u0eb7\u0ead\u0e87\u0eaa\u0eb2\u0e99\u0ec4\u0e8a",
        "name:en": "Sanxay District",
        "name:it": "Distretto di Sanxay",
        "name:lo": "\u0e8a\u0eb2\u0e99\u0ec4\u0e8a",
        "name:pl": "Sanxay",
        "name:th": "\u0e40\u0e21\u0e37\u0e2d\u0e07\u0e2a\u0e32\u0e19\u0e44\u0e0a\u0e22",
        "name:uk": "\u0421\u0430\u043d\u0441\u0430\u0439",
        "name:vi": "Sanxai",
        "type": "boundary",
        "wikidata": "Q7420766",
        "wikipedia": "en:Sanxay District",
        "parent_id": "5831653"
      }
    },
    {
      "type": "rel",
      "id": 5831769,
      "tags": {
        "ADMIN_DIS_": "66",
        "DISTNEW_": "138",
        "DISTNEW_ID": "65",
        "DNAME": "Saysetha",
        "PNAME": "P.ATTAPU",
        "admin_level": "6",
        "alt_name": "Xaysetha;Saysetha;Xaysetha District",
        "boundary": "administrative",
        "name": "\u0ec0\u0ea1\u0eb7\u0ead\u0e87\u0ec4\u0e8a\u0eaa\u0eb0\u0e96\u0eb2\u0e99",
        "name:en": "Saysetha District",
        "name:it": "Distretto di Xaysetha",
        "name:lo": "\u0ec4\u0e8a\u0ec0\u0e8a\u0e94\u0e96\u0eb2",
        "name:pl": "Xaysetha",
        "name:sv": "Xais\u00e9ttha",
        "name:th": "\u0e40\u0e21\u0e37\u0e2d\u0e07\u0e44\u0e0a\u0e22\u0e40\u0e0a\u0e29\u0e10\u0e32",
        "name:uk": "\u0421\u0430\u0439\u0441\u0435\u0442\u0445\u0430",
        "name:vi": "Qu\u1eadn Xaysetha",
        "type": "boundary",
        "wikidata": "Q7429312",
        "wikipedia": "en:Saysetha District",
        "parent_id": "5831653"
      }
    },
    {
      "type": "rel",
      "id": 5831674,
      "tags": {
        "ADMIN_DIS_": "64",
        "DISTNEW_": "133",
        "DISTNEW_ID": "63",
        "DNAME": "Bachiangchareunsouk",
        "PNAME": "P.CHAMPASAK",
        "admin_level": "6",
        "alt_name": "Bachiangchareunsouk;Batiengchaleunsouk;\u0e9a\u0eb2\u0e88\u0ebd\u0e87\u0e88\u0eb0\u0ec0\u0ea5\u0eb5\u0e99\u0eaa\u0eb8\u0e81",
        "boundary": "administrative",
        "name": "\u0ec0\u0ea1\u0eb7\u0ead\u0e87\u0e9a\u0eb2\u0e88\u0ebd\u0e87\u0e88\u0eb0\u0ec0\u0ea5\u0eb5\u0e99\u0eaa\u0eb8\u0e81",
        "name:en": "Bachiangchaleunsouk District",
        "name:it": "Distretto di Bachiangchaleunsouk",
        "name:lo": "\u0ec0\u0ea1\u0eb7\u0ead\u0e87\u0e9a\u0eb2\u0e88\u0ebd\u0e87\u0e88\u0eb0\u0ec0\u0ea5\u0eb5\u0e99\u0eaa\u0eb8\u0e81",
        "name:uk": "\u0411\u0430\u0447\u0456\u0430\u043d\u0433\u0447\u0430\u043b\u0435\u0443\u043d\u0441\u0443\u043a",
        "name:vi": "Bachiangchaleunsook",
        "type": "boundary",
        "wikidata": "Q4869260",
        "wikipedia": "en:Batiengchaleunsouk District",
        "parent_id": "5831656"
      }
    },
    {
      "type": "rel",
      "id": 5831681,
      "tags": {
        "ADMIN_DIS_": "72",
        "DISTNEW_": "141",
        "DISTNEW_ID": "71",
        "DNAME": "Champasak",
        "PNAME": "P.CHAMPASAK",
        "admin_level": "6",
        "alt_name": "Champasak;\u0e88\u0eb3\u0e9b\u0eb2\u0eaa\u0eb1\u0e81",
        "boundary": "administrative",
        "name": "\u0ec0\u0ea1\u0eb7\u0ead\u0e87\u0e88\u0eb3\u0e9b\u0eb2\u0eaa\u0eb1\u0e81",
        "name:en": "Champassack District",
        "name:fr": "Champasak",
        "name:it": "Distretto di Champasak",
        "name:lo": "\u0ec0\u0ea1\u0eb7\u0ead\u0e87\u0e88\u0eb3\u0e9b\u0eb2\u0eaa\u0eb1\u0e81",
        "name:nl": "Champassak",
        "name:th": "\u0e08\u0e33\u0e1b\u0e32\u0e28\u0e31\u0e01\u0e14\u0e34\u0e4c",
        "name:vi": "Champasack",
        "type": "boundary",
        "wikidata": "Q2310194",
        "wikipedia": "en:Champassack District",
        "parent_id": "5831656"
      }
    },
    {
      "type": "rel",
      "id": 5831706,
      "tags": {
        "ADMIN_DIS_": "70",
        "DISTNEW_": "148",
        "DISTNEW_ID": "69",
        "DNAME": "Khong",
        "PNAME": "P.CHAMPASAK",
        "admin_level": "6",
        "alt_name": "Khong;\u0ec2\u0e82\u0e87",
        "boundary": "administrative",
        "name": "\u0ec0\u0ea1\u0eb7\u0ead\u0e87\u0ec2\u0e82\u0e87",
        "name:en": "Khong District",
        "name:it": "Distretto di Khong",
        "name:lo": "\u0ec0\u0ea1\u0eb7\u0ead\u0e87\u0ec2\u0e82\u0e87",
        "name:uk": "\u041a\u0445\u043e\u043d\u0491",
        "name:vi": "Khong",
        "type": "boundary",
        "wikidata": "Q6402234",
        "wikipedia": "en:Khong District, Laos",
        "parent_id": "5831656"
      }
    },
    {
      "type": "rel",
      "id": 5831724,
      "tags": {
        "ADMIN_DIS_": "71",
        "DISTNEW_": "147",
        "DISTNEW_ID": "70",
        "DNAME": "Mounlapamok",
        "PNAME": "P.CHAMPASAK",
        "admin_level": "6",
        "alt_name": "Mounlapamok;\u0ea1\u0eb9\u0e99\u0ea5\u0eb0\u0e9b\u0eb0\u0ec2\u0ea1\u0e81",
        "boundary": "administrative",
        "name": "\u0ec0\u0ea1\u0eb7\u0ead\u0e87\u0ea1\u0eb9\u0e99\u0ea5\u0eb0\u0e9b\u0eb0\u0ec2\u0ea1\u0e81",
        "name:en": "Mounlapamok District",
        "name:it": "Distretto di Mounlapamok",
        "name:lo": "\u0ec0\u0ea1\u0eb7\u0ead\u0e87\u0ea1\u0eb9\u0e99\u0ea5\u0eb0\u0e9b\u0eb0\u0ec2\u0ea1\u0e81",
        "name:uk": "\u041c\u0443\u043d\u043b\u0430\u043f\u0430\u043c\u043e\u043a",
        "name:vi": "Moonlapamok",
        "type": "boundary",
        "wikidata": "Q10794683",
        "wikipedia": "en:Mounlapamok District",
        "parent_id": "5831656"
      }
    },
    {
      "type": "rel",
      "id": 5831745,
      "tags": {
        "ADMIN_DIS_": "62",
        "DISTNEW_": "139",
        "DISTNEW_ID": "61",
        "DNAME": "Pakxe",
        "PNAME": "P.CHAMPASAK",
        "admin_level": "6",
        "alt_name": "Pak S\u00e9;Pakxe;Pakse;\u0e9b\u0eb2\u0e81\u0ec0\u0e8a",
        "boundary": "administrative",
        "name": "\u0ec0\u0ea1\u0eb7\u0ead\u0e87\u0e9b\u0eb2\u0e81\u0ec0\u0e8a",
        "name:en": "Pak S\u00e9 District",
        "name:he": "\u05e4\u05d0\u05e7\u05e1\u05d4",
        "name:it": "Distretto di Pak S\u00e9",
        "name:lo": "\u0ec0\u0ea1\u0eb7\u0ead\u0e87\u0e9b\u0eb2\u0e81\u0ec0\u0e8a",
        "name:nl": "Pakse",
        "name:th": "\u0e40\u0e21\u0e37\u0e2d\u0e07\u0e1b\u0e32\u0e01\u0e40\u0e0b",
        "name:ur": "\u067e\u0627\u06a9 \u0633\u06d2 \u0636\u0644\u0639",
        "name:vi": "Paks\u00e9",
        "type": "boundary",
        "wikidata": "Q7125390",
        "wikipedia": "en:Pak S\u00e9 District",
        "parent_id": "5831656"
      }
    },
    {
      "type": "rel",
      "id": 5831747,
      "tags": {
        "ADMIN_DIS_": "65",
        "DISTNEW_": "135",
        "DISTNEW_ID": "64",
        "DNAME": "Pakxong",
        "PNAME": "P.CHAMPASAK",
        "admin_level": "6",
        "alt_name": "Paksong;Pakxong;\u0e9b\u0eb2\u0e81\u0e8a\u0ec8\u0ead\u0e87",
        "boundary": "administrative",
        "name": "\u0ec0\u0ea1\u0eb7\u0ead\u0e87\u0e9b\u0eb2\u0e81\u0e8a\u0ec8\u0ead\u0e87",
        "name:en": "Paksong District",
        "name:it": "Distretto di Paksong",
        "name:lo": "\u0ec0\u0ea1\u0eb7\u0ead\u0e87\u0e9b\u0eb2\u0e81\u0e8a\u0ec8\u0ead\u0e87",
        "name:nl": "Paksong",
        "name:pt": "Paksong",
        "name:th": "\u0e40\u0e21\u0e37\u0e2d\u0e07\u0e1b\u0e32\u0e01\u0e0a\u0e48\u0e2d\u0e07",
        "name:uk": "\u041f\u0430\u043a\u0441\u043e\u043d\u0433",
        "name:vi": "Paksong",
        "type": "boundary",
        "wikidata": "Q1897961",
        "wikipedia": "en:Paksong District",
        "parent_id": "5831656"
      }
    },
    {
      "type": "rel",
      "id": 5831748,
      "tags": {
        "ADMIN_DIS_": "69",
        "DISTNEW_": "140",
        "DISTNEW_ID": "68",
        "DNAME": "Pathoumphon",
        "PNAME": "P.CHAMPASAK",
        "admin_level": "6",
        "alt_name": "Pathoumphon;Pathoumphone;Pathouphone;Pathoomphone;\u0e9b\u0eb0\u0e97\u0eb8\u0ea1\u0e9e\u0ead\u0e99",
        "boundary": "administrative",
        "name": "\u0ec0\u0ea1\u0eb7\u0ead\u0e87\u0e9b\u0eb0\u0e97\u0eb8\u0ea1\u0e9e\u0ead\u0e99",
        "name:en": "Pathouphone District",
        "name:it": "Distretto di Pathoumphone",
        "name:lo": "\u0ec0\u0ea1\u0eb7\u0ead\u0e87\u0e9b\u0eb0\u0e97\u0eb8\u0ea1\u0e9e\u0ead\u0e99",
        "name:uk": "\u041f\u0430\u0442\u0445\u0443\u043c\u043f\u0445\u043e\u043d",
        "name:vi": "Pathoomphone",
        "type": "boundary",
        "wikidata": "Q7144848",
        "wikipedia": "en:Pathouphone District",
        "parent_id": "5831656"
      }
    },
    {
      "type": "rel",
      "id": 5831757,
      "tags": {
        "ADMIN_DIS_": "63",
        "DISTNEW_": "136",
        "DISTNEW_ID": "62",
        "DNAME": "Phonthong",
        "PNAME": "P.CHAMPASAK",
        "admin_level": "6",
        "alt_name": "Phonthong:\u0ec2\u0e9e\u0e99\u0e97\u0ead\u0e87",
        "boundary": "administrative",
        "name": "\u0ec0\u0ea1\u0eb7\u0ead\u0e87\u0ec2\u0e9e\u0e99\u0e97\u0ead\u0e87",
        "name:en": "Phonthong District",
        "name:it": "Distretto di Phonthong",
        "name:lo": "\u0ec0\u0ea1\u0eb7\u0ead\u0e87\u0ec2\u0e9e\u0e99\u0e97\u0ead\u0e87",
        "name:th": "\u0e42\u0e1e\u0e19\u0e17\u0e2d\u0e07",
        "name:uk": "\u041f\u0445\u043e\u043d\u0442\u0445\u043e\u043d\u0433",
        "name:vi": "Phonthong",
        "type": "boundary",
        "wikidata": "Q1886331",
        "wikipedia": "lo:\u0ec0\u0ea1\u0eb7\u0ead\u0e87\u0ec2\u0e9e\u0e99\u0e97\u0ead\u0e87",
        "parent_id": "5831656"
      }
    },
    {
      "type": "rel",
      "id": 5831775,
      "tags": {
        "ADMIN_DIS_": "126",
        "DISTNEW_": "144",
        "DISTNEW_ID": "125",
        "DNAME": "Soukhouma",
        "PNAME": "P.CHAMPASAK",
        "admin_level": "6",
        "alt_name": "Soukhouma;Sukhuma;Soukhoumma;\u0eaa\u0eb8\u0e82\u0eb8\u0ea1\u0eb2",
        "boundary": "administrative",
        "name": "\u0ec0\u0ea1\u0eb7\u0ead\u0e87\u0eaa\u0eb8\u0e82\u0eb8\u0ea1\u0eb2",
        "name:en": "Soukhoumma District",
        "name:it": "Distretto di Soukhoumma",
        "name:lo": "\u0ec0\u0ea1\u0eb7\u0ead\u0e87\u0eaa\u0eb8\u0e82\u0eb8\u0ea1\u0eb2",
        "name:uk": "\u0421\u0443\u043a\u0445\u0443\u043c\u0430",
        "name:vi": "Sukhuma",
        "type": "boundary",
        "wikidata": "Q7564137",
        "wikipedia": "en:Soukhoumma District",
        "parent_id": "5831656"
      }
    },
    {
      "type": "rel",
      "id": 5831804,
      "tags": {
        "ADMIN_DIS_": "61",
        "DISTNEW_": "134",
        "DISTNEW_ID": "60",
        "DNAME": "Xanasomboun",
        "PNAME": "P.CHAMPASAK",
        "admin_level": "6",
        "alt_name": "Sanasomboun;Xanasomboun;Sanasomboon;\u0e8a\u0eb0\u0e99\u0eb0\u0eaa\u0ebb\u0ea1\u0e9a\u0eb9\u0e99",
        "boundary": "administrative",
        "name": "\u0ec0\u0ea1\u0eb7\u0ead\u0e87\u0e8a\u0eb0\u0e99\u0eb0\u0eaa\u0ebb\u0ea1\u0e9a\u0eb9\u0e99",
        "name:en": "Sanasomboun District",
        "name:it": "Distretto di Sanasomboun",
        "name:lo": "\u0ec0\u0ea1\u0eb7\u0ead\u0e87\u0e8a\u0eb0\u0e99\u0eb0\u0eaa\u0ebb\u0ea1\u0e9a\u0eb9\u0e99",
        "name:uk": "\u0421\u0430\u043d\u0430\u0441\u043e\u043c\u0431\u0443\u043d",
        "name:vi": "Sanasomboon",
        "type": "boundary",
        "wikidata": "Q7415516",
        "wikipedia": "en:Sanasomboun District",
        "parent_id": "5831656"
      }
    },
    {
      "type": "rel",
      "id": 5831707,
      "tags": {
        "ADMIN_DIS_": "60",
        "DISTNEW_": "129",
        "DISTNEW_ID": "59",
        "DNAME": "Khongxedon",
        "PNAME": "P.SARAVAN",
        "admin_level": "6",
        "alt_name": "Khongxedon;Khongsedone District",
        "boundary": "administrative",
        "name": "\u0ec0\u0ea1\u0eb7\u0ead\u0e87\u0e84\u0ebb\u0e87\u0ec0\u0e8a\u0ec2\u0e94\u0e99",
        "name:en": "Khongsedone District",
        "name:it": "Distretto di Khongsedone",
        "name:lo": "\u0ec0\u0ea1\u0eb7\u0ead\u0e87\u0e84\u0ebb\u0e87\u0ec0\u0e8a\u0ec2\u0e94\u0e99",
        "name:uk": "\u041a\u0445\u043e\u043d\u0491\u0441\u0435\u0434\u043e\u043d",
        "name:vi": "Khongxedone",
        "type": "boundary",
        "wikidata": "Q10779371",
        "wikipedia": "en:Khongsedone District",
        "parent_id": "5831664"
      }
    },
    {
      "type": "rel",
      "id": 5831711,
      "tags": {
        "ADMIN_DIS_": "52",
        "DISTNEW_": "125",
        "DISTNEW_ID": "51",
        "DNAME": "Lakhonpheng",
        "PNAME": "P.SARAVAN",
        "admin_level": "6",
        "alt_name": "Lakhonpheng;Nakhonepheng",
        "boundary": "administrative",
        "name": "\u0ec0\u0ea1\u0eb7\u0ead\u0e87\u0ea5\u0eb0\u0e84\u0ead\u0e99\u0ec0\u0e9e\u0eb1\u0e87",
        "name:en": "Lakhonepheng District",
        "name:it": "Distretto di Lakhonepheng",
        "name:lo": "\u0ec0\u0ea1\u0eb7\u0ead\u0e87\u0ea5\u0eb0\u0e84\u0ead\u0e99\u0ec0\u0e9e\u0eb1\u0e87",
        "name:uk": "\u041b\u0430\u043a\u0445\u043e\u043d\u0435\u043f\u0445\u0435\u043d\u0433",
        "name:vi": "Lakhonepheng",
        "type": "boundary",
        "wikidata": "Q6479599",
        "wikipedia": "en:Lakhonepheng District",
        "parent_id": "5831664"
      }
    },
    {
      "type": "rel",
      "id": 5831713,
      "tags": {
        "ADMIN_DIS_": "59",
        "DISTNEW_": "131",
        "DISTNEW_ID": "58",
        "DNAME": "Laongam",
        "PNAME": "P.SARAVAN",
        "admin_level": "6",
        "alt_name": "Laongam;Lao Ngarm;Lao Ngam District",
        "boundary": "administrative",
        "name": "\u0ec0\u0ea1\u0eb7\u0ead\u0e87\u0ec0\u0ea5\u0ebb\u0ec8\u0eb2\u0e87\u0eb2\u0ea1",
        "name:en": "Lao Ngam District",
        "name:it": "Distretto di Lao Ngam",
        "name:lo": "\u0ec0\u0ea1\u0eb7\u0ead\u0e87\u0ec0\u0ea5\u0ebb\u0ec8\u0eb2\u0e87\u0eb2\u0ea1",
        "name:uk": "\u041b\u0430\u043e\u043d\u0433\u0430\u0440\u043c",
        "name:vi": "Lao Ngam",
        "type": "boundary",
        "wikidata": "Q6487785",
        "wikipedia": "en:Lao Ngam District",
        "parent_id": "5831664"
      }
    },
    {
      "type": "rel",
      "id": 5831763,
      "tags": {
        "ADMIN_DIS_": "48",
        "DISTNEW_": "118",
        "DISTNEW_ID": "47",
        "DNAME": "Samouay",
        "PNAME": "P.SARAVAN",
        "admin_level": "6",
        "alt_name": "Sanmouay;Samouay;Samuoi;Samuoi District",
        "boundary": "administrative",
        "name": "\u0ec0\u0ea1\u0eb7\u0ead\u0e87\u0eaa\u0eb0\u0ea1\u0ec9\u0ea7\u0e8d",
        "name:en": "Sa Mouay District",
        "name:it": "Distretto di Samuai",
        "name:lo": "\u0ec0\u0ea1\u0eb7\u0ead\u0e87\u0eaa\u0eb0\u0ea1\u0ec9\u0ea7\u0e8d",
        "name:uk": "\u0421\u0430\u043c\u0443\u0439",
        "name:ur": "\u0633\u0627 \u0645\u0648\u06d2 \u0636\u0644\u0639",
        "name:vi": "Sa Mouay",
        "type": "boundary",
        "wikidata": "Q7395481",
        "wikipedia": "en:Sa Mouay District",
        "parent_id": "5831664"
      }
    },
    {
      "type": "rel",
      "id": 5831768,
      "tags": {
        "ADMIN_DIS_": "54",
        "DISTNEW_": "126",
        "DISTNEW_ID": "53",
        "DNAME": "Saravan",
        "PNAME": "P.SARAVAN",
        "admin_level": "6",
        "alt_name": "Saravan;Salavan;Saravane;Salavane",
        "boundary": "administrative",
        "name": "\u0ec0\u0ea1\u0eb7\u0ead\u0e87\u0eaa\u0eb2\u0ea5\u0eb0\u0ea7\u0eb1\u0e99",
        "name:en": "Saravane District",
        "name:fr": "Salavan",
        "name:it": "Distretto di Salavan",
        "name:lo": "\u0ec0\u0ea1\u0eb7\u0ead\u0e87\u0eaa\u0eb2\u0ea5\u0eb0\u0ea7\u0eb1\u0e99",
        "name:th": "\u0e40\u0e21\u0e37\u0e2d\u0e07\u0e2a\u0e32\u0e25\u0e30\u0e27\u0e31\u0e19",
        "name:uk": "\u0421\u0430\u0440\u0430\u0432\u0430\u043d",
        "name:ur": "\u0633\u0627\u0644\u0627\u0648\u0627\u0646 \u0636\u0644\u0639",
        "name:vi": "Saravane",
        "type": "boundary",
        "wikidata": "Q7423413",
        "wikipedia": "en:Saravane District",
        "parent_id": "5831664"
      }
    },
    {
      "type": "rel",
      "id": 5831776,
      "tags": {
        "ADMIN_DIS_": "51",
        "DISTNEW_": "120",
        "DISTNEW_ID": "50",
        "DNAME": "Ta-Oy",
        "PNAME": "P.SARAVAN",
        "admin_level": "6",
        "alt_name": "Ta-Oy;Ta Oy;Ta Oi;Taoy",
        "boundary": "administrative",
        "name": "\u0ec0\u0ea1\u0eb7\u0ead\u0e87\u0e95\u0eb0\u0ec2\u0ead\u0ec9\u0e8d",
        "name:en": "Ta Oy District",
        "name:it": "Distretto di Ta Oi",
        "name:lo": "\u0ec0\u0ea1\u0eb7\u0ead\u0e87\u0e95\u0eb0\u0ec2\u0ead\u0ec9\u0e8d",
        "name:uk": "\u0422\u0430\u043e\u0439",
        "name:vi": "Ta Oy",
        "type": "boundary",
        "wikidata": "Q7672775",
        "wikipedia": "en:Ta Oy District",
        "parent_id": "5831664"
      }
    },
    {
      "type": "rel",
      "id": 5831785,
      "tags": {
        "ADMIN_DIS_": "50",
        "DISTNEW_": "124",
        "DISTNEW_ID": "49",
        "DNAME": "Toumlan",
        "PNAME": "P.SARAVAN",
        "admin_level": "6",
        "alt_name": "Toumlan;Toomlan;Tumlan;Toomlarn;Toomlarn District",
        "boundary": "administrative",
        "name": "\u0ec0\u0ea1\u0eb7\u0ead\u0e87\u0e95\u0eb8\u0ec9\u0ea1\u0ea5\u0eb2\u0e99",
        "name:en": "Toumlane District",
        "name:it": "Distretto di Tumlan",
        "name:lo": "\u0ec0\u0ea1\u0eb7\u0ead\u0e87\u0e95\u0eb8\u0ec9\u0ea1\u0ea5\u0eb2\u0e99",
        "name:th": "\u0e40\u0e21\u0e37\u0e2d\u0e07\u0e15\u0e38\u0e49\u0e21\u0e25\u0e32\u0e19",
        "name:uk": "\u0422\u0443\u043c\u043b\u0430\u0440\u043d",
        "name:vi": "Toumlane",
        "type": "boundary",
        "wikidata": "Q7828906",
        "wikipedia": "en:Toumlane District",
        "parent_id": "5831664"
      }
    },
    {
      "type": "rel",
      "id": 5831787,
      "tags": {
        "ADMIN_DIS_": "53",
        "DISTNEW_": "127",
        "DISTNEW_ID": "52",
        "DNAME": "Vapi",
        "PNAME": "P.SARAVAN",
        "admin_level": "6",
        "alt_name": "Vapi;Vapy",
        "boundary": "administrative",
        "name": "\u0ec0\u0ea1\u0eb7\u0ead\u0e87\u0ea7\u0eb2\u0e9b\u0eb5",
        "name:en": "Vapy District",
        "name:it": "Distretto di Vapi",
        "name:lo": "\u0ec0\u0ea1\u0eb7\u0ead\u0e87\u0ea7\u0eb2\u0e9b",
        "name:th": "\u0e40\u0e21\u0e37\u0e2d\u0e07\u0e27\u0e32\u0e1b\u0e35",
        "name:uk": "\u0412\u0430\u043f\u0456",
        "name:vi": "Vapy",
        "type": "boundary",
        "wikidata": "Q7915353",
        "wikipedia": "en:Vapy District",
        "parent_id": "5831664"
      }
    },
    {
      "type": "rel",
      "id": 5831672,
      "tags": {
        "ADMIN_DIS_": "136",
        "DISTNEW_": "112",
        "DISTNEW_ID": "135",
        "DNAME": "Atsaphangthong",
        "PNAME": "P.SAVANNAKHET",
        "admin_level": "6",
        "alt_name": "\u0ead\u0eb2\u0e94\u0eaa\u0eb0\u0e9f\u0eb1\u0e87\u0e97\u0ead\u0e87;Atsaphangthong",
        "boundary": "administrative",
        "name": "\u0ec0\u0ea1\u0eb7\u0ead\u0e87\u0ead\u0eb2\u0e94\u0eaa\u0eb0\u0e9e\u0eb1\u0e87\u0e97\u0ead\u0e87",
        "name:en": "Atsaphangthong District",
        "name:it": "Distretto di Atsaphangthong",
        "name:lo": "\u0ec0\u0ea1\u0eb7\u0ead\u0e87\u0ead\u0eb2\u0e94\u0eaa\u0eb0\u0e9e\u0eb1\u0e87\u0e97\u0ead\u0e87",
        "name:uk": "\u0410\u0442\u0441\u0430\u043f\u0445\u0430\u043d\u0433\u0442\u0445\u043e\u043d\u0433",
        "name:vi": "Atsaphangthong",
        "type": "boundary",
        "wikidata": "Q4817736",
        "wikipedia": "en:Atsaphangthong District",
        "parent_id": "5831665"
      }
    },
    {
      "type": "rel",
      "id": 5831673,
      "tags": {
        "ADMIN_DIS_": "137",
        "DISTNEW_": "108",
        "DISTNEW_ID": "136",
        "DNAME": "Atsaphon",
        "PNAME": "P.SAVANNAKHET",
        "admin_level": "6",
        "alt_name": "Assaphone;Assaphon;Atsaphon",
        "boundary": "administrative",
        "name": "\u0ec0\u0ea1\u0eb7\u0ead\u0e87\u0ead\u0eb2\u0e94\u0eaa\u0eb0\u0e9e\u0ead\u0e99",
        "name:en": "Assaphone District",
        "name:it": "Distretto di Assaphone",
        "name:lo": "\u0ec0\u0ea1\u0eb7\u0ead\u0e87\u0ead\u0eb2\u0e94\u0eaa\u0eb0\u0e9e\u0ead\u0e99",
        "name:uk": "\u0410\u0442\u0441\u0430\u043f\u0445\u043e\u043d",
        "name:vi": "Assaphone",
        "type": "boundary",
        "wikidata": "Q4808420",
        "wikipedia": "en:Assaphone District",
        "parent_id": "5831665"
      }
    },
    {
      "type": "rel",
      "id": 5831682,
      "tags": {
        "ADMIN_DIS_": "142",
        "DISTNEW_": "115",
        "DISTNEW_ID": "141",
        "DNAME": "Champhon",
        "PNAME": "P.SAVANNAKHET",
        "admin_level": "6",
        "alt_name": "Champhon;Champhone",
        "boundary": "administrative",
        "name": "\u0ec0\u0ea1\u0eb7\u0ead\u0e87\u0e88\u0eb3\u0e9e\u0ead\u0e99",
        "name:en": "Champhone District",
        "name:it": "Distretto di Champhone",
        "name:lo": "\u0ec0\u0ea1\u0eb7\u0ead\u0e87\u0e88\u0eb3\u0e9e\u0ead\u0e99",
        "name:uk": "\u0427\u0430\u043c\u043f\u0445\u043e\u043d",
        "name:vi": "Champhone",
        "type": "boundary",
        "wikidata": "Q5069951",
        "wikipedia": "en:Champhone District",
        "parent_id": "5831665"
      }
    },
    {
      "type": "rel",
      "id": 5831704,
      "tags": {
        "ADMIN_DIS_": "131",
        "DISTNEW_": "114",
        "DISTNEW_ID": "130",
        "DNAME": "Khanthabouri",
        "PNAME": "P.SAVANNAKHET",
        "admin_level": "6",
        "alt_name": "Khanthabouri;Khanthaboury;Kaysone Phomvihane;Kayson",
        "boundary": "administrative",
        "name": "\u0ec0\u0ea1\u0eb7\u0ead\u0e87\u0e8a\u0ebb\u0e99\u0e99\u0eb0\u0e9a\u0eb9\u0ea5",
        "name:en": "Khanthaboury District",
        "name:it": "Distretto di Khanthaboury",
        "name:lo": "\u0ec0\u0ea1\u0eb7\u0ead\u0e87\u0e8a\u0ebb\u0e99\u0e99\u0eb0\u0e9a\u0eb9\u0ea5",
        "name:uk": "\u0421\u043e\u043d\u0431\u0443\u043b\u0456",
        "name:ur": "\u062e\u0627\u0646\u062a\u06be\u0627\u0628\u0648\u0631\u06d2 \u0636\u0644\u0639",
        "type": "boundary",
        "wikidata": "Q8044916",
        "wikipedia": "en:Khanthaboury District",
        "parent_id": "5831665"
      }
    },
    {
      "type": "rel",
      "id": 5831734,
      "tags": {
        "ADMIN_DIS_": "47",
        "DISTNEW_": "116",
        "DISTNEW_ID": "46",
        "DNAME": "Nong",
        "PNAME": "P.SAVANNAKHET",
        "admin_level": "6",
        "alt_name": "Nong",
        "boundary": "administrative",
        "name": "\u0ec0\u0ea1\u0eb7\u0ead\u0e87\u0e99\u0ead\u0e87",
        "name:en": "Nong District",
        "name:it": "Distretto di Nong",
        "name:lo": "\u0ec0\u0ea1\u0eb7\u0ead\u0e87\u0e99\u0ead\u0e87",
        "name:uk": "\u041d\u043e\u043d\u0433",
        "name:vi": "Nong",
        "type": "boundary",
        "wikidata": "Q7049337",
        "wikipedia": "en:Nong District",
        "parent_id": "5831665"
      }
    },
    {
      "type": "rel",
      "id": 5831737,
      "tags": {
        "ADMIN_DIS_": "134",
        "DISTNEW_": "110",
        "DISTNEW_ID": "133",
        "DNAME": "Outhoumphon",
        "PNAME": "P.SAVANNAKHET",
        "admin_level": "6",
        "alt_name": "Outhoumphon;Outhoumphone;Outhoomphone",
        "boundary": "administrative",
        "name": "\u0ec0\u0ea1\u0eb7\u0ead\u0e87\u0ead\u0eb8\u0e97\u0eb8\u0ea1\u0e9e\u0ead\u0e99",
        "name:en": "Outhoumphone District",
        "name:it": "Distretto di Outhoumphone",
        "name:lo": "\u0ec0\u0ea1\u0eb7\u0ead\u0e87\u0ead\u0eb8\u0e97\u0eb8\u0ea1\u0e9e\u0ead\u0e99",
        "name:uk": "\u0423\u0442\u0445\u0443\u043c\u043f\u0445\u043e\u043d",
        "name:vi": "Outhoumphone",
        "type": "boundary",
        "wikidata": "Q7112080",
        "wikipedia": "en:Outhoumphone District",
        "parent_id": "5831665"
      }
    },
    {
      "type": "rel",
      "id": 5831751,
      "tags": {
        "ADMIN_DIS_": "141",
        "DISTNEW_": "111",
        "DISTNEW_ID": "140",
        "DNAME": "Phalanxai",
        "PNAME": "P.SAVANNAKHET",
        "admin_level": "6",
        "alt_name": "\u0e9e\u0eb0\u0ea5\u0eb2\u0e99\u0ec4\u0e8a;Phalanxai;Phalanxay;Thaphalanxay",
        "boundary": "administrative",
        "name": "\u0ec0\u0ea1\u0eb7\u0ead\u0e87\u0e9e\u0eb0\u0ea5\u0eb2\u0e99\u0ec4\u0e8a",
        "name:en": "Thaphalanxay District",
        "name:it": "Distretto di Thaphalanxay",
        "name:lo": "\u0ec0\u0ea1\u0eb7\u0ead\u0e87\u0e9e\u0eb0\u0ea5\u0eb2\u0e99\u0ec4\u0e8a",
        "name:uk": "\u0422\u0445\u0430\u043f\u0430\u043b\u0430\u043d\u0441\u0430\u0439",
        "name:vi": "Thaphalanxay",
        "type": "boundary",
        "wikidata": "Q7710692",
        "wikipedia": "en:Thaphalanxay District",
        "parent_id": "5831665"
      }
    },
    {
      "type": "rel",
      "id": 5831754,
      "tags": {
        "ADMIN_DIS_": "139",
        "DISTNEW_": "113",
        "DISTNEW_ID": "138",
        "DNAME": "Phin",
        "PNAME": "P.SAVANNAKHET",
        "admin_level": "6",
        "alt_name": "Phin;Phine",
        "boundary": "administrative",
        "name": "\u0ec0\u0ea1\u0eb7\u0ead\u0e87\u0e9e\u0eb5\u0e99",
        "name:en": "Phine District",
        "name:it": "Distretto di Phine",
        "name:lo": "\u0ec0\u0ea1\u0eb7\u0ead\u0e87\u0e9e\u0eb5\u0e99",
        "name:uk": "\u041f\u0445\u0456\u043d",
        "name:vi": "Phine",
        "type": "boundary",
        "wikidata": "Q7186334",
        "wikipedia": "en:Phine District",
        "parent_id": "5831665"
      }
    },
    {
      "type": "rel",
      "id": 5831773,
      "tags": {
        "ADMIN_DIS_": "133",
        "DISTNEW_": "121",
        "DISTNEW_ID": "132",
        "DNAME": "Songkhon",
        "PNAME": "P.SAVANNAKHET",
        "admin_level": "6",
        "alt_name": "Songkhon;Songkhone",
        "boundary": "administrative",
        "name": "\u0ec0\u0ea1\u0eb7\u0ead\u0e87\u0eaa\u0ead\u0e87\u0e84\u0ead\u0e99",
        "name:en": "Songkhone District",
        "name:it": "Distretto di Songkhone",
        "name:lo": "\u0ec0\u0ea1\u0eb7\u0ead\u0e87\u0eaa\u0ead\u0e87\u0e84\u0ead\u0e99",
        "name:uk": "\u0421\u043e\u043d\u0433\u043a\u0445\u043e\u043d",
        "name:vi": "Songkhone",
        "type": "boundary",
        "wikidata": "Q7561275",
        "wikipedia": "en:Songkhone District",
        "parent_id": "5831665"
      }
    },
    {
      "type": "rel",
      "id": 5831778,
      "tags": {
        "ADMIN_DIS_": "49",
        "DISTNEW_": "122",
        "DISTNEW_ID": "48",
        "DNAME": "Thapangthong",
        "PNAME": "P.SAVANNAKHET",
        "admin_level": "6",
        "alt_name": "Thapangthong;Thapanthong",
        "boundary": "administrative",
        "name": "\u0ec0\u0ea1\u0eb7\u0ead\u0e87\u0e97\u0ec8\u0eb2\u0e9b\u0eb2\u0e87\u0e97\u0ead\u0e87",
        "name:en": "Thapangthong District",
        "name:it": "Distretto di Thapangthong",
        "name:lo": "\u0ec0\u0ea1\u0eb7\u0ead\u0e87\u0e97\u0ec8\u0eb2\u0e9b\u0eb2\u0e87\u0e97\u0ead\u0e87",
        "name:uk": "\u0422\u0445\u0430\u043f\u0430\u043d\u0433\u0442\u0445\u043e\u043d\u0433",
        "name:vi": "Thapangthong",
        "type": "boundary",
        "wikidata": "Q7710677",
        "wikipedia": "en:Thapangthong District",
        "parent_id": "5831665"
      }
    },
    {
      "type": "rel",
      "id": 5831794,
      "tags": {
        "ADMIN_DIS_": "138",
        "DISTNEW_": "106",
        "DISTNEW_ID": "137",
        "DNAME": "Vilabouri",
        "PNAME": "P.SAVANNAKHET",
        "admin_level": "6",
        "alt_name": "Vilabouri;Vilabuly;Viraboury;Virabouri",
        "boundary": "administrative",
        "name": "\u0ec0\u0ea1\u0eb7\u0ead\u0e87\u0ea7\u0eb5\u0ea5\u0eb0\u0e9a\u0eb8\u0ea5\u0eb5",
        "name:en": "Viraboury District",
        "name:it": "Distretto di Viraboury",
        "name:lo": "\u0ec0\u0ea1\u0eb7\u0ead\u0e87\u0ea7\u0eb4\u0ea5\u0eb0\u0e9a\u0eb9\u0ea5\u0eb5",
        "name:uk": "\u0412\u0456\u043b\u0430\u0431\u0443\u0440\u0456",
        "name:vi": "Vilabuly",
        "type": "boundary",
        "wikidata": "Q7933563",
        "wikipedia": "en:Viraboury District",
        "parent_id": "5831665"
      }
    },
    {
      "type": "rel",
      "id": 5831797,
      "tags": {
        "ADMIN_DIS_": "132",
        "DISTNEW_": "107",
        "DISTNEW_ID": "131",
        "DNAME": "Xaibouri",
        "PNAME": "P.SAVANNAKHET",
        "admin_level": "6",
        "alt_name": "\u0ec4\u0e8a\u0e9a\u0eb9\u0ea5\u0eb5;Xaibouri;Xaybuly;Xayboury",
        "boundary": "administrative",
        "name": "\u0ec0\u0ea1\u0eb7\u0ead\u0e87\u0ec4\u0e8a\u0e9a\u0eb9\u0ea5\u0eb5",
        "name:en": "Xayboury District",
        "name:it": "Distretto di Xayboury",
        "name:lo": "\u0ec0\u0ea1\u0eb7\u0ead\u0e87\u0ec4\u0e8a\u0e9a\u0eb9\u0ea5\u0eb5",
        "name:uk": "\u0421\u0430\u0439\u0431\u0443\u043b\u0456",
        "name:vi": "Xaybuly",
        "type": "boundary",
        "wikidata": "Q8043340",
        "wikipedia": "en:Xayboury District",
        "parent_id": "5831665"
      }
    },
    {
      "type": "rel",
      "id": 5831799,
      "tags": {
        "ADMIN_DIS_": "140",
        "DISTNEW_": "119",
        "DISTNEW_ID": "139",
        "DNAME": "Xaiphouthong",
        "PNAME": "P.SAVANNAKHET",
        "admin_level": "6",
        "alt_name": "Xaiphouthong;Xayphouthong;Xayphoothong",
        "boundary": "administrative",
        "name": "\u0ec0\u0ea1\u0eb7\u0ead\u0e87\u0ec4\u0e8a\u0e9e\u0eb9\u0e97\u0ead\u0e87",
        "name:en": "Xaiphouthong District",
        "name:lo": "\u0ec0\u0ea1\u0eb7\u0ead\u0e87\u0ec4\u0e8a\u0e9e\u0eb9\u0e97\u0ead\u0e87",
        "type": "boundary",
        "wikidata": "Q10834764",
        "wikipedia": "vi:Xayphouthong",
        "parent_id": "5831665"
      }
    },
    {
      "type": "rel",
      "id": 5831806,
      "tags": {
        "ADMIN_DIS_": "46",
        "DISTNEW_": "109",
        "DISTNEW_ID": "45",
        "DNAME": "Xepon",
        "PNAME": "P.SAVANNAKHET",
        "admin_level": "6",
        "alt_name": "Xepon;Sepon;Sepone;Seponh",
        "boundary": "administrative",
        "name": "\u0ec0\u0ea1\u0eb7\u0ead\u0e87\u0ec0\u0e8a\u0ec2\u0e9b\u0e99",
        "name:en": "Seponh District",
        "name:it": "Distretto di Sepone",
        "name:lo": "\u0ec0\u0ea1\u0eb7\u0ead\u0e87\u0ec0\u0e8a\u0ec2\u0e9b\u0e99",
        "name:uk": "\u0421\u0435\u043f\u043e\u043d",
        "name:vi": "Seponh",
        "type": "boundary",
        "wikidata": "Q7451953",
        "wikipedia": "en:Seponh District",
        "parent_id": "5831665"
      }
    },
    {
      "type": "rel",
      "id": 5831810,
      "tags": {
        "ADMIN_DIS_": "135",
        "DISTNEW_": "117",
        "DISTNEW_ID": "134",
        "DNAME": "Xonbouri",
        "PNAME": "P.SAVANNAKHET",
        "admin_level": "6",
        "alt_name": "Xonbouri;Xonboury;Xonnabouly;X\u00f4nboul",
        "boundary": "administrative",
        "name": "\u0ec0\u0ea1\u0eb7\u0ead\u0e87\u0e8a\u0ebb\u0e99\u0e99\u0eb0\u0e9a\u0eb9\u0ea5\u0eb5",
        "name:en": "Xonboury District",
        "name:it": "Distretto di Xonboury",
        "name:lo": "\u0ec0\u0ea1\u0eb7\u0ead\u0e87\u0e8a\u0ebb\u0e99\u0e99\u0eb0\u0e9a\u0eb9\u0ea5\u0eb5",
        "name:uk": "\u0421\u0430\u0439\u043f\u0445\u0443\u0442\u0445\u043e\u043d\u0433",
        "name:vi": "Xonbuly",
        "type": "boundary",
        "wikidata": "Q6400414",
        "wikipedia": "en:Xonboury District",
        "parent_id": "5831665"
      }
    },
    {
      "type": "rel",
      "id": 5831685,
      "tags": {
        "ADMIN_DIS_": "56",
        "DISTNEW_": "128",
        "DISTNEW_ID": "55",
        "DNAME": "Dakchung",
        "PNAME": "P.XEKONG",
        "admin_level": "6",
        "alt_name": "Dakchung;Dak Cheung",
        "boundary": "administrative",
        "name": "\u0ec0\u0ea1\u0eb7\u0ead\u0e87\u0e94\u0eb1\u0e81\u0e88\u0eb6\u0e87",
        "name:en": "Dak Cheung District",
        "name:it": "Distretto di Dak Cheung",
        "name:lo": "\u0ec0\u0ea1\u0eb7\u0ead\u0e87\u0e94\u0eb1\u0e81\u0e88\u0eb6\u0e87",
        "name:th": "\u0e40\u0e21\u0e37\u0e2d\u0e07\u0e14\u0e31\u0e01\u0e08\u0e36\u0e07",
        "name:uk": "\u0414\u0430\u043a\u0445\u0443\u043d\u0433",
        "name:vi": "Dak Cheung",
        "type": "boundary",
        "wikidata": "Q5209893",
        "wikipedia": "en:Dak Cheung District",
        "parent_id": "5831669"
      }
    },
    {
      "type": "rel",
      "id": 5831698,
      "tags": {
        "ADMIN_DIS_": "55",
        "DISTNEW_": "123",
        "DISTNEW_ID": "54",
        "DNAME": "Karum",
        "PNAME": "P.XEKONG",
        "admin_level": "6",
        "alt_name": "Karum:Kaleum;Karum District",
        "boundary": "administrative",
        "name": "\u0ec0\u0ea1\u0eb7\u0ead\u0e87\u0e81\u0eb0\u0ea5\u0eb6\u0ea1",
        "name:en": "Kaleum District",
        "name:it": "Distretto di Kaleum",
        "name:lo": "\u0ec0\u0ea1\u0eb7\u0ead\u0e87\u0e81\u0eb0\u0ea5\u0eb6\u0ea1",
        "name:th": "\u0e40\u0e21\u0e37\u0e2d\u0e07\u0e01\u0e30\u0e25\u0e36\u0e21",
        "name:uk": "\u041a\u0430\u043b\u0435\u0443\u043c",
        "name:vi": "Kaleum",
        "type": "boundary",
        "wikidata": "Q6352195",
        "wikipedia": "en:Kaleum District",
        "parent_id": "5831669"
      }
    },
    {
      "type": "rel",
      "id": 5831712,
      "tags": {
        "ADMIN_DIS_": "57",
        "DISTNEW_": "130",
        "DISTNEW_ID": "56",
        "DNAME": "Lamam",
        "PNAME": "P.XEKONG",
        "admin_level": "6",
        "alt_name": "Lamarm;Lamam;Lamam District;\u0ea5\u0eb0\u0ea1\u0eb2\u0ea1",
        "boundary": "administrative",
        "name": "\u0ec0\u0ea1\u0eb7\u0ead\u0e87\u0ea5\u0eb0\u0ea1\u0eb2\u0ea1",
        "name:en": "Lam Mam District",
        "name:it": "Distretto di Lam Mam",
        "name:lo": "\u0ec0\u0ea1\u0eb7\u0ead\u0e87\u0ea5\u0eb0\u0ea1\u0eb2\u0ea1",
        "name:th": "\u0e40\u0e21\u0e37\u0e2d\u0e07\u0e25\u0e30\u0e21\u0e32\u0e21",
        "name:uk": "\u041b\u0430\u043c\u0430\u043c",
        "name:ur": "\u0644\u0627\u0645 \u0645\u0627\u0645 \u0636\u0644\u0639",
        "name:vi": "Lam Mam",
        "type": "boundary",
        "wikidata": "Q6480669",
        "wikipedia": "en:Lam Mam District",
        "parent_id": "5831669"
      }
    },
    {
      "type": "rel",
      "id": 5831780,
      "tags": {
        "ADMIN_DIS_": "58",
        "DISTNEW_": "132",
        "DISTNEW_ID": "57",
        "DNAME": "Thateng",
        "PNAME": "P.XEKONG",
        "admin_level": "6",
        "alt_name": "Tha Teng;Thateng;\u0e97\u0ec8\u0eb2\u0ec1\u0e95\u0e87",
        "boundary": "administrative",
        "name": "\u0ec0\u0ea1\u0eb7\u0ead\u0e87\u0e97\u0ec8\u0eb2\u0ec1\u0e95\u0e87",
        "name:en": "Tha Teng District",
        "name:it": "Distretto di Tha Teng",
        "name:lo": "\u0ec0\u0ea1\u0eb7\u0ead\u0e87\u0e97\u0ec8\u0eb2\u0ec1\u0e95\u0e87",
        "name:th": "\u0e40\u0e21\u0e37\u0e2d\u0e07\u0e17\u0e48\u0e32\u0e41\u0e15\u0e07",
        "name:uk": "\u0422\u0445\u0430\u0442\u0435\u043d\u0433",
        "name:vi": "Tha Teng",
        "type": "boundary",
        "wikidata": "Q7708782",
        "wikipedia": "en:Tha Teng District",
        "parent_id": "5831669"
      }
    },
    {
      "type": "rel",
      "id": 5831677,
      "tags": {
        "ADMIN_DIS_": "26",
        "DISTNEW_": "97",
        "DISTNEW_ID": "25",
        "DNAME": "Boten",
        "PNAME": "P.XAIGNABOURI",
        "admin_level": "6",
        "alt_name": "Boten;Botene",
        "boundary": "administrative",
        "name": "\u0ec0\u0ea1\u0eb7\u0ead\u0e87\u0e9a\u0ecd\u0ec8\u0ec1\u0e95\u0e99",
        "name:en": "Botene District",
        "name:lo": "\u0ec0\u0ea1\u0eb7\u0ead\u0e87\u0e9a\u0ecd\u0ec8\u0ec1\u0e95\u0e99",
        "name:vi": "Botene",
        "type": "boundary",
        "wikidata": "Q10740893",
        "wikipedia": "lo:\u0ec0\u0ea1\u0eb7\u0ead\u0e87\u0e9a\u0ecd\u0ec8\u0ec1\u0e95\u0e99",
        "parent_id": "5831663"
      }
    },
    {
      "type": "rel",
      "id": 5831694,
      "tags": {
        "ADMIN_DIS_": "25",
        "DISTNEW_": "44",
        "DISTNEW_ID": "24",
        "DNAME": "Hongsa",
        "PNAME": "P.XAIGNABOURI",
        "admin_level": "6",
        "alt_name": "Hongsa",
        "boundary": "administrative",
        "name": "\u0ec0\u0ea1\u0eb7\u0ead\u0e87\u0eab\u0ebb\u0e87\u0eaa\u0eb2",
        "name:en": "Hongsa District",
        "name:vi": "Hongsa",
        "type": "boundary",
        "parent_id": "5831663"
      }
    },
    {
      "type": "rel",
      "id": 5831700,
      "tags": {
        "ADMIN_DIS_": "86",
        "DISTNEW_": "91",
        "DISTNEW_ID": "85",
        "DNAME": "Kenthao",
        "PNAME": "P.XAIGNABOURI",
        "admin_level": "6",
        "alt_name": "Kenthao;Kenethao District",
        "boundary": "administrative",
        "name": "\u0ec0\u0ea1\u0eb7\u0ead\u0e87\u0ec1\u0e81\u0ec8\u0e99\u0e97\u0ec9\u0eb2\u0ea7",
        "name:en": "Kenethao District",
        "name:lo": "\u0ec0\u0ea1\u0eb7\u0ead\u0e87\u0ec1\u0e81\u0ec8\u0e99\u0e97\u0ec9\u0eb2\u0ea7",
        "name:th": "\u0e41\u0e01\u0e48\u0e19\u0e17\u0e49\u0e32\u0e27",
        "name:vi": "Kenethao",
        "type": "boundary",
        "wikidata": "Q6668949",
        "wikipedia": "en:Kenethao District",
        "parent_id": "5831663"
      }
    },
    {
      "type": "rel",
      "id": 5831708,
      "tags": {
        "ADMIN_DIS_": "22",
        "DISTNEW_": "49",
        "DISTNEW_ID": "21",
        "DNAME": "Khop",
        "PNAME": "P.XAIGNABOURI",
        "admin_level": "6",
        "alt_name": "Khop",
        "boundary": "administrative",
        "name": "\u0ec0\u0ea1\u0eb7\u0ead\u0e87\u0e84\u0ead\u0e9a",
        "name:en": "Khop District",
        "name:lo": "\u0ec0\u0ea1\u0eb7\u0ead\u0e87\u0e84\u0ead\u0e9a",
        "name:th": "\u0e40\u0e21\u0e37\u0e2d\u0e07\u0e04\u0e2d\u0e1a",
        "name:vi": "Khop",
        "type": "boundary",
        "wikidata": "Q6534486",
        "wikipedia": "lo:\u0ec0\u0ea1\u0eb7\u0ead\u0e87\u0e84\u0ead\u0e9a",
        "parent_id": "5831663"
      }
    },
    {
      "type": "rel",
      "id": 5831732,
      "tags": {
        "ADMIN_DIS_": "24",
        "DISTNEW_": "47",
        "DISTNEW_ID": "23",
        "DNAME": "Ngeun",
        "PNAME": "P.XAIGNABOURI",
        "admin_level": "6",
        "alt_name": "Ngeun",
        "boundary": "administrative",
        "name": "\u0ec0\u0ea1\u0eb7\u0ead\u0e87\u0ec0\u0e87\u0eb4\u0e99",
        "name:en": "Ngeun District",
        "name:lo": "\u0ec0\u0ea1\u0eb7\u0ead\u0e87\u0ec0\u0e87\u0eb4\u0e99",
        "name:vi": "Ngeun (huy\u1ec7n)",
        "type": "boundary",
        "wikidata": "Q10798627",
        "wikipedia": "lo:\u0ec0\u0ea1\u0eb7\u0ead\u0e87\u0ec0\u0e87\u0eb4\u0e99",
        "parent_id": "5831663"
      }
    },
    {
      "type": "rel",
      "id": 5831742,
      "tags": {
        "ADMIN_DIS_": "85",
        "DISTNEW_": "71",
        "DISTNEW_ID": "84",
        "DNAME": "Paklai",
        "PNAME": "P.XAIGNABOURI",
        "admin_level": "6",
        "alt_name": "Paklai;Parklai;Parklai District",
        "boundary": "administrative",
        "name": "\u0ec0\u0ea1\u0eb7\u0ead\u0e87\u0e9b\u0eb2\u0e81\u0ea5\u0eb2\u0e8d",
        "name:en": "Paklai District",
        "name:lo": "\u0ec0\u0ea1\u0eb7\u0ead\u0e87\u0e9b\u0eb2\u0e81\u0ea5\u0eb2\u0e8d",
        "name:vi": "Parklai",
        "type": "boundary",
        "wikidata": "Q10804239",
        "wikipedia": "vi:Parklai",
        "parent_id": "5831663"
      }
    },
    {
      "type": "rel",
      "id": 5831753,
      "tags": {
        "ADMIN_DIS_": "83",
        "DISTNEW_": "61",
        "DISTNEW_ID": "82",
        "DNAME": "Phiang",
        "PNAME": "P.XAIGNABOURI",
        "admin_level": "6",
        "alt_name": "Phiang;Phieng",
        "boundary": "administrative",
        "name": "\u0ec0\u0ea1\u0eb7\u0ead\u0e87\u0e9e\u0ebd\u0e87",
        "name:en": "Phiang District",
        "name:lo": "\u0ec0\u0ea1\u0eb7\u0ead\u0e87\u0e9e\u0ebd\u0e87",
        "name:vi": "Phiang",
        "type": "boundary",
        "wikidata": "Q10805217",
        "wikipedia": "lo:\u0ec0\u0ea1\u0eb7\u0ead\u0e87\u0e9e\u0ebd\u0e87",
        "parent_id": "5831663"
      }
    },
    {
      "type": "rel",
      "id": 5831782,
      "tags": {
        "ADMIN_DIS_": "118",
        "DISTNEW_": "78",
        "DISTNEW_ID": "117",
        "DNAME": "Thongmixai",
        "PNAME": "P.XAIGNABOURI",
        "admin_level": "6",
        "alt_name": "Thongmixai;Thongmyxay",
        "boundary": "administrative",
        "name": "\u0ec0\u0ea1\u0eb7\u0ead\u0e87\u0e97\u0ebb\u0ec8\u0e87\u0ea1\u0eb5\u0ec4\u0e8a",
        "name:en": "Thongmyxay District",
        "name:lo": "\u0ec0\u0ea1\u0eb7\u0ead\u0e87\u0e97\u0ebb\u0ec8\u0e87\u0ea1\u0eb5\u0ec4\u0e8a",
        "name:vi": "Thongmyxay",
        "type": "boundary",
        "wikidata": "Q10825309",
        "wikipedia": "vi:Thongmyxay",
        "parent_id": "5831663"
      }
    },
    {
      "type": "rel",
      "id": 5831798,
      "tags": {
        "ADMIN_DIS_": "84",
        "DISTNEW_": "54",
        "DISTNEW_ID": "83",
        "DNAME": "Xaignabouri",
        "PNAME": "P.XAIGNABOURI",
        "admin_level": "6",
        "alt_name": "Xaignabouri;Xayabury District;Xayaburi;Xayaboury",
        "boundary": "administrative",
        "name": "\u0ec0\u0ea1\u0eb7\u0ead\u0e87\u0ec4\u0e8a\u0e8d\u0eb0\u0e9a\u0eb9\u0ea5",
        "name:en": "Xayabury District",
        "name:eo": "Sainjabuli",
        "name:fa": "\u0633\u0627\u06cc\u0646\u06cc\u0627\u0628\u0648\u0644\u06cc",
        "name:fr": "Xaignabouli",
        "name:id": "Xaignabouli",
        "name:it": "Sainyabuli",
        "name:ka": "\u10e1\u10d0\u10d8\u10dc\u10d8\u10d0\u10d1\u10e3\u10da\u10d8",
        "name:lo": "\u0ec4\u0e8a\u0e8d\u0eb0\u0e9a\u0eb9\u0ea5",
        "name:lt": "Sainjabulis",
        "name:nl": "Muang Sayaburi",
        "name:pl": "Muang Xaignabouli",
        "name:ru": "\u0421\u0430\u0439\u043d\u044f\u0431\u0443\u043b\u0438",
        "name:th": "\u0e44\u0e0a\u0e22\u0e1a\u0e38\u0e23\u0e35",
        "name:ur": "\u0633\u0627\u0626\u0646\u06cc\u0627\u0628\u0648\u0644\u06cc",
        "name:vi": "Xayabury",
        "name:zh": "\u6c99\u8036\u6b66\u91cc",
        "type": "boundary",
        "parent_id": "5831663"
      }
    },
    {
      "type": "rel",
      "id": 5831808,
      "tags": {
        "ADMIN_DIS_": "23",
        "DISTNEW_": "45",
        "DISTNEW_ID": "22",
        "DNAME": "Xianghon",
        "PNAME": "P.XAIGNABOURI",
        "admin_level": "6",
        "alt_name": "Xianghon;Xienghon;Xienghone",
        "boundary": "administrative",
        "name": "\u0ec0\u0ea1\u0eb7\u0ead\u0e87\u0e8a\u0ebd\u0e87\u0eae\u0ec8\u0ead\u0e99",
        "name:en": "Xienghone District",
        "name:lo": "\u0ec0\u0ea1\u0eb7\u0ead\u0e87\u0e8a\u0ebd\u0e87\u0eae\u0ec8\u0ead\u0e99",
        "type": "boundary",
        "wikidata": "Q10834822",
        "wikipedia": "lo:\u0ec0\u0ea1\u0eb7\u0ead\u0e87\u0e8a\u0ebd\u0e87\u0eae\u0ec8\u0ead\u0e99",
        "parent_id": "5831663"
      }
    },
    {
      "type": "rel",
      "id": 6980676,
      "tags": {
        "ADMIN_DIS_": "84",
        "DISTNEW_": "54",
        "DISTNEW_ID": "83",
        "DNAME": "Xais",
        "PNAME": "P.XAIGNABOURI",
        "admin_level": "6",
        "alt_name": "Xaisathan;Saisathan",
        "boundary": "administrative",
        "name": "\u0ec0\u0ea1\u0eb7\u0ead\u0e87\u0ec4\u0e8a\u0eaa\u0eb0\u0e96\u0eb2\u0e99",
        "name:en": "Xaisathan District",
        "name:lo": "\u0ec0\u0ea1\u0eb7\u0ead\u0e87\u0ec4\u0e8a\u0eaa\u0eb0\u0e96\u0eb2\u0e99",
        "type": "boundary",
        "parent_id": "5831663"
      }
    },
    {
      "type": "rel",
      "id": 5831696,
      "tags": {
        "ADMIN_DIS_": "6",
        "DISTNEW_": "29",
        "DISTNEW_ID": "5",
        "DNAME": "Houayxay",
        "PNAME": "P.BOKEO",
        "admin_level": "6",
        "alt_name": "Houayxay;Houay Xay;Houay Xay District",
        "boundary": "administrative",
        "name": "\u0ec0\u0ea1\u0eb7\u0ead\u0e87\u0eab\u0ec9\u0ea7\u0e8d\u0e8a\u0eb2\u0e8d",
        "name:en": "Houaixai District",
        "name:it": "Distretto di Houay Xay",
        "name:lo": "\u0ec0\u0ea1\u0eb7\u0ead\u0e87\u0eab\u0ec9\u0ea7\u0e8d\u0e8a\u0eb2\u0e8d",
        "name:pl": "Houixai",
        "name:th": "\u0e40\u0e21\u0e37\u0e2d\u0e07\u0e2b\u0e49\u0e27\u0e22\u0e0a\u0e32\u0e22",
        "name:uk": "\u0425\u0443\u0430\u0439\u0441\u0430\u0439",
        "name:ur": "\u06c1\u0648\u0648\u0627\u06d2 \u0633\u0627\u0626\u06d2 \u0636\u0644\u0639",
        "type": "boundary",
        "wikidata": "Q5912694",
        "wikipedia": "en:Houay Xay District",
        "parent_id": "5831654"
      }
    },
    {
      "type": "rel",
      "id": 5831722,
      "tags": {
        "ADMIN_DIS_": "5",
        "DISTNEW_": "21",
        "DISTNEW_ID": "4",
        "DNAME": "Meung",
        "PNAME": "P.BOKEO",
        "admin_level": "6",
        "alt_name": "Meung",
        "boundary": "administrative",
        "name": "\u0ec0\u0ea1\u0eb7\u0ead\u0e87\u0ec0\u0ea1\u0eb4\u0e87",
        "name:en": "Meung District",
        "name:it": "Distretto di Meung",
        "name:lo": "\u0ec0\u0ea1\u0eb7\u0ead\u0e87\u0ec0\u0ea1\u0eb4\u0e87",
        "name:pl": "Meung",
        "name:uk": "\u041c\u0443\u0443\u0435\u0433",
        "name:vi": "Meung",
        "type": "boundary",
        "wikidata": "Q10793130",
        "wikipedia": "en:Meung District",
        "parent_id": "5831654"
      }
    },
    {
      "type": "rel",
      "id": 5831743,
      "tags": {
        "ADMIN_DIS_": "8",
        "DISTNEW_": "37",
        "DISTNEW_ID": "7",
        "DNAME": "Paktha",
        "PNAME": "P.BOKEO",
        "admin_level": "6",
        "alt_name": "Paktha;Pak Tha;Pak Tha District",
        "boundary": "administrative",
        "name": "\u0ec0\u0ea1\u0eb7\u0ead\u0e87\u0e9b\u0eb2\u0e81\u0e97\u0eb2",
        "name:en": "Paktha District",
        "name:it": "Distretto di Pak Tha",
        "name:lo": "\u0ec0\u0ea1\u0eb7\u0ead\u0e87\u0e9b\u0eb2\u0e81\u0e97\u0eb2",
        "name:th": "\u0e1b\u0e32\u0e01\u0e17\u0e32",
        "name:uk": "\u041f\u0430\u043a\u0442\u0445\u0430",
        "name:vi": "Paktha",
        "type": "boundary",
        "wikidata": "Q6468523",
        "wikipedia": "en:Pak Tha District",
        "parent_id": "5831654"
      }
    },
    {
      "type": "rel",
      "id": 5831750,
      "tags": {
        "ADMIN_DIS_": "7",
        "DISTNEW_": "33",
        "DISTNEW_ID": "6",
        "DNAME": "Pha-Oudom",
        "PNAME": "P.BOKEO",
        "admin_level": "6",
        "alt_name": "Pha-Oudom",
        "boundary": "administrative",
        "name": "\u0ec0\u0ea1\u0eb7\u0ead\u0e87\u0e9c\u0eb2\u0ead\u0eb8\u0e94\u0ebb\u0ea1",
        "name:en": "Pha Oudom District",
        "name:it": "Distretto di Pha Oudom",
        "name:lo": "\u0ec0\u0ea1\u0eb7\u0ead\u0e87\u0e9c\u0eb2\u0ead\u0eb8\u0e94\u0ebb\u0ea1",
        "name:vi": "Pha Oudom",
        "type": "boundary",
        "wikidata": "Q7179857",
        "wikipedia": "en:Pha Oudom District",
        "parent_id": "5831654"
      }
    },
    {
      "type": "rel",
      "id": 5831784,
      "tags": {
        "ADMIN_DIS_": "110",
        "DISTNEW_": "25",
        "DISTNEW_ID": "109",
        "DNAME": "Tonpheung",
        "PNAME": "P.BOKEO",
        "admin_level": "6",
        "alt_name": "Tonpheung;Ton Pheung",
        "boundary": "administrative",
        "name": "\u0ec0\u0ea1\u0eb7\u0ead\u0e87\u0e95\u0ebb\u0ec9\u0e99\u0ec0\u0e9c\u0eb4\u0ec9\u0e87",
        "name:en": "Tonpheung District",
        "name:it": "Distretto di Ton Pheung",
        "name:lo": "\u0ec0\u0ea1\u0eb7\u0ead\u0e87\u0e95\u0ebb\u0ec9\u0e99\u0ec0\u0e9c\u0eb4\u0ec9\u0e87",
        "name:vi": "Tonpheung",
        "type": "boundary",
        "wikidata": "Q10827578",
        "wikipedia": "en:Ton Pheung District",
        "parent_id": "5831654"
      }
    },
    {
      "type": "rel",
      "id": 5831714,
      "tags": {
        "ADMIN_DIS_": "4",
        "DISTNEW_": "9",
        "DISTNEW_ID": "3",
        "DNAME": "Long",
        "PNAME": "P.LOUANGNAMTHA",
        "admin_level": "6",
        "alt_name": "Long",
        "boundary": "administrative",
        "name": "\u0ec0\u0ea1\u0eb7\u0ead\u0e87\u0ea5\u0ead\u0e87",
        "name:en": "Long District",
        "name:it": "Distretto di Long",
        "name:lo": "\u0ec0\u0ea1\u0eb7\u0ead\u0e87\u0ea5\u0ead\u0e87",
        "name:vi": "Long, Luangnamtha",
        "type": "boundary",
        "wikidata": "Q6672522",
        "wikipedia": "en:Long District, Laos",
        "parent_id": "5831659"
      }
    },
    {
      "type": "rel",
      "id": 5831717,
      "tags": {
        "ADMIN_DIS_": "106",
        "DISTNEW_": "11",
        "DISTNEW_ID": "105",
        "DNAME": "Louang-Namtha",
        "PNAME": "P.LOUANGNAMTHA",
        "admin_level": "6",
        "alt_name": "Louang-Namtha;Namtha",
        "boundary": "administrative",
        "name": "\u0ec0\u0ea1\u0eb7\u0ead\u0e87\u0eab\u0ebc\u0ea7\u0e87\u0e99\u0ecd\u0ec9\u0eb2\u0e97\u0eb2",
        "name:en": "Namtha District",
        "name:fr": "Louangnamtha",
        "name:it": "Distretto di Namtha",
        "name:lo": "\u0ec0\u0ea1\u0eb7\u0ead\u0e87\u0eab\u0ebc\u0ea7\u0e87\u0e99\u0ecd\u0ec9\u0eb2\u0e97\u0eb2",
        "name:th": "\u0e19\u0e49\u0e33\u0e17\u0e32",
        "name:uk": "\u041d\u0430\u043c\u0442\u0445\u0430",
        "name:ur": "\u0646\u0627\u0645\u062a\u06be\u0627 \u0636\u0644\u0639",
        "name:vi": "Namtha",
        "type": "boundary",
        "wikidata": "Q6962098",
        "wikipedia": "en:Namtha District",
        "parent_id": "5831659"
      }
    },
    {
      "type": "rel",
      "id": 5831726,
      "tags": {
        "ADMIN_DIS_": "111",
        "DISTNEW_": "24",
        "DISTNEW_ID": "110",
        "DNAME": "Nale",
        "PNAME": "P.LOUANGNAMTHA",
        "admin_level": "6",
        "alt_name": "Nale",
        "boundary": "administrative",
        "name": "\u0ec0\u0ea1\u0eb7\u0ead\u0e87\u0e99\u0eb2\u0ec1\u0ea5",
        "name:en": "Nale District",
        "name:it": "Distretto di Na Le",
        "name:lo": "\u0ec0\u0ea1\u0eb7\u0ead\u0e87\u0e99\u0eb2\u0ec1\u0ea5",
        "name:th": "\u0e40\u0e21\u0e37\u0e2d\u0e07\u0e19\u0e32\u0e41\u0e25",
        "name:uk": "\u041d\u0430\u043b\u0435",
        "name:vi": "Na Le",
        "type": "boundary",
        "wikidata": "Q6956412",
        "wikipedia": "en:Na Le District",
        "parent_id": "5831659"
      }
    },
    {
      "type": "rel",
      "id": 5831771,
      "tags": {
        "ADMIN_DIS_": "3",
        "DISTNEW_": "7",
        "DISTNEW_ID": "2",
        "DNAME": "Sing",
        "PNAME": "P.LOUANGNAMTHA",
        "admin_level": "6",
        "alt_name": "Sing;Mueang Sing",
        "boundary": "administrative",
        "name": "\u0ec0\u0ea1\u0eb7\u0ead\u0e87\u0eaa\u0eb5\u0e87",
        "name:de": "Muang Sing",
        "name:en": "Sing District",
        "name:fi": "Muang Sing",
        "name:it": "Distretto di Sing",
        "name:lo": "\u0ec0\u0ea1\u0eb7\u0ead\u0e87\u0eaa\u0eb5\u0e87",
        "name:th": "\u0e40\u0e21\u0e37\u0e2d\u0e07\u0e2a\u0e34\u0e07\u0e2b\u0e4c",
        "name:vi": "Sing",
        "type": "boundary",
        "wikidata": "Q1018697",
        "wikipedia": "en:Muang Sing",
        "parent_id": "5831659"
      }
    },
    {
      "type": "rel",
      "id": 5831789,
      "tags": {
        "ADMIN_DIS_": "109",
        "DISTNEW_": "15",
        "DISTNEW_ID": "108",
        "DNAME": "Viangphoukha",
        "PNAME": "P.LOUANGNAMTHA",
        "admin_level": "6",
        "alt_name": "Viangphoukha;Viengphoukha",
        "boundary": "administrative",
        "name": "\u0ec0\u0ea1\u0eb7\u0ead\u0e87\u0ea7\u0ebd\u0e87\u0e9e\u0eb9\u0e84\u0eb2",
        "name:en": "Viengphoukha District",
        "name:it": "Distretto di Viengphoukha",
        "name:lo": "\u0ec0\u0ea1\u0eb7\u0ead\u0e87\u0ea7\u0ebd\u0e87\u0e9e\u0eb9\u0e84\u0eb2",
        "name:th": "\u0e40\u0e21\u0e37\u0e2d\u0e07\u0e40\u0e27\u0e35\u0e22\u0e07\u0e1e\u0e39\u0e04\u0e32",
        "name:uk": "\u0412'\u0454\u043d\u0433\u043f\u0445\u0443\u043a\u0445\u0430",
        "name:vi": "Viengphoukha",
        "type": "boundary",
        "wikidata": "Q1886320",
        "wikipedia": "en:Viengphoukha District",
        "parent_id": "5831659"
      }
    },
    {
      "type": "rel",
      "id": 5831676,
      "tags": {
        "ADMIN_DIS_": "79",
        "DISTNEW_": "67",
        "DISTNEW_ID": "78",
        "DNAME": "Borikhan",
        "PNAME": "P.BORIKHAMXAI",
        "admin_level": "6",
        "alt_name": "Bolikhan;Borikhan;Borikhane;Bolikhane;Bolikanh",
        "boundary": "administrative",
        "name": "\u0ec0\u0ea1\u0eb7\u0ead\u0e87\u0e9a\u0ecd\u0ea5\u0eb4\u0e84\u0eb1\u0e99",
        "name:en": "Borikhane District",
        "name:it": "Distretto di Borikhane",
        "name:lo": "\u0e9a\u0ecd\u0ea5\u0eb4\u0e84\u0eb1\u0e99",
        "name:th": "\u0e40\u0e21\u0e37\u0e2d\u0e07\u0e1a\u0e23\u0e34\u0e04\u0e31\u0e13\u0e11\u0e4c",
        "name:uk": "\u0411\u043e\u043b\u0456\u043a\u0445\u0430\u043d\u0445",
        "name:vi": "Borikhanh",
        "type": "boundary",
        "wikidata": "Q4945131",
        "wikipedia": "en:Borikhane District",
        "parent_id": "5831655"
      }
    },
    {
      "type": "rel",
      "id": 5831703,
      "tags": {
        "ADMIN_DIS_": "37",
        "DISTNEW_": "74",
        "DISTNEW_ID": "36",
        "DNAME": "Khamkeut",
        "PNAME": "P.BORIKHAMXAI",
        "admin_level": "6",
        "alt_name": "Kham Keut;Khamkued;Kham Koed",
        "boundary": "administrative",
        "name": "\u0ec0\u0ea1\u0eb7\u0ead\u0e87\u0e84\u0eb3\u0ec0\u0e81\u0eb5\u0e94",
        "name:en": "Khamkeut District",
        "name:it": "Distretto di Khamkeut",
        "name:lo": "\u0e84\u0eb3\u0ec0\u0e81\u0eb5\u0e94",
        "name:th": "\u0e40\u0e21\u0e37\u0e2d\u0e07\u0e04\u0e33\u0e40\u0e01\u0e34\u0e14",
        "name:uk": "\u041a\u0445\u0430\u043c\u043a\u0445\u0435\u0443\u0442\u0445",
        "name:vi": "Khamkeuth",
        "type": "boundary",
        "wikidata": "Q6399974",
        "wikipedia": "en:Khamkeut District",
        "parent_id": "5831655"
      }
    },
    {
      "type": "rel",
      "id": 5831741,
      "tags": {
        "ADMIN_DIS_": "36",
        "DISTNEW_": "80",
        "DISTNEW_ID": "35",
        "DNAME": "Pakkading",
        "PNAME": "P.BORIKHAMXAI",
        "admin_level": "6",
        "alt_name": "Pakkading;Pak Kading",
        "boundary": "administrative",
        "name": "\u0ec0\u0ea1\u0eb7\u0ead\u0e87\u0e9b\u0eb2\u0e81\u0e81\u0eb0\u0e94\u0eb4\u0e87",
        "name:en": "Pakkading District",
        "name:it": "Distretto di Pakkading",
        "name:lo": "\u0e9b\u0eb2\u0e81\u0e81\u0eb0\u0e94\u0eb4\u0e87",
        "name:th": "\u0e40\u0e21\u0e37\u0e2d\u0e07\u0e1b\u0e32\u0e01\u0e01\u0e23\u0e30\u0e14\u0e34\u0e07",
        "name:uk": "\u041f\u0430\u043a\u043a\u0430\u0434\u0456\u043d\u0433",
        "name:vi": "Pakkading",
        "type": "boundary",
        "wikidata": "Q7126000",
        "wikipedia": "en:Pakkading District",
        "parent_id": "5831655"
      }
    },
    {
      "type": "rel",
      "id": 5831744,
      "tags": {
        "ADMIN_DIS_": "34",
        "DISTNEW_": "81",
        "DISTNEW_ID": "33",
        "DNAME": "Pakxan",
        "PNAME": "P.BORIKHAMXAI",
        "admin_level": "6",
        "alt_name": "Paksan;Paksane;Pakxan;Paksan District",
        "boundary": "administrative",
        "name": "\u0ec0\u0ea1\u0eb7\u0ead\u0e87\u0e9b\u0eb2\u0e81\u0e8a\u0eb1\u0e99",
        "name:en": "Paksane District",
        "name:it": "Distretto di Paksane",
        "name:uk": "\u041f\u0430\u043a\u0441\u0430\u043d",
        "name:ur": "\u067e\u0627\u06a9\u0633\u0627\u0646 \u0636\u0644\u0639",
        "type": "boundary",
        "wikidata": "Q7126056",
        "wikipedia": "en:Paksane District",
        "parent_id": "5831655"
      }
    },
    {
      "type": "rel",
      "id": 5831779,
      "tags": {
        "ADMIN_DIS_": "99",
        "DISTNEW_": "79",
        "DISTNEW_ID": "98",
        "DNAME": "Thaphabat",
        "PNAME": "P.BORIKHAMXAI",
        "admin_level": "6",
        "alt_name": "Thaphabath;Thaphabat;Thaphabat District",
        "boundary": "administrative",
        "name": "\u0ec0\u0ea1\u0eb7\u0ead\u0e87\u0e97\u0ec8\u0eb2\u0e9e\u0eb0\u0e9a\u0eb2\u0e94",
        "name:en": "Thaphabath District",
        "name:it": "Distretto di Thaphabat",
        "name:lo": "\u0e97\u0ec8\u0eb2\u0e9e\u0eb0\u0e9a\u0eb2\u0e94",
        "name:th": "\u0e40\u0e21\u0e37\u0e2d\u0e07\u0e17\u0e48\u0e32\u0e1e\u0e23\u0e30\u0e1a\u0e32\u0e17",
        "name:uk": "\u0422\u0445\u0430\u043f\u0445\u0430\u0431\u0430\u0442\u0445",
        "name:vi": "Thaphabath",
        "type": "boundary",
        "wikidata": "Q10825010",
        "wikipedia": "en:Thaphabat District",
        "parent_id": "5831655"
      }
    },
    {
      "type": "rel",
      "id": 5831793,
      "tags": {
        "ADMIN_DIS_": "35",
        "DISTNEW_": "65",
        "DISTNEW_ID": "34",
        "DNAME": "Viengthong",
        "PNAME": "P.BORIKHAMXAI",
        "admin_level": "6",
        "alt_name": "Viengthong",
        "boundary": "administrative",
        "name": "\u0ec0\u0ea1\u0eb7\u0ead\u0e87\u0ea7\u0ebd\u0e87\u0e97\u0ead\u0e87",
        "name:en": "Viengthong District",
        "name:lo": "\u0ea7\u0ebd\u0e87\u0e97\u0ead\u0e87",
        "name:th": "\u0e40\u0e21\u0e37\u0e2d\u0e07\u0e40\u0e27\u0e35\u0e22\u0e07\u0e17\u0e2d\u0e07",
        "name:uk": "\u0412'\u0454\u043d\u0433\u0442\u0445\u043e\u043d\u0433",
        "name:vi": "Viengthong",
        "type": "boundary",
        "wikidata": "Q7928290",
        "wikipedia": "en:Viengthong District, Bolikhamsai",
        "parent_id": "5831655"
      }
    },
    {
      "type": "rel",
      "id": 6949871,
      "tags": {
        "admin_level": "6",
        "alt_name": "Xaichamphon;\u0ec0\u0ea1\u0eb7\u0ec8\u0ead\u0e87 \u0ec4\u0e8a\u0e88\u0eb3\u0e9e\u0ead\u0e99",
        "boundary": "administrative",
        "name": "\u0ec4\u0e8a\u0e88\u0eb3\u0e9e\u0ead\u0e99",
        "name:en": "Xaichamphone District",
        "name:lo": "\u0ec4\u0e8a\u0e88\u0eb3\u0e9e\u0ead\u0e99",
        "type": "boundary",
        "parent_id": "5831655"
      }
    },
    {
      "type": "rel",
      "id": 5831686,
      "tags": {
        "ADMIN_DIS_": "113",
        "DISTNEW_": "20",
        "DISTNEW_ID": "112",
        "DNAME": "Et",
        "PNAME": "P.HOUAPHAN",
        "admin_level": "6",
        "alt_name": "Et",
        "boundary": "administrative",
        "name": "\u0ec0\u0ea1\u0eb7\u0ead\u0e87\u0ec1\u0ead\u0e94",
        "name:en": "Et District",
        "name:it": "Distretto di Et",
        "name:vi": "Et",
        "type": "boundary",
        "wikidata": "Q10759159",
        "wikipedia": "en:Et District",
        "parent_id": "5831657"
      }
    },
    {
      "type": "rel",
      "id": 5831695,
      "tags": {
        "ADMIN_DIS_": "75",
        "DISTNEW_": "34",
        "DISTNEW_ID": "74",
        "DNAME": "Houamuang",
        "PNAME": "P.HOUAPHAN",
        "admin_level": "6",
        "alt_name": "Houamuang;Houameuang",
        "boundary": "administrative",
        "name": "\u0eab\u0ebb\u0ea7\u0ec0\u0ea1\u0eb7\u0ead\u0e87",
        "name:en": "Houameuang District",
        "name:it": "Distretto di Huameuang",
        "name:lo": "\u0eab\u0ebb\u0ea7\u0ec0\u0ea1\u0eb7\u0ead\u0e87",
        "name:uk": "\u0425\u0443\u0430\u043c\u0435\u0443\u0430\u043d\u0433",
        "name:vi": "Huameuang",
        "type": "boundary",
        "wikidata": "Q5912676",
        "wikipedia": "en:Houameuang District",
        "parent_id": "5831657"
      }
    },
    {
      "type": "rel",
      "id": 5831774,
      "tags": {
        "ADMIN_DIS_": "115",
        "DISTNEW_": "22",
        "DISTNEW_ID": "114",
        "DNAME": "Sopbao",
        "PNAME": "P.HOUAPHAN",
        "admin_level": "6",
        "alt_name": "Sopbao;\u0ec0\u0ea1\u0eb7\u0ead\u0e87\u0eaa\u0ebb\u0e9a\u0ec0\u0e9a\u0ebb\u0eb2",
        "boundary": "administrative",
        "name": "\u0ead\u0e87\u0eaa\u0ebb\u0e9a\u0ec0\u0e9a\u0ebb\u0eb2",
        "name:en": "Sop Bao District",
        "name:it": "Distretto di Sop Bao",
        "name:lo": "\u0ec0\u0ea1\u0eb7\u0ead\u0e87\u0eaa\u0ebb\u0e9a\u0ec0\u0e9a\u0ebb\u0eb2",
        "name:uk": "\u0421\u043e\u043f\u0431\u0430\u043e",
        "name:vi": "Sop Bao",
        "type": "boundary",
        "wikidata": "Q10820221",
        "wikipedia": "en:Sop Bao District",
        "parent_id": "5831657"
      }
    },
    {
      "type": "rel",
      "id": 5831791,
      "tags": {
        "ADMIN_DIS_": "77",
        "DISTNEW_": "28",
        "DISTNEW_ID": "76",
        "DNAME": "Viangxai",
        "PNAME": "P.HOUAPHAN",
        "admin_level": "6",
        "alt_name": "Viangxai;\u0ec0\u0ea1\u0eb7\u0ead\u0e87\u0ea7\u0ebd\u0e87\u0ec4\u0e8a",
        "boundary": "administrative",
        "name": "\u0ea7\u0ebd\u0e87\u0ec4\u0e8a",
        "name:en": "Viengxay District",
        "name:it": "Distretto di Viengxay",
        "name:lo": "\u0ea7\u0ebd\u0e87\u0ec4\u0e8a",
        "name:uk": "\u0412'\u0454\u043d\u0433\u0441\u0430\u0439",
        "name:vi": "Viengxay",
        "type": "boundary",
        "wikidata": "Q7928292",
        "wikipedia": "en:Viengxay District",
        "parent_id": "5831657"
      }
    },
    {
      "type": "rel",
      "id": 5831802,
      "tags": {
        "ADMIN_DIS_": "78",
        "DISTNEW_": "26",
        "DISTNEW_ID": "77",
        "DNAME": "Xam-Nua",
        "PNAME": "P.HOUAPHAN",
        "admin_level": "6",
        "alt_name": "Xam-Nua;Xamneua District;Xam Neua;Xamneua District",
        "boundary": "administrative",
        "name": "\u0e8a\u0eb3\u0ec0\u0edc\u0eb7\u0ead",
        "name:de": "Sam Neua",
        "name:en": "Xam Neua District",
        "name:eo": "Sam Ne\u016da",
        "name:fr": "Sam Neua",
        "name:hr": "Xam Neua",
        "name:it": "Distretto di Sam Neua",
        "name:ja": "\u30b5\u30e0\u30cc\u30a2\u90e1",
        "name:ka": "\u10e1\u10d0\u10db\u10dc\u10d8\u10d0",
        "name:lo": "\u0e8a\u0eb3\u0ec0\u0edc\u0eb7\u0ead",
        "name:lt": "Samnia",
        "name:nl": "Sam Neua",
        "name:pl": "Sam Neua",
        "name:pt": "Sam Neua",
        "name:ru": "\u0421\u0430\u043c\u043d\u044b\u0430",
        "name:th": "\u0e40\u0e21\u0e37\u0e2d\u0e07\u0e0b\u0e33\u0e40\u0e2b\u0e19\u0e37\u0e2d",
        "name:uk": "\u0421\u0430\u043c\u043d\u0438\u0430",
        "name:ur": "\u0633\u0627\u0645 \u0646\u0648\u0627 \u0636\u0644\u0639",
        "name:vi": "Xam Neua",
        "name:zh": "\u6851\u6012",
        "type": "boundary",
        "wikidata": "Q729744",
        "wikipedia": "en:Xam Neua District",
        "parent_id": "5831657"
      }
    },
    {
      "type": "rel",
      "id": 5831803,
      "tags": {
        "ADMIN_DIS_": "73",
        "DISTNEW_": "38",
        "DISTNEW_ID": "72",
        "DNAME": "Xam-Tai",
        "PNAME": "P.HOUAPHAN",
        "admin_level": "6",
        "alt_name": "Xam-Tai;Samtay;Xamtay;Xamtay District;\u0ec0\u0ea1\u0eb7\u0ead\u0e87\u0e8a\u0eb3\u0ec3\u0e95\u0ec9",
        "boundary": "administrative",
        "name": "\u0e8a\u0eb3\u0ec3\u0e95\u0ec9",
        "name:en": "Samtay District",
        "name:it": "Distretto di Samtay",
        "name:lo": "\u0e8a\u0eb3\u0ec3\u0e95\u0ec9",
        "name:th": "\u0e40\u0e21\u0e37\u0e2d\u0e07\u0e0a\u0e33\u0e43\u0e15\u0e49",
        "name:uk": "\u0421\u0430\u043c\u0442\u0430\u0439",
        "name:vi": "Xamtay",
        "type": "boundary",
        "wikidata": "Q7410650",
        "wikipedia": "en:Samtay District",
        "parent_id": "5831657"
      }
    },
    {
      "type": "rel",
      "id": 5831809,
      "tags": {
        "ADMIN_DIS_": "114",
        "DISTNEW_": "18",
        "DISTNEW_ID": "113",
        "DNAME": "Xiangkho",
        "PNAME": "P.HOUAPHAN",
        "admin_level": "6",
        "alt_name": "Xiangkho;Xiengkhor;Xiengkhor District",
        "boundary": "administrative",
        "name": "\u0e8a\u0ebd\u0e87\u0e84\u0ecd\u0ec9",
        "name:en": "Xiengkho District",
        "name:it": "Distretto di Xiengkho",
        "name:lo": "\u0ec0\u0ea1\u0eb7\u0ead\u0e87\u0e8a\u0ebd\u0e87\u0e84",
        "name:uk": "\u0421'\u0454\u043d\u0433\u043a\u0445\u043e\u0440",
        "name:vi": "Xiengkhor",
        "type": "boundary",
        "wikidata": "Q8044395",
        "wikipedia": "en:Xiengkho District",
        "parent_id": "5831657"
      }
    },
    {
      "type": "rel",
      "id": 6968079,
      "tags": {
        "admin_level": "6",
        "alt_name": "Son",
        "boundary": "administrative",
        "name": "\u0e8a\u0ec8\u0ead\u0e99",
        "name:en": "Xon District",
        "name:lo": "\u0ec0\u0ea1\u0eb7\u0ead\u0e87\u0e8a\u0ec8\u0ead\u0e99",
        "type": "boundary",
        "parent_id": "5831657"
      }
    },
    {
      "type": "rel",
      "id": 6968971,
      "tags": {
        "admin_level": "6",
        "alt_name": "Quan;\u0ec0\u0ea1\u0eb7\u0ead\u0e87\u0e81\u0ead\u0eb1\u0e99",
        "boundary": "administrative",
        "name": "\u0ec0\u0ea1\u0eb7\u0ead\u0e87\u0e81\u0ead\u0eb1\u0e99",
        "name:en": "Kone District",
        "name:lo": "\u0ec0\u0ea1\u0eb7\u0ead\u0e87\u0e81\u0ead\u0eb1\u0e99",
        "type": "boundary",
        "parent_id": "5831657"
      }
    },
    {
      "type": "rel",
      "id": 6968984,
      "tags": {
        "admin_level": "6",
        "alt_name": "Hiam;Heim;Hiem;\u0ec0\u0ea1\u0eb7\u0ead\u0e87\u0eae\u0ec9\u0ebd\u0ea1",
        "boundary": "administrative",
        "name": "\u0ec0\u0ea1\u0eb7\u0ead\u0e87\u0eae\u0ec9\u0ebd\u0ea1",
        "name:en": "Hiam District",
        "name:lo": "\u0ec0\u0ea1\u0eb7\u0ead\u0e87\u0eae\u0ec9\u0ebd\u0ea1",
        "type": "boundary",
        "parent_id": "5831657"
      }
    },
    {
      "type": "rel",
      "id": 5831684,
      "tags": {
        "ADMIN_DIS_": "20",
        "DISTNEW_": "40",
        "DISTNEW_ID": "19",
        "DNAME": "Chomphet",
        "PNAME": "P.LOUANGPHRABANG",
        "admin_level": "6",
        "alt_name": "Chomphet",
        "boundary": "administrative",
        "name": "\u0ec0\u0ea1\u0eb7\u0ead\u0e87\u0e88\u0ead\u0ea1\u0ec0\u0e9e\u0eb1\u0e94",
        "name:en": "Chomphet District",
        "name:it": "Distretto di Chomphet",
        "name:lo": "\u0ec0\u0ea1\u0eb7\u0ead\u0e87\u0e88\u0ead\u0ea1\u0ec0\u0e9e\u0eb1\u0e94",
        "name:uk": "\u0427\u043e\u043c\u043f\u0445\u0435\u0442",
        "name:vi": "Chomphet",
        "type": "boundary",
        "wikidata": "Q5104449",
        "wikipedia": "en:Chomphet District",
        "parent_id": "5831660"
      }
    },
    {
      "type": "rel",
      "id": 5831718,
      "tags": {
        "ADMIN_DIS_": "19",
        "DISTNEW_": "43",
        "DISTNEW_ID": "18",
        "DNAME": "Louangphrabang",
        "PNAME": "P.LOUANGPHRABANG",
        "admin_level": "6",
        "alt_name": "Louangphrabang",
        "boundary": "administrative",
        "name": "\u0ec0\u0ea1\u0eb7\u0ead\u0e87\u0eab\u0ebc\u0ea7\u0e87\u0e9e\u0eb0\u0e9a\u0eb2\u0e87",
        "name:en": "Luang Prabang District",
        "name:it": "Distretto di Luang Prabang",
        "name:ko": "\ub8e8\uc559\ud504\ub77c\ubc29",
        "name:lo": "\u0ec0\u0ea1\u0eb7\u0ead\u0e87\u0eab\u0ebc\u0ea7\u0e87\u0e9e\u0eb0\u0e9a\u0eb2\u0e87",
        "name:ur": "\u0644\u0648\u0627\u0646\u06af \u067e\u0631\u0627\u0628\u0627\u0646\u06af \u0636\u0644\u0639",
        "type": "boundary",
        "wikidata": "Q6695010",
        "wikipedia": "en:Luang Prabang District",
        "parent_id": "5831660"
      }
    },
    {
      "type": "rel",
      "id": 5831727,
      "tags": {
        "ADMIN_DIS_": "15",
        "DISTNEW_": "19",
        "DISTNEW_ID": "14",
        "DNAME": "Nambak",
        "PNAME": "P.LOUANGPHRABANG",
        "admin_level": "6",
        "alt_name": "Nambak",
        "boundary": "administrative",
        "name": "\u0ec0\u0ea1\u0eb7\u0ead\u0e87\u0e99\u0ec9\u0eb3\u0e9a\u0eb2\u0e81",
        "name:en": "Nam Bak District",
        "name:it": "Distretto di Nam Bak",
        "name:lo": "\u0ec0\u0ea1\u0eb7\u0ead\u0e87\u0e99\u0ec9\u0eb3\u0e9a\u0eb2\u0e81",
        "name:uk": "\u041d\u0430\u043c\u0431\u0430\u043a",
        "name:vi": "Nambak",
        "type": "boundary",
        "wikidata": "Q6961058",
        "wikipedia": "en:Nam Bak District",
        "parent_id": "5831660"
      }
    },
    {
      "type": "rel",
      "id": 5831729,
      "tags": {
        "ADMIN_DIS_": "117",
        "DISTNEW_": "55",
        "DISTNEW_ID": "116",
        "DNAME": "Nan",
        "PNAME": "P.LOUANGPHRABANG",
        "admin_level": "6",
        "alt_name": "\u0e99\u0eb2\u0e99;Nan;Nane",
        "boundary": "administrative",
        "name": "\u0ec0\u0ea1\u0eb7\u0ead\u0e87\u0e99\u0eb2\u0e99",
        "name:en": "Nane District",
        "name:it": "Distretto di Nane",
        "name:lo": "\u0ec0\u0ea1\u0eb7\u0ead\u0e87\u0e99\u0eb2\u0e99",
        "name:vi": "Nane",
        "type": "boundary",
        "wikidata": "Q6963411",
        "wikipedia": "en:Nane District",
        "parent_id": "5831660"
      }
    },
    {
      "type": "rel",
      "id": 5831733,
      "tags": {
        "ADMIN_DIS_": "16",
        "DISTNEW_": "14",
        "DISTNEW_ID": "15",
        "DNAME": "Ngoy",
        "PNAME": "P.LOUANGPHRABANG",
        "admin_level": "6",
        "alt_name": "Ngoy",
        "boundary": "administrative",
        "name": "\u0ec0\u0ea1\u0eb7\u0ead\u0e87\u0e87\u0ead\u0e8d",
        "name:en": "Ngoy District",
        "name:it": "Distretto di Ngoy",
        "name:lo": "\u0ec0\u0ea1\u0eb7\u0ead\u0e87\u0e87\u0ead\u0e8d",
        "name:uk": "\u041d\u0433\u043e\u0439",
        "name:vi": "Ngoy",
        "type": "boundary",
        "wikidata": "Q7022623",
        "wikipedia": "en:Ngoy District",
        "parent_id": "5831660"
      }
    },
    {
      "type": "rel",
      "id": 5831739,
      "tags": {
        "ADMIN_DIS_": "17",
        "DISTNEW_": "36",
        "DISTNEW_ID": "16",
        "DNAME": "Pak-Ou",
        "PNAME": "P.LOUANGPHRABANG",
        "admin_level": "6",
        "alt_name": "Pak-Ou",
        "boundary": "administrative",
        "name": "\u0ec0\u0ea1\u0eb7\u0ead\u0e87\u0e9b\u0eb2\u0e81\u0ead",
        "name:en": "Pak Ou District",
        "name:it": "Distretto di Pak Ou",
        "name:lo": "\u0ec0\u0ea1\u0eb7\u0ead\u0e87\u0e9b\u0eb2\u0e81\u0ead\u0eb9",
        "name:uk": "\u041f\u0430\u0440\u043a\u0443",
        "name:vi": "Pak Ou",
        "type": "boundary",
        "wikidata": "Q7125374",
        "wikipedia": "en:Pak Ou District",
        "parent_id": "5831660"
      }
    },
    {
      "type": "rel",
      "id": 5831746,
      "tags": {
        "ADMIN_DIS_": "18",
        "DISTNEW_": "32",
        "DISTNEW_ID": "17",
        "DNAME": "Pakxeng",
        "PNAME": "P.LOUANGPHRABANG",
        "admin_level": "6",
        "alt_name": "Pakxeng",
        "boundary": "administrative",
        "name": "\u0ec0\u0ea1\u0eb7\u0ead\u0e87\u0e9b\u0eb2\u0e81\u0ec1\u0e8a\u0e87",
        "name:en": "Pak Seng District",
        "name:it": "Distretto di Pak Seng",
        "name:lo": "\u0ec0\u0ea1\u0eb7\u0ead\u0e87\u0e9b\u0eb2\u0e81\u0ec1\u0e8a\u0e87",
        "name:uk": "\u041f\u0430\u043a\u0441\u0435\u043d\u0433",
        "name:vi": "Pak Xeng",
        "type": "boundary",
        "wikidata": "Q7125376",
        "wikipedia": "en:Pak Seng District",
        "parent_id": "5831660"
      }
    },
    {
      "type": "rel",
      "id": 5831758,
      "tags": {
        "ADMIN_DIS_": "116",
        "DISTNEW_": "41",
        "DISTNEW_ID": "115",
        "DNAME": "Phonxai",
        "PNAME": "P.LOUANGPHRABANG",
        "admin_level": "6",
        "alt_name": "Phonxai",
        "boundary": "administrative",
        "name": "\u0ec0\u0ea1\u0eb7\u0ead\u0e87\u0ec2\u0e9e\u0e99\u0ec4\u0e8a",
        "name:en": "Phonxay District",
        "name:it": "Distretto di Phonxay",
        "name:lo": "\u0ec0\u0ea1\u0eb7\u0ead\u0e87\u0ec2\u0e9e\u0e99\u0ec4\u0e8a",
        "name:uk": "\u041f\u0445\u043e\u043d\u0441\u0430\u0439",
        "name:vi": "Phonxay",
        "type": "boundary",
        "wikidata": "Q7187323",
        "wikipedia": "en:Phonxay District",
        "parent_id": "5831660"
      }
    },
    {
      "type": "rel",
      "id": 5831759,
      "tags": {
        "ADMIN_DIS_": "96",
        "DISTNEW_": "51",
        "DISTNEW_ID": "95",
        "DNAME": "Phoukhoun",
        "PNAME": "P.LOUANGPHRABANG",
        "admin_level": "6",
        "alt_name": "Phoukhoun",
        "boundary": "administrative",
        "name": "\u0ec0\u0ea1\u0eb7\u0ead\u0e87\u0e9e\u0eb9\u0e84\u0eb9\u0e99",
        "name:en": "Phoukhoune District",
        "name:it": "Distretto di Phoukhoune",
        "name:lo": "\u0ec0\u0ea1\u0eb7\u0ead\u0e87\u0e9e\u0eb9\u0e84\u0eb9\u0e99",
        "name:uk": "\u041f\u0445\u0443\u043a\u0445\u0443\u043d",
        "name:vi": "Phoukhoune",
        "type": "boundary",
        "wikidata": "Q7187957",
        "wikipedia": "en:Phoukhoune District",
        "parent_id": "5831660"
      }
    },
    {
      "type": "rel",
      "id": 5831788,
      "tags": {
        "ADMIN_DIS_": "74",
        "DISTNEW_": "17",
        "DISTNEW_ID": "73",
        "DNAME": "Viangkham",
        "PNAME": "P.LOUANGPHRABANG",
        "admin_level": "6",
        "alt_name": "Viangkham",
        "boundary": "administrative",
        "name": "\u0ec0\u0ea1\u0eb7\u0ead\u0e87\u0ea7\u0ebd\u0e87\u0e84\u0eb3",
        "name:en": "Viengkham District",
        "name:it": "Distretto di Viengkham",
        "name:lo": "\u0ea7\u0ebd\u0e87\u0e84\u0eb3",
        "name:th": "\u0e40\u0e27\u0e35\u0e22\u0e07\u0e04\u0e33",
        "name:uk": "\u0412'\u0454\u043d\u0433\u043a\u0445\u0430\u043c",
        "name:vi": "Viengkham",
        "type": "boundary",
        "wikidata": "Q6901511",
        "wikipedia": "en:Viengkham District, Luang Prabang",
        "parent_id": "5831660"
      }
    },
    {
      "type": "rel",
      "id": 5831807,
      "tags": {
        "ADMIN_DIS_": "21",
        "DISTNEW_": "50",
        "DISTNEW_ID": "20",
        "DNAME": "Xiang-Ngeun",
        "PNAME": "P.LOUANGPHRABANG",
        "admin_level": "6",
        "alt_name": "Xiang-Ngeun",
        "boundary": "administrative",
        "name": "\u0ec0\u0ea1\u0eb7\u0ead\u0e87\u0e8a\u0ebd\u0e87\u0ec0\u0e87\u0eb4\u0e99",
        "name:en": "Xiengngeun District",
        "name:it": "Distretto di Xiengngeun",
        "name:lo": "\u0ec0\u0ea1\u0eb7\u0ead\u0e87\u0e8a\u0ebd\u0e87\u0ec0\u0e87\u0eb4\u0e99",
        "name:uk": "\u0421'\u0454\u043d\u0433\u043d\u0433\u0443\u043d",
        "name:vi": "Xieng Ngeun",
        "name:zh": "\u76f8\u5ae9",
        "type": "boundary",
        "wikidata": "Q8044396",
        "wikipedia": "en:Xiengngeun District",
        "parent_id": "5831660"
      }
    },
    {
      "type": "rel",
      "id": 6986764,
      "tags": {
        "admin_level": "6",
        "alt_name": "Phonthong",
        "boundary": "administrative",
        "name": "\u0ec0\u0ea1\u0eb7\u0ead\u0e87\u0ec2\u0e9e\u0e99\u0e97\u0ead\u0e87",
        "name:en": "Phonthong District",
        "name:it": "Distretto di Phonthong",
        "name:lo": "\u0ec0\u0ea1\u0eb7\u0ead\u0e87\u0ec2\u0e9e\u0e99\u0e97\u0ead\u0e87",
        "name:th": "\u0e42\u0e1e\u0e19\u0e17\u0e2d\u0e07",
        "name:uk": "\u041f\u0445\u043e\u043d\u0442\u0445\u043e\u043d\u0433",
        "name:vi": "Phonthong, Champasack",
        "type": "boundary",
        "wikidata": "Q31213884",
        "wikipedia": "en:Phonthong District",
        "parent_id": "5831660"
      }
    },
    {
      "type": "rel",
      "id": 5831683,
      "tags": {
        "ADMIN_DIS_": "31",
        "DISTNEW_": "92",
        "DISTNEW_ID": "30",
        "DNAME": "Chanthabouri",
        "PNAME": "VIENTIANE MUN.",
        "admin_level": "6",
        "alt_name:en": "Chanthabuly",
        "alt_name:fr": "Chanthabouri;Chanthaboury",
        "alt_name:lo": "\u0ec0\u0ea1\u0eb7\u0ead\u0e87\u0e88\u0eb1\u0e99\u0e97\u0eb0\u0e9a\u0eb9\u0ea5\u0eb5;\u0e88\u0eb1\u0e99\u0e97\u0eb0\u0e9a\u0eb9\u0ea5\u0eb5",
        "boundary": "administrative",
        "name": "\u0ec0\u0ea1\u0eb7\u0ead\u0e87\u0e88\u0eb1\u0e99\u0e97\u0eb0\u0e9a\u0eb9\u0ea5\u0eb5",
        "name:en": "Chanthabuly District",
        "name:fr": "Chanthabouli",
        "name:lo": "\u0ec0\u0ea1\u0eb7\u0ead\u0e87\u0e88\u0eb1\u0e99\u0e97\u0eb0\u0e9a\u0eb9\u0ea5\u0eb5",
        "name:nl": "Canthab\u016bl\u012b",
        "name:th": "\u0e40\u0e21\u0e37\u0e2d\u0e07\u0e08\u0e31\u0e19\u0e17\u0e1a\u0e38\u0e23\u0e35",
        "type": "boundary",
        "wikidata": "Q15095962",
        "wikipedia": "lo:\u0ec0\u0ea1\u0eb7\u0ead\u0e87\u0e88\u0eb1\u0e99\u0e97\u0eb0\u0e9a\u0eb9\u0ea5\u0eb5",
        "parent_id": "5831666"
      }
    },
    {
      "type": "rel",
      "id": 5831690,
      "tags": {
        "ADMIN_DIS_": "29",
        "DISTNEW_": "95",
        "DISTNEW_ID": "28",
        "DNAME": "Hatxayfong",
        "PNAME": "VIENTIANE MUN.",
        "admin_level": "6",
        "alt_name": "Hatxayfong;Hadxayfong",
        "boundary": "administrative",
        "name": "\u0eab\u0eb2\u0e94\u0e8a\u0eb2\u0e8d\u0e9f\u0ead\u0e87",
        "name:en": "Hadxayfong District",
        "name:fr": "Hatxayfong",
        "name:lo": "\u0eab\u0eb2\u0e94\u0e8a\u0eb2\u0e8d\u0e9f\u0ead\u0e87",
        "type": "boundary",
        "wikidata": "Q56321925",
        "wikipedia": "lo:\u0eab\u0eb2\u0e94\u0e8a\u0eb2\u0e8d\u0e9f\u0ead\u0e87",
        "parent_id": "5831666"
      }
    },
    {
      "type": "rel",
      "id": 5831730,
      "tags": {
        "ADMIN_DIS_": "121",
        "DISTNEW_": "86",
        "DISTNEW_ID": "120",
        "DNAME": "Naxaythong",
        "PNAME": "VIENTIANE MUN.",
        "admin_level": "6",
        "alt_name": "Naxaythong;Nanaythong;Naxaithong",
        "boundary": "administrative",
        "name": "\u0ec0\u0ea1\u0eb7\u0ead\u0e87\u0e99\u0eb2\u0e8a\u0eb2\u0e8d\u0e97\u0ead\u0e87",
        "name:en": "Naxaithong District",
        "name:fr": "Naxaythong",
        "name:lo": "\u0ec0\u0ea1\u0eb7\u0ead\u0e87\u0e99\u0eb2\u0e8a\u0eb2\u0e8d\u0e97\u0ead\u0e87",
        "type": "boundary",
        "wikidata": "Q16602011",
        "wikipedia": "lo:\u0ec0\u0ea1\u0eb7\u0ead\u0e87\u0e99\u0eb2\u0e8a\u0eb2\u0e8d\u0e97\u0ead\u0e87",
        "parent_id": "5831666"
      }
    },
    {
      "type": "rel",
      "id": 5831738,
      "tags": {
        "ADMIN_DIS_": "123",
        "DISTNEW_": "88",
        "DISTNEW_ID": "122",
        "DNAME": "Pak-Ngum",
        "PNAME": "VIENTIANE MUN.",
        "admin_level": "6",
        "alt_name": "Pak-Ngum;Mayparkngum;Parkngum",
        "boundary": "administrative",
        "name": "\u0ec0\u0ea1\u0eb7\u0ead\u0e87\u0e9b\u0eb2\u0e81\u0e87\u0eb7\u0ec8\u0ea1",
        "name:en": "Parkngum District",
        "name:fr": "Pakngum",
        "name:nl": "P\u0101kng\u01b0\u0304m",
        "type": "boundary",
        "wikidata": "Q16602012",
        "wikipedia": "lo:\u0ec0\u0ea1\u0eb7\u0ead\u0e87\u0e9b\u0eb2\u0e81\u0e87\u0eb7\u0ec8\u0ea1",
        "parent_id": "5831666"
      }
    },
    {
      "type": "rel",
      "id": 5831766,
      "tags": {
        "ADMIN_DIS_": "89",
        "DISTNEW_": "84",
        "DISTNEW_ID": "88",
        "DNAME": "Sangthong",
        "PNAME": "VIENTIANE MUN.",
        "admin_level": "6",
        "alt_name": "Sangthong",
        "boundary": "administrative",
        "name": "\u0ec0\u0ea1\u0eb7\u0ead\u0e87\u0eaa\u0eb1\u0e87\u0e97\u0ead\u0e87",
        "name:en": "Sangthong District",
        "name:fr": "Sangthong",
        "name:lo": "\u0ec0\u0ea1\u0eb7\u0ead\u0e87\u0eaa\u0eb1\u0e87\u0e97\u0ead\u0e87",
        "type": "boundary",
        "wikidata": "Q16602014",
        "wikipedia": "lo:\u0ec0\u0ea1\u0eb7\u0ead\u0e87\u0eaa\u0eb1\u0e87\u0e97\u0ead\u0e87",
        "parent_id": "5831666"
      }
    },
    {
      "type": "rel",
      "id": 5831770,
      "tags": {
        "ADMIN_DIS_": "33",
        "DISTNEW_": "93",
        "DISTNEW_ID": "32",
        "DNAME": "Sikhottabong",
        "PNAME": "VIENTIANE MUN.",
        "admin_level": "6",
        "alt_name": "Sikhottabong;\u0ec0\u0ea1\u0eb7\u0ead\u0e87\u0eaa\u0eb5\u0ec2\u0e84\u0e94\u0e95\u0eb0\u0e9a\u0ead\u0e87",
        "boundary": "administrative",
        "name": "\u0eaa\u0eb5\u0ec2\u0e84\u0e94\u0e95\u0eb0\u0e9a\u0ead\u0e87",
        "name:en": "Sikhottabong District",
        "name:fr": "Sikh\u00f4ttabong",
        "name:lo": "\u0eaa\u0eb5\u0ec2\u0e84\u0e94\u0e95\u0eb0\u0e9a\u0ead\u0e87",
        "name:nl": "S\u012bkhottab\u01edng",
        "name:th": "\u0e40\u0e21\u0e37\u0e2d\u0e07\u0e28\u0e23\u0e35\u0e42\u0e04\u0e15\u0e23\u0e1a\u0e2d\u0e07",
        "type": "boundary",
        "wikidata": "Q15096428",
        "wikipedia": "lo:\u0ec0\u0ea1\u0eb7\u0ead\u0e87\u0eaa\u0eb5\u0ec2\u0e84\u0e94\u0e95\u0eb0\u0e9a\u0ead\u0e87",
        "parent_id": "5831666"
      }
    },
    {
      "type": "rel",
      "id": 5831772,
      "tags": {
        "ADMIN_DIS_": "32",
        "DISTNEW_": "96",
        "DISTNEW_ID": "31",
        "DNAME": "Sisattanak",
        "PNAME": "VIENTIANE MUN.",
        "admin_level": "6",
        "alt_name": "Sisattanak;\u0ec0\u0ea1\u0eb7\u0ead\u0e87\u0eaa\u0eb5\u0eaa\u0eb1\u0e94\u0e95\u0eb0\u0e99\u0eb2\u0e81",
        "alt_name:pi": "Siri Sattan\u0101ga",
        "boundary": "administrative",
        "name": "Sisattan\u0101k",
        "name:en": "Sisattanak District",
        "name:fr": "Sisattanak",
        "name:lo": "\u0eaa\u0eb5\u0eaa\u0eb1\u0e94\u0e95\u0eb0\u0e99\u0eb2\u0e81",
        "name:lo-Latn": "Sisattan\u0101k",
        "name:nl": "Sisattan\u0101k",
        "name:pi": "\ud804\udc32\ud804\udc3a\ud804\udc2d\ud804\udc3a \ud804\udc32\ud804\udc22\ud804\udc46\ud804\udc22\ud804\udc26\ud804\udc38\ud804\udc15",
        "type": "boundary",
        "wikidata": "Q16602015",
        "wikipedia": "lo:\u0ec0\u0ea1\u0eb7\u0ead\u0e87\u0eaa\u0eb5\u0eaa\u0eb1\u0e94\u0e95\u0eb0\u0e99\u0eb2\u0e81",
        "parent_id": "5831666"
      }
    },
    {
      "type": "rel",
      "id": 5831800,
      "tags": {
        "ADMIN_DIS_": "30",
        "DISTNEW_": "94",
        "DISTNEW_ID": "29",
        "DNAME": "Xaisettha",
        "PNAME": "VIENTIANE MUN.",
        "admin_level": "6",
        "alt_name": "Saisettha;Xaisettha;Xaysetha;\u0ec0\u0ea1\u0eb7\u0ead\u0e87\u0ec4\u0e8a\u0ec0\u0eaa\u0e94\u0e96\u0eb2",
        "alt_name:pi": "Jayaje\u1e6d\u1e6dha",
        "boundary": "administrative",
        "name": "\u0ec4\u0e8a\u0ec0\u0eaa\u0e94\u0e96\u0eb2",
        "name:en": "Xaysetha District",
        "name:fr": "Xais\u00e9ttha",
        "name:lo": "\u0ec4\u0e8a\u0ec0\u0eaa\u0e94\u0e96\u0eb2",
        "name:nl": "Sais\u0113tth\u0101",
        "name:pi": "\ud804\udc1a\ud804\udc2c\ud804\udc1a\ud804\udc42\ud804\udc1d\ud804\udc46\ud804\udc1e",
        "type": "boundary",
        "wikidata": "Q16602019",
        "wikipedia": "lo:\u0ec0\u0ea1\u0eb7\u0ead\u0e87\u0ec4\u0e8a\u0ec0\u0eaa\u0e94\u0e96\u0eb2",
        "parent_id": "5831666"
      }
    },
    {
      "type": "rel",
      "id": 5831801,
      "tags": {
        "ADMIN_DIS_": "91",
        "DISTNEW_": "87",
        "DISTNEW_ID": "90",
        "DNAME": "Xaithani",
        "PNAME": "VIENTIANE MUN.",
        "admin_level": "6",
        "alt_name": "Xaithani;Xaythany",
        "boundary": "administrative",
        "name": "\u0ec0\u0ea1\u0eb7\u0ead\u0e87\u0ec4\u0e8a\u0e97\u0eb2\u0e99\u0eb5",
        "name:en": "Xaythany District",
        "name:fr": "Xaithani",
        "name:lo": "\u0ec0\u0ea1\u0eb7\u0ead\u0e87\u0ec4\u0e8a\u0e97\u0eb2\u0e99\u0eb5",
        "type": "boundary",
        "wikidata": "Q16602018",
        "wikipedia": "lo:\u0ec0\u0ea1\u0eb7\u0ead\u0e87\u0ec4\u0e8a\u0e97\u0eb2\u0e99\u0eb5",
        "parent_id": "5831666"
      }
    },
    {
      "type": "rel",
      "id": 5831687,
      "tags": {
        "ADMIN_DIS_": "88",
        "DISTNEW_": "69",
        "DISTNEW_ID": "87",
        "DNAME": "Fuang",
        "PNAME": "P.VIENTIANE",
        "admin_level": "6",
        "alt_name": "Fuang;Feuang",
        "boundary": "administrative",
        "name": "\u0ec0\u0e9f\u0eb7\u0ead\u0e87",
        "name:de": "Feuang",
        "name:en": "Feuang District",
        "name:lo": "\u0ec0\u0e9f\u0eb7\u0ead\u0e87",
        "type": "boundary",
        "wikidata": "Q10760099",
        "wikipedia": "vi:Feuang",
        "parent_id": "5831667"
      }
    },
    {
      "type": "rel",
      "id": 5831692,
      "tags": {
        "ADMIN_DIS_": "119",
        "DISTNEW_": "70",
        "DISTNEW_ID": "118",
        "DNAME": "Hinheup",
        "PNAME": "P.VIENTIANE",
        "admin_level": "6",
        "alt_name": "Hinheup;Hinherb;\u0ec0\u0ea1\u0eb7\u0ead\u0e87\u0eab\u0eb5\u0e99\u0ec0\u0eab\u0eb5\u0e9a",
        "boundary": "administrative",
        "name": "\u0eab\u0eb5\u0e99\u0ec0\u0eab\u0eb5\u0e9a",
        "name:en": "Hinhurp District",
        "name:lo": "\u0eab\u0eb5\u0e99\u0ec0\u0eab\u0eb5\u0e9a",
        "name:vi": "Hinhurp",
        "type": "boundary",
        "wikidata": "Q10767176",
        "wikipedia": "vi:Hinhurp",
        "parent_id": "5831667"
      }
    },
    {
      "type": "rel",
      "id": 5831699,
      "tags": {
        "ADMIN_DIS_": "98",
        "DISTNEW_": "58",
        "DISTNEW_ID": "97",
        "DNAME": "Kasi",
        "PNAME": "P.VIENTIANE",
        "admin_level": "6",
        "alt_name": "Kasi;Kasy",
        "boundary": "administrative",
        "name": "\u0e81\u0eb2\u0eaa\u0eb5",
        "name:en": "Kasy District",
        "name:lo": "\u0e81\u0eb2\u0eaa\u0eb5",
        "name:vi": "Kasy",
        "type": "boundary",
        "wikidata": "Q10777861",
        "wikipedia": "vi:Kasy (huy\u1ec7n)",
        "parent_id": "5831667"
      }
    },
    {
      "type": "rel",
      "id": 5831701,
      "tags": {
        "ADMIN_DIS_": "95",
        "DISTNEW_": "76",
        "DISTNEW_ID": "94",
        "DNAME": "Keo-Oudom",
        "PNAME": "P.VIENTIANE",
        "admin_level": "6",
        "alt_name": "Keo-Oudom",
        "boundary": "administrative",
        "name": "\u0ec1\u0e81\u0ec9\u0ea7\u0ead\u0eb8\u0e94\u0ebb\u0ea1",
        "name:en": "Keo Oudom District",
        "name:lo": "\u0ec1\u0e81\u0ec9\u0ea7\u0ead\u0eb8\u0e94\u0ebb\u0ea1",
        "type": "boundary",
        "wikidata": "Q10778889",
        "parent_id": "5831667"
      }
    },
    {
      "type": "rel",
      "id": 5831721,
      "tags": {
        "ADMIN_DIS_": "130",
        "DISTNEW_": "66",
        "DISTNEW_ID": "129",
        "DNAME": "Met",
        "PNAME": "P.VIENTIANE",
        "admin_level": "6",
        "alt_name": "Met",
        "boundary": "administrative",
        "name": "\u0ec1\u0ea1\u0e94",
        "name:de": "Mad",
        "name:en": "Met District",
        "name:lo": "\u0ec1\u0ea1\u0e94",
        "type": "boundary",
        "wikidata": "Q10789427",
        "parent_id": "5831667"
      }
    },
    {
      "type": "rel",
      "id": 5831756,
      "tags": {
        "ADMIN_DIS_": "90",
        "DISTNEW_": "77",
        "DISTNEW_ID": "89",
        "DNAME": "Phonhong",
        "PNAME": "P.VIENTIANE",
        "admin_level": "6",
        "alt_name": "Phonhong",
        "boundary": "administrative",
        "name": "\u0ec2\u0e9e\u0e99\u0ec2\u0eae\u0e87",
        "name:en": "Phonhong District",
        "type": "boundary",
        "wikidata": "Q1877494",
        "wikipedia": "lo:\u0ec2\u0e9e\u0e99\u0ec2\u0eae\u0e87",
        "parent_id": "5831667"
      }
    },
    {
      "type": "rel",
      "id": 5831783,
      "tags": {
        "ADMIN_DIS_": "100",
        "DISTNEW_": "82",
        "DISTNEW_ID": "99",
        "DNAME": "Thourakhom",
        "PNAME": "P.VIENTIANE",
        "admin_level": "6",
        "alt_name": "Thourakhom;Thoulakhom;\u0ec0\u0ea1\u0eb7\u0ead\u0e87\u0e97\u0eb8\u0ea5\u0eb0\u0e84\u0ebb\u0ea1",
        "boundary": "administrative",
        "name": "\u0e97\u0eb8\u0ea5\u0eb0\u0e84\u0ebb\u0ea1",
        "name:en": "Thoulakhom District",
        "name:lo": "\u0e97\u0eb8\u0ea5\u0eb0\u0e84\u0ebb\u0ea1",
        "name:vi": "Thoulakhom",
        "type": "boundary",
        "wikidata": "Q10825325",
        "wikipedia": "vi:Thoulakhom",
        "parent_id": "5831667"
      }
    },
    {
      "type": "rel",
      "id": 5831786,
      "tags": {
        "ADMIN_DIS_": "94",
        "DISTNEW_": "63",
        "DISTNEW_ID": "93",
        "DNAME": "Vangvieng",
        "PNAME": "P.VIENTIANE",
        "admin_level": "6",
        "alt_name": "Vangvieng;Vangviang",
        "boundary": "administrative",
        "name": "\u0ea7\u0eb1\u0e87\u0ea7\u0ebd\u0e87",
        "name:en": "Vangvieng District",
        "name:he": "\u05d5\u05d0\u05e0\u05d2 \u05d5\u05d9\u05d9\u05e0\u05d2",
        "name:lo": "\u0ea7\u0eb1\u0e87\u0ea7\u0ebd\u0e87",
        "type": "boundary",
        "parent_id": "5831667"
      }
    },
    {
      "type": "rel",
      "id": 5831792,
      "tags": {
        "ADMIN_DIS_": "122",
        "DISTNEW_": "83",
        "DISTNEW_ID": "121",
        "DNAME": "Viengkham",
        "PNAME": "P.VIENTIANE",
        "admin_level": "6",
        "alt_name": "Viengkham;Viangkham",
        "boundary": "administrative",
        "name": "\u0ea7\u0ebd\u0e87\u0e84\u0eb3",
        "name:en": "Viengkham District",
        "name:lo": "\u0ea7\u0ebd\u0e87\u0e84\u0eb3",
        "type": "boundary",
        "parent_id": "5831667"
      }
    },
    {
      "type": "rel",
      "id": 5831811,
      "tags": {
        "ADMIN_DIS_": "87",
        "DISTNEW_": "85",
        "DISTNEW_ID": "86",
        "DNAME": "xanakham",
        "PNAME": "P.VIENTIANE",
        "admin_level": "6",
        "alt_name": "Xanakham;Xanakharm;Xanakharm District",
        "boundary": "administrative",
        "name": "\u0e8a\u0eb0\u0e99\u0eb0\u0e84\u0eb2\u0ea1",
        "name:en": "Xanakham District",
        "name:lo": "\u0e8a\u0eb0\u0e99\u0eb0\u0e84\u0eb2\u0ea1",
        "type": "boundary",
        "wikidata": "Q10834656",
        "wikipedia": "vi:Xanakharm",
        "parent_id": "5831667"
      }
    },
    {
      "type": "rel",
      "id": 6972971,
      "tags": {
        "admin_level": "6",
        "alt_name": "Mun;Meun",
        "boundary": "administrative",
        "name": "\u0edd\u0eb7\u0ec8\u0e99",
        "name:en": "Meun District",
        "name:lo": "\u0edd\u0eb7\u0ec8\u0e99",
        "type": "boundary",
        "parent_id": "5831667"
      }
    },
    {
      "type": "rel",
      "id": 5831671,
      "tags": {
        "DNAME": "Anouvong",
        "PNAME": "Xaisomboun",
        "admin_level": "6",
        "alt_name": "Anouvong",
        "boundary": "administrative",
        "name": "\u0ead\u0eb0\u0e99\u0eb8\u0ea7\u0ebb\u0e87",
        "name:en": "Anouvong District",
        "name:ko": "\uc544\ub204\ubd09\uad6c",
        "name:lo": "\u0ead\u0eb0\u0e99\u0eb8\u0ea7\u0ebb\u0e87",
        "source": "http://www.na.gov.la/sess_leg7/doc_sess6_leg7/session6_docs/day5/Presentation13.ppt Official Laos Governement Presentation. Retrieved 13 December 2013.",
        "type": "boundary",
        "wikidata": "Q20311301",
        "wikipedia": "en:Anouvong District",
        "parent_id": "5831668"
      }
    },
    {
      "type": "rel",
      "id": 5831693,
      "tags": {
        "ADMIN_DIS_": "129",
        "DISTNEW_": "68",
        "DISTNEW_ID": "128",
        "DNAME": "Hom",
        "PNAME": "Xaisomboun",
        "admin_level": "6",
        "alt_name": "Hom",
        "boundary": "administrative",
        "name": "\u0eae\u0ebb\u0ec8\u0ea1",
        "name:en": "Hom District",
        "name:lo": "\u0eae\u0ebb\u0ec8\u0ea1",
        "source": "http://www.na.gov.la/sess_leg7/doc_sess6_leg7/session6_docs/day5/Presentation13.ppt Official Laos Governement Presentation. Retrieved 13 December 2013.",
        "type": "boundary",
        "wikidata": "Q27437540",
        "parent_id": "5831668"
      }
    },
    {
      "type": "rel",
      "id": 5831715,
      "tags": {
        "DNAME": "Longchaeng",
        "PNAME": "Xaisomboun",
        "admin_level": "6",
        "alt_name": "Longchaeng",
        "boundary": "administrative",
        "name": "\u0ea5\u0ec9\u0ead\u0e87\u0ec1\u0e88\u0ec9\u0e87",
        "name:en": "Longchaeng District",
        "source": "http://www.na.gov.la/sess_leg7/doc_sess6_leg7/session6_docs/day5/Presentation13.ppt Official Laos Governement Presentation. Retrieved 13 December 2013.",
        "type": "boundary",
        "parent_id": "5831668"
      }
    },
    {
      "type": "rel",
      "id": 5831716,
      "tags": {
        "DNAME": "Longxan",
        "PNAME": "Xaisomboun",
        "admin_level": "6",
        "alt_name": "Longsan;Longxan;Laongxan;\u0ea5\u0ec8\u0ead\u0e87\u0e8a\u0eb2\u0e99",
        "boundary": "administrative",
        "name": "\u0ea5\u0ec9\u0ead\u0e87\u0e8a\u0eb2\u0e99",
        "name:en": "Longxan District",
        "name:lo": "\u0ea5\u0ec8\u0ead\u0e87\u0e8a\u0eb2\u0e99",
        "source": "http://www.na.gov.la/sess_leg7/doc_sess6_leg7/session6_docs/day5/Presentation13.ppt Official Laos Governement Presentation. Retrieved 13 December 2013.",
        "type": "boundary",
        "parent_id": "5831668"
      }
    },
    {
      "type": "rel",
      "id": 5831781,
      "tags": {
        "DNAME": "Thathom",
        "PNAME": "Xaisomboun",
        "admin_level": "6",
        "alt_name": "Thatom;Thathom",
        "boundary": "administrative",
        "name": "\u0ec0\u0ea1\u0eb7\u0ead\u0e87\u0e97\u0ec8\u0eb2\u0ec2\u0e97\u0ea1",
        "name:en": "Thathom District",
        "name:lo": "\u0ec0\u0ea1\u0eb7\u0ead\u0e87\u0e97\u0ec8\u0eb2\u0ec2\u0e97\u0ea1",
        "name:th": "\u0e40\u0e21\u0e37\u0e2d\u0e07\u0e17\u0e48\u0e32\u0e42\u0e17\u0e21",
        "source": "http://www.na.gov.la/sess_leg7/doc_sess6_leg7/session6_docs/day5/Presentation13.ppt Official Laos Governement Presentation. Retrieved 13 December 2013.",
        "type": "boundary",
        "wikidata": "Q10805186",
        "wikipedia": "lo:\u0ec0\u0ea1\u0eb7\u0ead\u0e87\u200b\u0e97\u0ec8\u0eb2\u200b\u0ec2\u0e97\u0ea1",
        "parent_id": "5831668"
      }
    },
    {
      "type": "rel",
      "id": 5831702,
      "tags": {
        "ADMIN_DIS_": "76",
        "DISTNEW_": "42",
        "DISTNEW_ID": "75",
        "DNAME": "Kham",
        "PNAME": "P.XIANGKHOUANG",
        "admin_level": "6",
        "alt_name": "\u0ec0\u0ea1\u0eb7\u0ead\u0e87\u0e84\u0eb3\u0ec0\u0e81\u0eb5\u0e94",
        "boundary": "administrative",
        "name": "\u0ec0\u0ea1\u0eb7\u0ead\u0e87\u0e84\u0eb3",
        "name:en": "Kham District",
        "name:it": "Distretto di Kham",
        "name:lo": "\u0ec0\u0ea1\u0eb7\u0ead\u0e87\u0e84\u0eb3",
        "name:th": "\u0e40\u0e21\u0e37\u0e2d\u0e07\u0e04\u0e33",
        "name:uk": "\u041a\u0445\u0430\u043c",
        "name:vi": "Kham",
        "type": "boundary",
        "wikidata": "Q6399884",
        "wikipedia": "en:Kham District",
        "parent_id": "5831670"
      }
    },
    {
      "type": "rel",
      "id": 5831709,
      "tags": {
        "ADMIN_DIS_": "80",
        "DISTNEW_": "56",
        "DISTNEW_ID": "79",
        "DNAME": "Khoun",
        "PNAME": "P.XIANGKHOUANG",
        "admin_level": "6",
        "alt_name": "Khoun",
        "boundary": "administrative",
        "name": "\u0ec0\u0ea1\u0eb7\u0ead\u0e87\u0e84\u0eb9\u0e99",
        "name:en": "Khoune District",
        "name:it": "Distretto di Khoune",
        "name:ko": "\ucf54\uc6b4\uad6c",
        "name:lo": "\u0ec0\u0ea1\u0eb7\u0ead\u0e87\u0e84\u0eb9\u0e99",
        "name:th": "\u0e40\u0e21\u0e37\u0e2d\u0e07\u0e04\u0e39\u0e13",
        "name:uk": "\u041a\u0445\u0443\u043d",
        "name:vi": "Khoune",
        "name:zh": "\u5b5f\u6606\u53bf",
        "type": "boundary",
        "wikidata": "Q6402644",
        "wikipedia": "en:Khoune District",
        "parent_id": "5831670"
      }
    },
    {
      "type": "rel",
      "id": 5831723,
      "tags": {
        "ADMIN_DIS_": "120",
        "DISTNEW_": "60",
        "DISTNEW_ID": "119",
        "DNAME": "Mok-Mai",
        "PNAME": "P.XIANGKHOUANG",
        "admin_level": "6",
        "alt_name": "Mok-Mai;Morkmay District;Morkmay",
        "boundary": "administrative",
        "name": "\u0ec0\u0ea1\u0eb7\u0ead\u0e87\u0e97\u0ec8\u0eb2\u0ec2\u0e97\u0ea1",
        "name:en": "Mok May District",
        "name:it": "Distretto di Mok May",
        "name:lo": "\u0ec0\u0ea1\u0eb7\u0ead\u0e87\u0e97\u0ec8\u0eb2\u0ec2\u0e97\u0ea1",
        "name:th": "\u0e40\u0e21\u0e37\u0e2d\u0e07\u0e2b\u0e21\u0e2d\u0e01\u0e43\u0e2b\u0e21\u0e48",
        "name:uk": "\u041c\u043e\u043a\u043c\u0430\u0439",
        "name:vi": "Morkmay",
        "type": "boundary",
        "wikidata": "Q6895213",
        "wikipedia": "en:Mok May District",
        "parent_id": "5831670"
      }
    },
    {
      "type": "rel",
      "id": 5831736,
      "tags": {
        "ADMIN_DIS_": "27",
        "DISTNEW_": "48",
        "DISTNEW_ID": "26",
        "DNAME": "Nonghet",
        "PNAME": "P.XIANGKHOUANG",
        "admin_level": "6",
        "alt_name": "Nonghet;Nonghed;Nonghed District;Nong Het",
        "boundary": "administrative",
        "name": "\u0ec0\u0ea1\u0eb7\u0ead\u0e87\u0edc\u0ead\u0e87\u0ec1\u0eae\u0e94",
        "name:en": "Nong Het District",
        "name:it": "Distretto di Nong Het",
        "name:lo": "\u0ec0\u0ea1\u0eb7\u0ead\u0e87\u0edc\u0ead\u0e87\u0ec1\u0eae\u0e94",
        "name:th": "\u0e40\u0e21\u0e37\u0e2d\u0e07\u0e2b\u0e19\u0e2d\u0e07\u0e41\u0e2e\u0e14",
        "name:uk": "\u041d\u043e\u043d\u0433\u0445\u0435\u0442",
        "name:vi": "Nong Het",
        "type": "boundary",
        "wikidata": "Q7049348",
        "wikipedia": "en:Nong Het District",
        "parent_id": "5831670"
      }
    },
    {
      "type": "rel",
      "id": 5831749,
      "tags": {
        "ADMIN_DIS_": "28",
        "DISTNEW_": "52",
        "DISTNEW_ID": "27",
        "DNAME": "Pek",
        "PNAME": "P.XIANGKHOUANG",
        "admin_level": "6",
        "alt_name": "Pek",
        "boundary": "administrative",
        "name": "\u0ec0\u0ea1\u0eb7\u0ead\u0e87\u0ec1\u0e9b\u0e81",
        "name:en": "Pek District",
        "name:it": "Distretto di Pek",
        "name:lo": "\u0ec0\u0ea1\u0eb7\u0ead\u0e87\u0ec1\u0e9b\u0e81",
        "name:th": "\u0e40\u0e21\u0e37\u0e2d\u0e07\u0e41\u0e1b\u0e01",
        "name:uk": "\u041f\u0435\u043a",
        "name:ur": "\u067e\u06cc\u06a9 \u0636\u0644\u0639",
        "type": "boundary",
        "wikidata": "Q7161011",
        "wikipedia": "en:Pek District",
        "parent_id": "5831670"
      }
    },
    {
      "type": "rel",
      "id": 5831752,
      "tags": {
        "ADMIN_DIS_": "82",
        "DISTNEW_": "57",
        "DISTNEW_ID": "81",
        "DNAME": "Phaxai",
        "PNAME": "P.XIANGKHOUANG",
        "admin_level": "6",
        "alt_name": "Phaxai",
        "boundary": "administrative",
        "name": "\u0ec0\u0ea1\u0eb7\u0ead\u0e87\u0e9c\u0eb2\u0ec4\u0e8a",
        "name:en": "Phaxay District",
        "name:it": "Distretto di Phaxay",
        "name:lo": "\u0ec0\u0ea1\u0eb7\u0ead\u0e87\u0e9c\u0eb2\u0ec4\u0e8a",
        "name:th": "\u0e40\u0e21\u0e37\u0e2d\u0e07\u0e1c\u0e32\u0e0a\u0e31\u0e22",
        "name:uk": "\u041f\u0445\u0430\u0441\u0430\u0439",
        "name:vi": "Phaxay",
        "type": "boundary",
        "wikidata": "Q7181121",
        "wikipedia": "en:Phaxay District",
        "parent_id": "5831670"
      }
    },
    {
      "type": "rel",
      "id": 5831760,
      "tags": {
        "ADMIN_DIS_": "97",
        "DISTNEW_": "46",
        "DISTNEW_ID": "96",
        "DNAME": "Phoukout",
        "PNAME": "P.XIANGKHOUANG",
        "admin_level": "6",
        "alt_name": "Phookood District;Phookood;Phoukout",
        "boundary": "administrative",
        "name": "\u0ec0\u0ea1\u0eb7\u0ead\u0e87\u0e9e\u0eb9\u0e81\u0eb9\u0e94",
        "name:en": "Phou Kout District",
        "name:it": "Distretto di Phou Kout",
        "name:lo": "\u0ec0\u0ea1\u0eb7\u0ead\u0e87\u0e9e\u0eb9\u0e81\u0eb9\u0e94",
        "name:th": "\u0e40\u0e21\u0e37\u0e2d\u0e07\u0e20\u0e39\u0e01\u0e39\u0e14",
        "name:uk": "\u041f\u0445\u0443\u043a\u0443\u0442",
        "name:vi": "Phou Kout",
        "type": "boundary",
        "wikidata": "Q7187955",
        "wikipedia": "en:Phou Kout District",
        "parent_id": "5831670"
      }
    },
    {
      "type": "rel",
      "id": 5831678,
      "tags": {
        "ADMIN_DIS_": "42",
        "DISTNEW_": "100",
        "DISTNEW_ID": "41",
        "DNAME": "Boualapha",
        "PNAME": "P.KHAMMOUAN",
        "admin_level": "6",
        "alt_name": "Boualapha",
        "boundary": "administrative",
        "name": "\u0ec0\u0ea1\u0eb7\u0ead\u0e87\u0e9a\u0ebb\u0ea7\u0ea5\u0eb0\u0e9e\u0eb2",
        "name:de": "Bualapha",
        "name:en": "Boualapha District",
        "name:it": "Distretto di Boualapha",
        "name:lo": "\u0ec0\u0ea1\u0eb7\u0ead\u0e87\u0e9a\u0ebb\u0ea7\u0ea5\u0eb0\u0e9e\u0eb2",
        "name:th": "\u0e40\u0e21\u0e37\u0e2d\u0e07\u0e1a\u0e31\u0e27\u0e23\u0e20\u0e32",
        "name:uk": "\u0411\u0443\u0430\u043b\u0430\u043f\u0445\u0430",
        "name:vi": "Bualapha",
        "type": "boundary",
        "wikidata": "Q4949219",
        "wikipedia": "en:Boualapha District",
        "parent_id": "5831658"
      }
    },
    {
      "type": "rel",
      "id": 5831688,
      "tags": {
        "ADMIN_DIS_": "125",
        "DISTNEW_": "99",
        "DISTNEW_ID": "124",
        "DNAME": "Gnommalat",
        "PNAME": "P.KHAMMOUAN",
        "admin_level": "6",
        "alt_name": "Gnommalat;Yommalath;Nhommalath",
        "boundary": "administrative",
        "name": "\u0ec0\u0ea1\u0eb7\u0ead\u0e87\u0e8d\u0ebb\u0ea1\u0ea1\u0eb0\u0ea5\u0eb2\u0e94",
        "name:en": "Yommalath District",
        "name:it": "Distretto di Yommalath",
        "name:lo": "\u0ec0\u0ea1\u0eb7\u0ead\u0e87\u0e8d\u0ebb\u0ea1\u0ea1\u0eb0\u0ea5\u0eb2\u0e94",
        "name:th": "\u0e22\u0e21\u0e23\u0e32\u0e0a",
        "name:uk": "\u041d\u0445\u043e\u043c\u043c\u0430\u043b\u0430\u0442\u0445",
        "name:ur": "\u06cc\u0648\u0645\u0645\u0644\u0679\u06be \u0636\u0644\u0639",
        "name:vi": "Nhommalath",
        "type": "boundary",
        "wikidata": "Q8054865",
        "wikipedia": "en:Yommalath District",
        "parent_id": "5831658"
      }
    },
    {
      "type": "rel",
      "id": 5831691,
      "tags": {
        "ADMIN_DIS_": "38",
        "DISTNEW_": "90",
        "DISTNEW_ID": "37",
        "DNAME": "Hinboun",
        "PNAME": "P.KHAMMOUAN",
        "admin_level": "6",
        "alt_name": "Hinboun;Hineboune;Hinboun District",
        "boundary": "administrative",
        "name": "\u0ec0\u0ea1\u0eb7\u0ead\u0e87\u0eab\u0eb5\u0e99\u0e9a\u0eb9\u0e99",
        "name:en": "Hineboune District",
        "name:it": "Distretto di Hineboune",
        "name:lo": "\u0ec0\u0ea1\u0eb7\u0ead\u0e87\u0eab\u0eb5\u0e99\u0e9a\u0eb9\u0e99",
        "name:th": "\u0e2b\u0e34\u0e19\u0e1a\u0e39\u0e23\u0e13\u0e4c",
        "name:uk": "\u0425\u0456\u043d\u0431\u0443\u043d",
        "name:vi": "Hinboon",
        "type": "boundary",
        "wikidata": "Q4492492",
        "wikipedia": "en:Hineboune District",
        "parent_id": "5831658"
      }
    },
    {
      "type": "rel",
      "id": 5831719,
      "tags": {
        "ADMIN_DIS_": "41",
        "DISTNEW_": "102",
        "DISTNEW_ID": "40",
        "DNAME": "Mahaxai",
        "PNAME": "P.KHAMMOUAN",
        "admin_level": "6",
        "alt_name": "Mahaxai;Mahaxay",
        "boundary": "administrative",
        "name": "\u0ec0\u0ea1\u0eb7\u0ead\u0e87\u0ea1\u0eb0\u0eab\u0eb2\u0ec4\u0e8a",
        "name:en": "Mahaxay District",
        "name:it": "Distretto di Mahaxay",
        "name:lo": "\u0ec0\u0ea1\u0eb7\u0ead\u0e87\u0ea1\u0eb0\u0eab\u0eb2\u0ec4\u0e8a",
        "name:th": "\u0e21\u0e2b\u0e32\u0e44\u0e0a\u0e22",
        "name:uk": "\u041c\u0430\u0445\u0430\u0441\u0430\u0439",
        "name:vi": "Mahaxay",
        "type": "boundary",
        "wikidata": "Q6583905",
        "wikipedia": "en:Mahaxay District",
        "parent_id": "5831658"
      }
    },
    {
      "type": "rel",
      "id": 5831725,
      "tags": {
        "ADMIN_DIS_": "39",
        "DISTNEW_": "89",
        "DISTNEW_ID": "38",
        "DNAME": "Nakay",
        "PNAME": "P.KHAMMOUAN",
        "admin_level": "6",
        "alt_name": "Nakay;Nakai;Nakai District",
        "boundary": "administrative",
        "name": "\u0ea1\u0eb7\u0ead\u0e87\u0e99\u0eb2\u0e81\u0eb2\u0e8d",
        "name:en": "Nakai District",
        "name:it": "Distretto di Nakai",
        "name:lo": "\u0ea1\u0eb7\u0ead\u0e87\u0e99\u0eb2\u0e81\u0eb2\u0e8d",
        "name:th": "\u0e40\u0e21\u0e37\u0e2d\u0e07\u0e19\u0e32\u0e01\u0e32\u0e22",
        "name:uk": "\u041d\u0430\u043a\u0430\u0439",
        "name:vi": "Nakai",
        "type": "boundary",
        "wikidata": "Q10796993",
        "wikipedia": "en:Nakai District",
        "parent_id": "5831658"
      }
    },
    {
      "type": "rel",
      "id": 5831735,
      "tags": {
        "ADMIN_DIS_": "45",
        "DISTNEW_": "105",
        "DISTNEW_ID": "44",
        "DNAME": "Nongbok",
        "PNAME": "P.KHAMMOUAN",
        "admin_level": "6",
        "alt_name": "Nongbok;\u0edc\u0ead\u0e87\u0e9a\u0ebb\u0e81",
        "boundary": "administrative",
        "name": "\u0ec0\u0ea1\u0eb7\u0ead\u0e87\u0edc\u0ead\u0e87\u0e9a\u0ebb\u0e81",
        "name:en": "Nong Bok District",
        "name:it": "Distretto di Nong Bok",
        "name:lo": "\u0ec0\u0ea1\u0eb7\u0ead\u0e87\u0edc\u0ead\u0e87\u0e9a\u0ebb\u0e81",
        "name:th": "\u0e2b\u0e19\u0e2d\u0e07\u0e1a\u0e01",
        "name:uk": "\u041d\u043e\u043d\u0433\u0431\u043e\u043a",
        "name:vi": "Nongbok",
        "type": "boundary",
        "wikidata": "Q6468543",
        "wikipedia": "en:Nong Bok District",
        "parent_id": "5831658"
      }
    },
    {
      "type": "rel",
      "id": 5831777,
      "tags": {
        "ADMIN_DIS_": "40",
        "DISTNEW_": "101",
        "DISTNEW_ID": "39",
        "DNAME": "Thakhek",
        "PNAME": "P.KHAMMOUAN",
        "admin_level": "6",
        "alt_name": "Thakhek;\u0e97\u0ec8\u0eb2\u0ec1\u0e82\u0e81",
        "boundary": "administrative",
        "name": "\u0ec0\u0ea1\u0eb7\u0ead\u0e87\u0e97\u0ec8\u0eb2\u0ec1\u0e82\u0e81",
        "name:en": "Thakhek District",
        "name:it": "Distretto di Thakhek",
        "name:lo": "\u0ec0\u0ea1\u0eb7\u0ead\u0e87\u0e97\u0ec8\u0eb2\u0ec1\u0e82\u0e81",
        "name:uk": "\u0422\u0445\u0430\u043a\u0445\u0435\u043a",
        "name:ur": "\u062a\u06be\u0627\u062e\u06a9 \u0636\u0644\u0639",
        "name:vi": "Thakhek",
        "type": "boundary",
        "wikidata": "Q7709364",
        "wikipedia": "en:Thakhek District",
        "parent_id": "5831658"
      }
    },
    {
      "type": "rel",
      "id": 5831796,
      "tags": {
        "ADMIN_DIS_": "43",
        "DISTNEW_": "104",
        "DISTNEW_ID": "42",
        "DNAME": "Xaibouathong",
        "PNAME": "P.KHAMMOUAN",
        "admin_level": "6",
        "alt_name": "Xaibouathong;Saybouathong;Saybouathong District",
        "boundary": "administrative",
        "name": "\u0ec0\u0ea1\u0eb7\u0ead\u0e87\u0ec4\u0e8a\u0e9a\u0ebb\u0ea7\u0e97\u0ead\u0e87",
        "name:de": "Xaybuathong",
        "name:en": "Saybouathong District",
        "name:it": "Distretto di Saybouathong",
        "name:lo": "\u0ec0\u0ea1\u0eb7\u0ead\u0e87\u0ec4\u0e8a\u0e9a\u0ebb\u0ea7\u0e97\u0ead\u0e87",
        "name:uk": "\u0421\u0430\u0439\u0431\u0443\u0430\u0442\u0445\u043e\u043d\u0433",
        "name:vi": "Xaybuathong",
        "type": "boundary",
        "wikidata": "Q7429133",
        "wikipedia": "en:Saybouathong District",
        "parent_id": "5831658"
      }
    },
    {
      "type": "rel",
      "id": 5831805,
      "tags": {
        "ADMIN_DIS_": "44",
        "DISTNEW_": "103",
        "DISTNEW_ID": "43",
        "DNAME": "Xebangfai",
        "PNAME": "P.KHAMMOUAN",
        "admin_level": "6",
        "alt_name": "Xebangfai;Xebangfay;Sebangphay;\u0ec0\u0e8a\u0e9a\u0eb1\u0ec9\u0e87\u0ec4\u0e9f",
        "boundary": "administrative",
        "name": "\u0ec0\u0ea1\u0eb7\u0ead\u0e87\u0ec0\u0e8a\u0e9a\u0eb1\u0ec9\u0e87\u0ec4\u0e9f",
        "name:en": "Sebangphay District",
        "name:it": "Distretto di Sebangphay",
        "name:lo": "\u0ec0\u0ea1\u0eb7\u0ead\u0e87\u0ec0\u0e8a\u0e9a\u0eb1\u0ec9\u0e87\u0ec4\u0e9f",
        "name:uk": "\u0421\u0435\u0431\u0430\u043d\u0433\u0444\u0430\u0439",
        "name:vi": "Sebangphay",
        "type": "boundary",
        "wikidata": "Q7442341",
        "wikipedia": "en:Sebangphay District",
        "parent_id": "5831658"
      }
    },
    {
      "type": "rel",
      "id": 6993217,
      "tags": {
        "admin_level": "6",
        "boundary": "administrative",
        "name": "\u0ec0\u0ea1\u0eb7\u0ead\u0e87\u0e84\u0eb9\u0e99\u0e84\u0eb3",
        "name:en": "Kounkham District",
        "name:lo": "\u0ec0\u0ea1\u0eb7\u0ead\u0e87\u0e84\u0eb9\u0e99\u0e84\u0eb3",
        "type": "boundary",
        "wikidata": "Q16325390",
        "wikipedia": "lo:\u0ec0\u0ea1\u0eb7\u0ead\u0e87\u0e84\u0eb9\u0e99\u0e84\u0eb3",
        "parent_id": "5831658"
      }
    },
    {
      "type": "rel",
      "id": 5831675,
      "tags": {
        "ADMIN_DIS_": "11",
        "DISTNEW_": "30",
        "DISTNEW_ID": "10",
        "DNAME": "Beng",
        "PNAME": "P.OUDOMXAI",
        "admin_level": "6",
        "alt_name": "Beng",
        "boundary": "administrative",
        "name": "\u0ec0\u0ea1\u0eb7\u0ead\u0e87\u0ec1\u0e9a\u0ec8\u0e87",
        "name:en": "Beng District",
        "name:it": "Distretto di Beng",
        "name:lo": "\u0ec0\u0ea1\u0eb7\u0ead\u0e87\u0ec1\u0e9a\u0ec8\u0e87",
        "name:th": "\u0e40\u0e21\u0e37\u0e2d\u0e07\u0e41\u0e1a\u0e48\u0e07",
        "name:uk": "\u0411\u0435\u043d\u0433",
        "name:vi": "Beng, Oudomxay",
        "type": "boundary",
        "wikidata": "Q4887590",
        "wikipedia": "en:Beng District",
        "parent_id": "5831661"
      }
    },
    {
      "type": "rel",
      "id": 5831697,
      "tags": {
        "ADMIN_DIS_": "12",
        "DISTNEW_": "35",
        "DISTNEW_ID": "11",
        "DNAME": "Houn",
        "PNAME": "P.OUDOMXAI",
        "admin_level": "6",
        "alt_name": "Houn;Houne District;Houn District",
        "boundary": "administrative",
        "name": "\u0ec0\u0ea1\u0eb7\u0ead\u0e87\u0eae\u0eb8\u0e99",
        "name:en": "Houne District",
        "name:it": "Distretto di Houne",
        "name:lo": "\u0ec0\u0ea1\u0eb7\u0ead\u0e87\u0eae\u0eb8\u0e99",
        "name:uk": "\u0425\u0443\u043d (\u0440\u0430\u0439\u043e\u043d)",
        "name:vi": "Houne",
        "type": "boundary",
        "wikidata": "Q5913272",
        "wikipedia": "en:Houne District",
        "parent_id": "5831661"
      }
    },
    {
      "type": "rel",
      "id": 5831710,
      "tags": {
        "ADMIN_DIS_": "9",
        "DISTNEW_": "13",
        "DISTNEW_ID": "8",
        "DNAME": "La",
        "PNAME": "P.OUDOMXAI",
        "admin_level": "6",
        "alt_name": "La",
        "boundary": "administrative",
        "name": "\u0ec0\u0ea1\u0eb7\u0ead\u0e87\u0eab\u0ebc\u0eb2",
        "name:en": "La District",
        "name:it": "Distretto di La",
        "name:lo": "\u0ec0\u0ea1\u0eb7\u0ead\u0e87\u0eab\u0ebc\u0eb2",
        "name:uk": "\u041b\u0430 (\u0440\u0430\u0439\u043e\u043d)",
        "name:vi": "La, Oudomxay",
        "type": "boundary",
        "wikidata": "Q10783812",
        "wikipedia": "en:La District",
        "parent_id": "5831661"
      }
    },
    {
      "type": "rel",
      "id": 5831728,
      "tags": {
        "ADMIN_DIS_": "105",
        "DISTNEW_": "12",
        "DISTNEW_ID": "104",
        "DNAME": "Namo",
        "PNAME": "P.OUDOMXAI",
        "admin_level": "6",
        "alt_name": "Namo;Namo District",
        "boundary": "administrative",
        "name": "\u0ec0\u0ea1\u0eb7\u0ead\u0e87\u0e99\u0eb2\u0edd",
        "name:en": "Na Mo District",
        "name:it": "Distretto di Na Mo",
        "name:lo": "\u0ec0\u0ea1\u0eb7\u0ead\u0e87\u0e99\u0eb2\u0edd",
        "name:uk": "\u041d\u0430\u043c\u043e",
        "name:vi": "Namor, Oudomxay",
        "type": "boundary",
        "wikidata": "Q10797220",
        "wikipedia": "en:Na Mo District",
        "parent_id": "5831661"
      }
    },
    {
      "type": "rel",
      "id": 5831731,
      "tags": {
        "ADMIN_DIS_": "13",
        "DISTNEW_": "31",
        "DISTNEW_ID": "12",
        "DNAME": "Nga",
        "PNAME": "P.OUDOMXAI",
        "admin_level": "6",
        "alt_name": "Nga",
        "boundary": "administrative",
        "name": "\u0ec0\u0ea1\u0eb7\u0ead\u0e87\u0e87\u0eb2",
        "name:en": "Nga District",
        "name:it": "Distretto di Nga",
        "name:lo": "\u0ec0\u0ea1\u0eb7\u0ead\u0e87\u0e87\u0eb2",
        "name:th": "\u0e40\u0e21\u0e37\u0e2d\u0e07\u0e07\u0e32",
        "name:uk": "\u041d\u0433\u0430",
        "name:vi": "Nga, Oudomxay",
        "type": "boundary",
        "wikidata": "Q10798579",
        "wikipedia": "en:Nga District",
        "parent_id": "5831661"
      }
    },
    {
      "type": "rel",
      "id": 5831740,
      "tags": {
        "ADMIN_DIS_": "14",
        "DISTNEW_": "39",
        "DISTNEW_ID": "13",
        "DNAME": "Pakbeng",
        "PNAME": "P.OUDOMXAI",
        "admin_level": "6",
        "alt_name": "Pakbeng;Pakbeng District;Pak Beng",
        "boundary": "administrative",
        "name": "\u0ec0\u0ea1\u0eb7\u0ead\u0e87\u0e9b\u0eb2\u0e81\u0ec1\u0e9a\u0ec8\u0e87",
        "name:en": "Pak Beng District",
        "name:it": "Distretto di Pak Beng",
        "name:lo": "\u0ec0\u0ea1\u0eb7\u0ead\u0e87\u0e9b\u0eb2\u0e81\u0ec1\u0e9a\u0ec8\u0e87",
        "name:uk": "\u041f\u0430\u043a\u0431\u0435\u043d\u0433",
        "name:vi": "Pakbeng",
        "type": "boundary",
        "wikidata": "Q7125350",
        "wikipedia": "en:Pak Beng District",
        "parent_id": "5831661"
      }
    },
    {
      "type": "rel",
      "id": 5831795,
      "tags": {
        "ADMIN_DIS_": "10",
        "DISTNEW_": "16",
        "DISTNEW_ID": "9",
        "DNAME": "Xai",
        "PNAME": "P.OUDOMXAI",
        "admin_level": "6",
        "alt_name": "Xai;Xai District;Xay",
        "boundary": "administrative",
        "name": "\u0ec0\u0ea1\u0eb7\u0ead\u0e87\u0ec4\u0e8a",
        "name:en": "Xay District",
        "name:it": "Distretto di Xay",
        "name:lo": "\u0ec0\u0ea1\u0eb7\u0ead\u0e87\u0ec4\u0e8a",
        "name:uk": "\u0421\u0430\u0439 (\u0440\u0430\u0439\u043e\u043d)",
        "name:ur": "\u0633\u0627\u0626\u06d2 \u0636\u0644\u0639",
        "name:vi": "Xay, Oudomxay",
        "type": "boundary",
        "wikidata": "Q8043335",
        "wikipedia": "en:Xay District",
        "parent_id": "5831661"
      }
    },
    {
      "type": "rel",
      "id": 5831679,
      "tags": {
        "ADMIN_DIS_": "103",
        "DISTNEW_": "5",
        "DISTNEW_ID": "102",
        "DNAME": "Boun-Nua",
        "PNAME": "P.PHONGSALI",
        "admin_level": "6",
        "alt_name": "Boun-Nua;Boun Neua;Bounneua",
        "boundary": "administrative",
        "name": "\u0ec0\u0ea1\u0eb7\u0ead\u0e87\u0e9a\u0eb8\u0e99\u0ec0\u0edc\u0eb7\u0ead",
        "name:en": "Boun Neua District",
        "name:it": "Distretto di Boun Neua",
        "name:lo": "\u0ec0\u0ea1\u0eb7\u0ead\u0e87\u0e9a\u0eb8\u0e99\u0ec0\u0edc\u0eb7\u0ead",
        "name:th": "\u0e40\u0e21\u0e37\u0e2d\u0e07\u0e1a\u0e38\u0e19\u0e40\u0e2b\u0e19\u0e37\u0e2d",
        "name:uk": "\u0411\u0443\u043d\u043d\u0443\u0430",
        "name:vi": "Boun Neua",
        "type": "boundary",
        "wikidata": "Q4949783",
        "wikipedia": "en:Boun Neua District",
        "parent_id": "5831662"
      }
    },
    {
      "type": "rel",
      "id": 5831680,
      "tags": {
        "ADMIN_DIS_": "104",
        "DISTNEW_": "8",
        "DISTNEW_ID": "103",
        "DNAME": "Boun-Tai",
        "PNAME": "P.PHONGSALI",
        "admin_level": "6",
        "alt_name": "Boun-Tai;Boun Tay;Bountay;\u0ec0\u0ea1\u0eb7\u0ead\u0e87\u0e9a\u0eb8\u0e99\u0ec4\u0e95\u0ec9",
        "boundary": "administrative",
        "name": "\u0ec0\u0ea1\u0eb7\u0ead\u0e87\u0e9a\u0eb8\u0e99\u0ec3\u0e95\u0ec9",
        "name:en": "Boun Tay District",
        "name:it": "Distretto di Boun Tai",
        "name:lo": "\u0ec0\u0ea1\u0eb7\u0ead\u0e87\u0e9a\u0eb8\u0e99\u0ec3\u0e95",
        "name:uk": "\u0411\u0443\u043d\u0442\u0430\u0439",
        "name:vi": "Boun Tay",
        "type": "boundary",
        "wikidata": "Q4949786",
        "wikipedia": "en:Boun Tay District",
        "parent_id": "5831662"
      }
    },
    {
      "type": "rel",
      "id": 5831689,
      "tags": {
        "ADMIN_DIS_": "101",
        "DISTNEW_": "2",
        "DISTNEW_ID": "100",
        "DNAME": "Gnot-Ou",
        "PNAME": "P.PHONGSALI",
        "admin_level": "6",
        "alt_name": "Gnot-Ou;Yot Ou;\u0ec0\u0ea1\u0eb7\u0ead\u0e87\u0e8d\u0ead\u0e94\u0ead\u0eb9\u0ec8",
        "boundary": "administrative",
        "name": "\u0ec0\u0ea1\u0eb7\u0ead\u0e87\u0e8d\u0ead\u0e94\u0ead",
        "name:en": "Yot Ou District",
        "name:it": "Distretto di Nhot Ou",
        "name:lo": "\u0ec0\u0ea1\u0eb7\u0ead\u0e87\u0e8d\u0ead\u0e94\u0ead",
        "name:uk": "\u0413\u043d\u043e\u0442\u0443",
        "name:ur": "\u06cc\u0648\u0679 \u0648 \u0636\u0644\u0639",
        "name:vi": "Nhot Ou",
        "name:zh": "\u4e4c\u5fb7\u53bf",
        "type": "boundary",
        "wikidata": "Q8056408",
        "wikipedia": "en:Yot Ou District",
        "parent_id": "5831662"
      }
    },
    {
      "type": "rel",
      "id": 5831705,
      "tags": {
        "ADMIN_DIS_": "108",
        "DISTNEW_": "10",
        "DISTNEW_ID": "107",
        "DNAME": "Khoa",
        "PNAME": "P.PHONGSALI",
        "admin_level": "6",
        "alt_name": "Khoa;\u0ec0\u0ea1\u0eb7\u0ead\u0e87\u0e82\u0ea7\u0eb2;Muang Khua;Khua;Koa",
        "boundary": "administrative",
        "name": "\u0ec0\u0ea1\u0eb7\u0ead\u0e87\u0e82\u0ea7\u0eb2",
        "name:en": "Khoua District",
        "name:it": "Distretto di Khoua",
        "name:lo": "\u0ec0\u0ea1\u0eb7\u0ead\u0e87\u0e82\u0ea7\u0eb2",
        "name:uk": "\u041a\u0445\u043e\u0430",
        "name:vi": "Khoua",
        "type": "boundary",
        "wikidata": "Q6402634",
        "wikipedia": "en:Khoua District",
        "parent_id": "5831662"
      }
    },
    {
      "type": "rel",
      "id": 5831720,
      "tags": {
        "ADMIN_DIS_": "107",
        "DISTNEW_": "6",
        "DISTNEW_ID": "106",
        "DNAME": "Mai",
        "PNAME": "P.PHONGSALI",
        "admin_level": "6",
        "alt_name": "Mai",
        "boundary": "administrative",
        "name": "\u0ec0\u0ea1\u0eb7\u0ead\u0e87\u0ec3\u0edd",
        "name:en": "May District",
        "name:it": "Distretto di Mai",
        "name:lo": "\u0ec0\u0ea1\u0eb7\u0ead\u0e87\u0ec3\u0edd\u0ec8",
        "name:th": "\u0e40\u0e21\u0e37\u0e2d\u0e07\u0e43\u0e2b\u0e21\u0e48",
        "name:uk": "\u041c\u0430\u0439",
        "name:vi": "May",
        "type": "boundary",
        "wikidata": "Q10791996",
        "wikipedia": "en:May District, Laos",
        "parent_id": "5831662"
      }
    },
    {
      "type": "rel",
      "id": 5831755,
      "tags": {
        "ADMIN_DIS_": "2",
        "DISTNEW_": "3",
        "DISTNEW_ID": "1",
        "DNAME": "Phongsali",
        "PNAME": "P.PHONGSALI",
        "admin_level": "6",
        "alt_name": "Phongsali;Phongsaly",
        "boundary": "administrative",
        "name": "\u0ec0\u0ea1\u0eb7\u0ead\u0e87\u0e9c\u0ebb\u0ec9\u0e87\u0eaa\u0eb2\u0ea5",
        "name:en": "Phongsaly District",
        "name:fr": "Ph\u00f4ngsali",
        "name:it": "Distretto di Phongsali",
        "name:lo": "\u0ec0\u0ea1\u0eb7\u0ead\u0e87\u0e9c\u0ebb\u0ec9\u0e87\u0eaa\u0eb2\u0ea5",
        "name:th": "\u0e40\u0e21\u0e37\u0e2d\u0e07\u0e1e\u0e07\u0e2a\u0e32\u0e25\u0e35",
        "name:uk": "\u041f\u0445\u043e\u043d\u0491\u0441\u0430\u043b\u0456 \u0440\u0430\u0439\u043e\u043d",
        "name:ur": "\u0641\u0648\u0646\u06af\u0633\u0627\u0644\u06cc \u0636\u0644\u0639",
        "name:vi": "Phongsaly (huy\u1ec7n)",
        "type": "boundary",
        "wikidata": "Q7187263",
        "wikipedia": "en:Phongsaly District",
        "parent_id": "5831662"
      }
    },
    {
      "type": "rel",
      "id": 5831764,
      "tags": {
        "ADMIN_DIS_": "102",
        "DISTNEW_": "4",
        "DISTNEW_ID": "101",
        "DNAME": "Samphan",
        "PNAME": "P.PHONGSALI",
        "admin_level": "6",
        "alt_name": "Samphan;Samphanh",
        "boundary": "administrative",
        "name": "\u0ec0\u0ea1\u0eb7\u0ead\u0e87\u0eaa\u0eb3\u0e9e\u0eb1\u0e99",
        "name:en": "Samphanh District",
        "name:it": "Distretto di Samphan",
        "name:lo": "\u0ec0\u0ea1\u0eb7\u0ead\u0e87\u0eaa\u0eb3\u0e9e\u0eb1\u0e99",
        "name:uk": "\u0421\u0430\u043c\u043f\u0445\u0430\u043d",
        "name:vi": "Samphanh",
        "type": "boundary",
        "wikidata": "Q7410117",
        "wikipedia": "en:Samphanh District",
        "parent_id": "5831662"
      }
    },
    {
      "type": "rel",
      "id": 15652673,
      "tags": {
        "admin_level": "8",
        "boundary": "administrative",
        "name": "\u0ec0\u0e82\u0e94\u0ec0\u0eaa\u0e94\u0e96\u0eb0\u0e81\u0eb4\u0e94\u0e9e\u0eb4\u0ec0\u0eaa\u0e94\u0eaa\u0eb2\u0ea1\u0eab\u0ebc\u0ec8\u0ebd\u0ea1\u0e84\u0eb3 \u91d1\u4e09\u89d2\u7ecf\u6d4e\u7279\u533a",
        "name:en": "Golden Triangle Special Economic Zone",
        "name:ja": "\u30b4\u30fc\u30eb\u30c7\u30f3\u30c8\u30e9\u30a4\u30a2\u30f3\u30b0\u30eb\u7d4c\u6e08\u7279\u5225\u533a",
        "name:lo": "\u0ec0\u0e82\u0e94\u0ec0\u0eaa\u0e94\u0e96\u0eb0\u0e81\u0eb4\u0e94\u0e9e\u0eb4\u0ec0\u0eaa\u0e94\u0eaa\u0eb2\u0ea1\u0eab\u0ebc\u0ec8\u0ebd\u0ea1\u0e84\u0eb3",
        "name:my": "\u101b\u103d\u103e\u1031\u1010\u103c\u102d\u1002\u1036\u1021\u1011\u1030\u1038\u1005\u102e\u1038\u1015\u103d\u102c\u1038\u101b\u1031\u1038\u1007\u102f\u1036",
        "name:th": "\u0e40\u0e02\u0e15\u0e40\u0e28\u0e23\u0e29\u0e10\u0e01\u0e34\u0e08\u0e1e\u0e34\u0e40\u0e28\u0e29\u0e2a\u0e32\u0e21\u0e40\u0e2b\u0e25\u0e35\u0e48\u0e22\u0e21\u0e17\u0e2d\u0e07\u0e04\u0e4d\u0e32",
        "name:zh": "\u91d1\u4e09\u89d2\u7ecf\u6d4e\u7279\u533a",
        "type": "boundary",
        "wikidata": "Q24896442",
        "wikipedia": "en:Golden Triangle Special Economic Zone",
        "parent_id": "5831784"
      }
    },
    {
      "type": "rel",
      "id": 6979687,
      "tags": {
        "admin_level": "8",
        "boundary": "administrative",
        "is_in:district": "Hadsayfong",
        "is_in:province": "Vientiane Capital",
        "name": "\u0eaa\u0eb5\u0ea1\u0ea1\u0eb0\u0ec2\u0e99",
        "name:en": "Simmano",
        "name:lo-Latn": "Simman\u00f4",
        "type": "boundary",
        "parent_id": "5831690"
      }
    },
    {
      "type": "rel",
      "id": 6958914,
      "tags": {
        "admin_level": "8",
        "boundary": "administrative",
        "name": "\u0eaa\u0ebb\u0e9a\u0eae\u0eb8\u0e99",
        "name:en": "Sophoun",
        "type": "boundary",
        "parent_id": "5831720"
      }
    }
  ]
}