{
  "version": 0.6,
  "generator": "Overpass API 0.7.62.8 e802775f",
  "osm3s": {
    "timestamp_osm_base": "2025-10-04T19:02:46Z",
    "timestamp_areas_base": "2025-10-04T15:40:00Z",
    "copyright": "The data included in this document is from www.openstreetmap.org. The data is made available under ODbL."
  },
  "elements": [
    {
      "type": "relation",
      "id": 184633,
      "tags": {
        "ISO3166-1": "NP",
        "ISO3166-1:alpha2": "NP",
        "ISO3166-1:alpha3": "NPL",
        "ISO3166-1:numeric": "524",
        "admin_level": "2",
        "boundary": "administrative",
        "default_language": "ne",
        "driving_side": "left",
        "flag": "https://upload.wikimedia.org/wikipedia/commons/9/9b/Flag_of_Nepal.svg",
        "name": "\u0928\u0947\u092a\u093e\u0932",
        "name:ab": "\u041d\u0435\u043f\u0430\u043b",
        "name:ace": "Nepal",
        "name:af": "Nepal",
        "name:als": "Nepal",
        "name:am": "\u1294\u1353\u120d",
        "name:an": "Nepal",
        "name:ar": "\u0646\u064a\u0628\u0627\u0644",
        "name:arz": "\u0646\u064a\u0628\u0627\u0644",
        "name:as": "\u09a8\u09c7\u09aa\u09be\u09b2",
        "name:ast": "Nepal",
        "name:av": "\u041d\u0435\u043f\u0430\u043b",
        "name:az": "Nepal",
        "name:ba": "\u041d\u0435\u043f\u0430\u043b",
        "name:bar": "Nepal",
        "name:bat-smg": "Nepals",
        "name:bcl": "Nepal",
        "name:be": "\u041d\u0435\u043f\u0430\u043b",
        "name:be-tarask": "\u041d\u044d\u043f\u0430\u043b",
        "name:bg": "\u041d\u0435\u043f\u0430\u043b",
        "name:bh": "\u0928\u0947\u092a\u093e\u0932",
        "name:bi": "Nepal",
        "name:bjn": "Nepal",
        "name:bn": "\u09a8\u09c7\u09aa\u09be\u09b2",
        "name:bo": "\u0f56\u0f63\u0f0b\u0f61\u0f74\u0f63\u0f0d",
        "name:bpy": "\u09a8\u09c7\u09aa\u09be\u09b2",
        "name:br": "Nepal",
        "name:bs": "Nepal",
        "name:bxr": "\u0411\u0430\u043b\u0431\u0430",
        "name:ca": "Nepal",
        "name:ce": "\u041d\u0435\u043f\u0430\u043b",
        "name:ceb": "Nepal",
        "name:ckb": "\u0646\u06cc\u067e\u0627\u0644",
        "name:crh": "Nepal",
        "name:cs": "Nep\u00e1l",
        "name:csb": "Nepal",
        "name:cv": "\u041d\u0435\u043f\u0430\u043b",
        "name:cy": "Nepal",
        "name:da": "Nepal",
        "name:de": "Nepal",
        "name:din": "N\u00efpal",
        "name:diq": "Nepal",
        "name:dv": "\u0782\u07ad\u0795\u07a7\u078d\u07b0",
        "name:dz": "\u0f56\u0f63\u0f0b\u0f61\u0f74\u0f63\u0f0b",
        "name:el": "\u039d\u03b5\u03c0\u03ac\u03bb",
        "name:en": "Nepal",
        "name:eo": "Nepalo",
        "name:es": "Nepal",
        "name:et": "Nepal",
        "name:eu": "Nepal",
        "name:ext": "Nepal",
        "name:fa": "\u0646\u067e\u0627\u0644",
        "name:ff": "Nepal",
        "name:fi": "Nepal",
        "name:fj": "Nepal",
        "name:fo": "Nepal",
        "name:fr": "N\u00e9pal",
        "name:frp": "N\u00e8pal",
        "name:fy": "Nepal",
        "name:ga": "Neipeal",
        "name:gag": "Nepal",
        "name:gd": "Neap\u00e0l",
        "name:gl": "Nepal",
        "name:gn": "Nepal",
        "name:gu": "\u0aa8\u0ac7\u0aaa\u0abe\u0ab3",
        "name:gv": "Nepaal",
        "name:ha": "Nepal",
        "name:hak": "N\u00ec-pok",
        "name:haw": "Nepala",
        "name:he": "\u05e0\u05e4\u05d0\u05dc",
        "name:hi": "\u0928\u0947\u092a\u093e\u0932",
        "name:hif": "Nepal",
        "name:hr": "Nepal",
        "name:hsb": "Nepal",
        "name:ht": "Nepal",
        "name:hu": "Nep\u00e1l",
        "name:hy": "\u0546\u0565\u057a\u0561\u056c",
        "name:ia": "Nepal",
        "name:id": "Nepal",
        "name:ie": "Nepal",
        "name:ilo": "Nepal",
        "name:io": "Nepal",
        "name:is": "Nepal",
        "name:it": "Nepal",
        "name:iu": "\u14c3\u1449\u140a\u14d0",
        "name:ja": "\u30cd\u30d1\u30fc\u30eb",
        "name:jbo": "nepal",
        "name:jv": "N\u00e9pal",
        "name:ka": "\u10dc\u10d4\u10de\u10d0\u10da\u10d8",
        "name:kg": "Nepal",
        "name:ki": "Nepal",
        "name:kk": "\u041d\u0435\u043f\u0430\u043b",
        "name:kl": "Nepal",
        "name:km": "\u1793\u17c1\u1794\u17c9\u17b6\u179b\u17cb",
        "name:kn": "\u0ca8\u0cc7\u0caa\u0cbe\u0cb3",
        "name:ko": "\ub124\ud314",
        "name:krc": "\u041d\u0435\u043f\u0430\u043b",
        "name:ks": "\u0646\u0620\u067e\u0627\u0644",
        "name:ku": "Nepal",
        "name:kv": "\u041d\u0435\u043f\u0430\u043b",
        "name:kw": "Nepal",
        "name:ky": "\u041d\u0435\u043f\u0430\u043b",
        "name:la": "Nepalia",
        "name:lb": "Nepal",
        "name:lez": "\u041d\u0435\u043f\u0430\u043b",
        "name:lg": "Nepal",
        "name:li": "Nepal",
        "name:lij": "Nepal",
        "name:lmo": "Nepal",
        "name:ln": "Nep\u00e1li",
        "name:lo": "\u0e9b\u0eb0\u0ec0\u0e97\u0e94\u0ec0\u0e99\u0e9b\u0eb2\u0e99",
        "name:lt": "Nepalas",
        "name:lv": "Nep\u0101la",
        "name:mg": "Nepaly",
        "name:mi": "Nep\u014dra",
        "name:mk": "\u041d\u0435\u043f\u0430\u043b",
        "name:ml": "\u0d28\u0d47\u0d2a\u0d4d\u0d2a\u0d3e\u0d7e",
        "name:mn": "\u0411\u0430\u043b\u0431\u0430",
        "name:mr": "\u0928\u0947\u092a\u093e\u0933",
        "name:ms": "Nepal",
        "name:mt": "Nepal",
        "name:my": "\u1014\u102e\u1015\u1031\u102b\u1014\u102d\u102f\u1004\u103a\u1004\u1036",
        "name:mzn": "\u0646\u067e\u0627\u0644",
        "name:na": "Nepar",
        "name:nah": "Nepal",
        "name:nan": "Nepal",
        "name:nb": "Nepal",
        "name:nds": "Nepal",
        "name:ne": "\u0928\u0947\u092a\u093e\u0932",
        "name:new": "\u0928\u0947\u092a\u093e\u0903",
        "name:nl": "Nepal",
        "name:nn": "Nepal",
        "name:no": "Nepal",
        "name:nov": "Nepal",
        "name:nv": "Dzi\u0142gh\u0105\u0301\u0105\u02bcdi Naakaii Doot\u0142\u02bcizh\u00ed Bik\u00e9yah",
        "name:oc": "Nepal",
        "name:om": "Neeppaal",
        "name:or": "\u0b28\u0b47\u0b2a\u0b3e\u0b33",
        "name:os": "\u041d\u0435\u043f\u0430\u043b",
        "name:pa": "\u0a28\u0a47\u0a2a\u0a3e\u0a32",
        "name:pam": "Nepal",
        "name:pap": "Nepal",
        "name:pi": "\u0928\u0947\u092a\u093e\u0932",
        "name:pih": "Nepal",
        "name:pl": "Nepal",
        "name:pms": "Nepal",
        "name:pnb": "\u0646\u06cc\u067e\u0627\u0644",
        "name:ps": "\u0646\u06cc\u067e\u0627\u0644",
        "name:pt": "Nepal",
        "name:qu": "Nipal",
        "name:ro": "Nepal",
        "name:ru": "\u041d\u0435\u043f\u0430\u043b",
        "name:rw": "Nepali",
        "name:sa": "\u0928\u0947\u092a\u093e\u0932\u0926\u0947\u0936\u0903",
        "name:sah": "\u041d\u0435\u043f\u0430\u043b",
        "name:sc": "Nepal",
        "name:scn": "Nepal",
        "name:sco": "Nepal",
        "name:sd": "\u0646\u064a\u067e\u0627\u0644",
        "name:se": "Nepal",
        "name:sh": "Nepal",
        "name:si": "\u0db1\u0dda\u0db4\u0dcf\u0dbd\u0dba",
        "name:sk": "Nep\u00e1l",
        "name:sl": "Nepal",
        "name:sm": "Nepal",
        "name:smn": "Nepal",
        "name:sms": "Nepal",
        "name:sn": "Neparu",
        "name:so": "Nebal",
        "name:sq": "Nepali",
        "name:sr": "\u041d\u0435\u043f\u0430\u043b",
        "name:ss": "INephali",
        "name:su": "N\u00e9pal",
        "name:sv": "Nepal",
        "name:sw": "Nepal",
        "name:szl": "Nepal",
        "name:ta": "\u0ba8\u0bc7\u0baa\u0bbe\u0bb3\u0bae\u0bcd",
        "name:te": "\u0c28\u0c47\u0c2a\u0c3e\u0c32\u0c4d",
        "name:tg": "\u041d\u0435\u043f\u0430\u043b",
        "name:th": "\u0e1b\u0e23\u0e30\u0e40\u0e17\u0e28\u0e40\u0e19\u0e1b\u0e32\u0e25",
        "name:tk": "Nepal",
        "name:tl": "Nepal",
        "name:to": "Nepali",
        "name:tr": "Nepal",
        "name:ts": "Nepal",
        "name:tt": "\u041d\u0435\u043f\u0430\u043b",
        "name:tw": "Nepal",
        "name:tzl": "Nepal",
        "name:udm": "\u041d\u0435\u043f\u0430\u043b",
        "name:ug": "\u0646\u06d0\u067e\u0627\u0644",
        "name:uk": "\u041d\u0435\u043f\u0430\u043b",
        "name:ur": "\u0646\u06cc\u067e\u0627\u0644",
        "name:uz": "Nepal",
        "name:vec": "N\u00e8pal",
        "name:vi": "Nepal",
        "name:vo": "Nepal\u00e4n",
        "name:vro": "Nepal",
        "name:war": "Nepal",
        "name:wo": "Nepaal",
        "name:wuu": "\u5c3c\u6cca\u5c14",
        "name:xal": "\u0411\u0430\u043b\u0432\u0443\u0434\u0438\u043d \u0423\u043b\u0441\u0438\u043d \u041d\u0438\u0438\u0446\u04d9\u0442\u04d9 \u041e\u0440\u043d",
        "name:xh": "Nephal",
        "name:yi": "\u05e0\u05e2\u05e4\u05d0\u05dc",
        "name:yo": "Nepal",
        "name:yue": "\u5c3c\u6cca\u723e",
        "name:za": "Nepal",
        "name:zea": "Nepal",
        "name:zh": "\u5c3c\u6cca\u5c14",
        "name:zh-Hans": "\u5c3c\u6cca\u5c14",
        "name:zh-Hant": "\u5c3c\u6cca\u723e",
        "name:zu": "Nepal",
        "official_name": "\u0938\u0919\u094d\u0918\u0940\u092f \u0932\u094b\u0915\u0924\u093e\u0928\u094d\u0924\u094d\u0930\u093f\u0915 \u0917\u0923\u0924\u0928\u094d\u0924\u094d\u0930 \u0928\u0947\u092a\u093e\u0932",
        "official_name:ar": "\u062c\u0645\u0647\u0648\u0631\u064a\u0629 \u0646\u064a\u0628\u0627\u0644 \u0627\u0644\u062f\u064a\u0645\u0642\u0631\u0627\u0637\u064a\u0629 \u0627\u0644\u0627\u062a\u062d\u0627\u062f\u064a\u0629",
        "official_name:ca": "Rep\u00fablica Federal Democr\u00e0tica del Nepal",
        "official_name:ckb": "\u06a9\u06c6\u0645\u0627\u0631\u06cc \u062f\u06cc\u0645\u0648\u06a9\u0631\u0627\u062a\u06cc\u06cc \u0641\u06cc\u062f\u0631\u0627\u06b5\u06cc\u06cc \u0646\u06cc\u067e\u0627\u0644",
        "official_name:cs": "Nep\u00e1lsk\u00e1 federativn\u00ed demokratick\u00e1 republika",
        "official_name:de": "Demokratische Bundesrepublik Nepal",
        "official_name:en": "Federal Democratic Republic of Nepal",
        "official_name:eo": "Federacia Demokratia Respubliko Nepalo",
        "official_name:es": "Rep\u00fablica Federal Democr\u00e1tica de Nepal",
        "official_name:fa": "\u062c\u0645\u0647\u0648\u0631\u06cc \u0641\u062f\u0631\u0627\u0644 \u062f\u0645\u0648\u06a9\u0631\u0627\u062a\u06cc\u06a9 \u0646\u067e\u0627\u0644",
        "official_name:fr": "R\u00e9publique d\u00e9mocratique f\u00e9d\u00e9rale du N\u00e9pal",
        "official_name:gn": "Nepal Tavakuairet\u00e3 \u00d1embyatypyre Jekopytyjoj\u00e1va",
        "official_name:ne": "\u0938\u0919\u094d\u0918\u0940\u092f \u0932\u094b\u0915\u0924\u093e\u0928\u094d\u0924\u094d\u0930\u093f\u0915 \u0917\u0923\u0924\u0928\u094d\u0924\u094d\u0930 \u0928\u0947\u092a\u093e\u0932",
        "official_name:pl": "Federalna Demokratyczna Republika Nepalu",
        "official_name:pt": "Rep\u00fablica Democr\u00e1tica Federal do Nepal",
        "official_name:ru": "\u0424\u0435\u0434\u0435\u0440\u0430\u0442\u0438\u0432\u043d\u0430\u044f \u0414\u0435\u043c\u043e\u043a\u0440\u0430\u0442\u0438\u0447\u0435\u0441\u043a\u0430\u044f \u0420\u0435\u0441\u043f\u0443\u0431\u043b\u0438\u043a\u0430 \u041d\u0435\u043f\u0430\u043b",
        "official_name:ur": "\u0648\u0641\u0627\u0642\u06cc \u062c\u0645\u06c1\u0648\u0631\u06cc \u062c\u0645\u06c1\u0648\u0631\u06cc\u06c1 \u0646\u06cc\u067e\u0627\u0644",
        "timezone": "Asia/Kathmandu",
        "type": "boundary",
        "wikidata": "Q837",
        "wikipedia": "en:Nepal"
      }
    },
    {
      "type": "relation",
      "id": 10488187,
      "tags": {
        "ISO3166-2": "NP-P7",
        "admin_level": "4",
        "alt_name": "Sudurpashchim Pradesh",
        "boundary": "administrative",
        "name": "\u0938\u0941\u0926\u0942\u0930\u092a\u0936\u094d\u091a\u093f\u092e \u092a\u094d\u0930\u0926\u0947\u0936",
        "name:bh": "\u0938\u0941\u0926\u0942\u0930 \u092a\u091a\u094d\u091b\u093f\u092e \u092a\u094d\u0930\u0926\u0947\u0936",
        "name:bn": "\u09b8\u09c1\u09a6\u09c2\u09b0\u09aa\u09b6\u09cd\u099a\u09bf\u09ae \u09aa\u09cd\u09b0\u09a6\u09c7\u09b6",
        "name:ckb": "\u067e\u0627\u0631\u06ce\u0632\u06af\u0627\u06cc \u0633\u0648\u062f\u0648\u0631\u067e\u0627\u0634\u0686\u06cc\u0645",
        "name:de": "Provinz Sudurpashchim",
        "name:dty": "\u0938\u0941\u0926\u0942\u0930\u092a\u0936\u094d\u091a\u093f\u092e \u092a\u094d\u0930\u0926\u0947\u0936",
        "name:en": "Sudurpashchim Province",
        "name:es": "Provincia de Sudurpashchim",
        "name:fa": "\u0633\u0648\u062f\u0648\u0631\u067e\u0627\u0634\u0686\u06cc\u0645 \u067e\u0631\u0627\u062f\u0634",
        "name:fr": "Sudurpashchim",
        "name:hi": "\u0938\u0941\u0926\u0942\u0930\u092a\u0936\u094d\u091a\u093f\u092e \u092a\u094d\u0930\u0926\u0947\u0936",
        "name:id": "Sudurpashchim",
        "name:it": "Sudurpashchim Pradesh",
        "name:ja": "\u30b9\u30c9\u30a5\u30d1\u30b7\u30e5\u30c1\u30e0\u5dde",
        "name:mai": "\u0938\u0941\u0926\u0942\u0930\u092a\u0936\u094d\u091a\u093f\u092e \u092a\u094d\u0930\u0926\u0947\u0936",
        "name:nan": "Sudurpashchim S\u00e9ng",
        "name:ne": "\u0938\u0941\u0926\u0942\u0930\u092a\u0936\u094d\u091a\u093f\u092e \u092a\u094d\u0930\u0926\u0947\u0936",
        "name:oc": "Sudurpashchim Pradesh",
        "name:pnb": "\u0633\u062f\u0631\u067e\u0634\u0686\u0645 \u067e\u0631\u062f\u06cc\u0634",
        "name:ru": "\u0421\u0443\u0434\u0443\u0440\u043f\u0430\u0448\u0442\u0438\u043d-\u041f\u0440\u0430\u0434\u0435\u0448",
        "name:ta": "\u0ba4\u0bc2\u0bb0\u0bae\u0bc7\u0bb1\u0bcd\u0b95\u0bc1 \u0baa\u0bbf\u0bb0\u0ba4\u0bc7\u0b9a\u0bae\u0bcd",
        "name:tr": "Sudurpa\u015f\u00e7im",
        "name:tt": "\u0421\u0443\u0434\u0443\u0440\u043f\u0430\u0448\u0447\u0438\u043c \u041f\u0440\u0430\u0434\u0435\u0448",
        "name:ur": "\u0633\u062f\u0631\u067e\u0634\u0686\u0645 \u067e\u0631\u062f\u06cc\u0634",
        "name:wuu": "\u8fdc\u897f\u7701",
        "name:zh": "\u8fdc\u897f\u7701",
        "ref": "7",
        "type": "boundary",
        "wikidata": "Q25104019",
        "wikipedia": "en:Sudurpashchim Province"
      }
    },
    {
      "type": "relation",
      "id": 10489132,
      "tags": {
        "ISO3166-2": "NP-P1",
        "admin_level": "4",
        "alt_name:en": "Province No. 1",
        "boundary": "administrative",
        "name": "\u0915\u094b\u0936\u0940 \u092a\u094d\u0930\u0926\u0947\u0936",
        "name:bh": "\u0915\u094b\u0936\u0940 \u092a\u094d\u0930\u0926\u0947\u0936",
        "name:bn": "\u09aa\u09cd\u09b0\u09a6\u09c7\u09b6 \u09a8\u0982 \u09e7",
        "name:de": "Provinz Nr. 1",
        "name:en": "Koshi Province",
        "name:es": "Provincia N.\u00ba 1",
        "name:fa": "\u0627\u0633\u062a\u0627\u0646 \u0634\u0645\u0627\u0631\u0647 \u06f1",
        "name:fr": "Province n\u00b01",
        "name:hi": "\u0915\u094b\u0936\u0940 \u092a\u094d\u0930\u0926\u0947\u0936",
        "name:id": "Provinsi Nomor 1",
        "name:it": "Provincia No. 1",
        "name:ja": "\u7b2c\u4e00\u5dde",
        "name:ko": "1\ubc88\uc8fc",
        "name:mai": "\u0915\u094b\u0936\u0940 \u092a\u094d\u0930\u0926\u0947\u0936",
        "name:nan": "T\u0113 1 S\u00e9ng",
        "name:ne": "\u0915\u094b\u0936\u0940 \u092a\u094d\u0930\u0926\u0947\u0936",
        "name:pnb": "\u0635\u0648\u0628\u06c1 \u0646\u0645\u0628\u0631 1",
        "name:ru": "1-\u044f \u043f\u0440\u043e\u0432\u0438\u043d\u0446\u0438\u044f",
        "name:sat": "\u1c6f\u1c68\u1c5a\u1c6b\u1c6e\u1c65 \u1c6e\u1c5e \u1c51",
        "name:ta": "\u0ba8\u0bc7\u0baa\u0bbe\u0bb3 \u0bae\u0bbe\u0ba8\u0bbf\u0bb2 \u0b8e\u0ba3\u0bcd 1",
        "name:tr": "1 Nolu il",
        "name:tt": "1 \u043d\u0447\u0435 \u043d\u043e\u043c\u0435\u0440\u043b\u044b \u0412\u0438\u043b\u0430\u044f\u0442\u044c",
        "name:ur": "\u0635\u0648\u0628\u06c1 \u0646\u0645\u0628\u0631 1",
        "name:wuu": "\u7b2c\u4e00\u7701",
        "name:zh": "\u7b2c\u4e00\u7701",
        "type": "boundary",
        "wikidata": "Q25104008",
        "wikipedia": "en:Province No. 1"
      }
    },
    {
      "type": "relation",
      "id": 10489317,
      "tags": {
        "ISO3166-2": "NP-P3",
        "admin_level": "4",
        "alt_name": "Bagamati Pradesh",
        "boundary": "administrative",
        "name": "\u092c\u093e\u0917\u092e\u0924\u0940 \u092a\u094d\u0930\u0926\u0947\u0936",
        "name:bh": "\u092c\u093e\u0917\u092e\u0924\u0940 \u092a\u094d\u0930\u0926\u0947\u0936",
        "name:bn": "\u09ac\u09be\u0997\u09ae\u09a4\u09c0 \u09aa\u09cd\u09b0\u09a6\u09c7\u09b6",
        "name:ckb": "\u067e\u0627\u0631\u06ce\u0632\u06af\u0627\u06cc \u0628\u0627\u06af\u0645\u06d5\u062a\u06cc",
        "name:de": "Provinz Bagmati",
        "name:en": "Bagamati Province",
        "name:es": "Provincia de Bagmati",
        "name:fa": "\u0627\u0633\u062a\u0627\u0646 \u0634\u0645\u0627\u0631\u0647 \u06f3",
        "name:fr": "Bagmati",
        "name:hi": "\u092c\u093e\u0917\u092e\u0924\u0940 \u092a\u094d\u0930\u0926\u0947\u0936",
        "name:id": "Bagamati Pradesh",
        "name:it": "Bagamati Pradesh",
        "name:ja": "\u30d0\u30b0\u30de\u30c6\u30a3\u5dde",
        "name:ko": "\ubc14\uadf8\ub9c8\ud2f0\uc8fc",
        "name:mai": "\u092c\u093e\u0917\u092e\u0924\u0940 \u092a\u094d\u0930\u0926\u0947\u0936",
        "name:nan": "Bagmati S\u00e9ng",
        "name:ne": "\u092c\u093e\u0917\u092e\u0924\u0940 \u092a\u094d\u0930\u0926\u0947\u0936",
        "name:ru": "\u0411\u0430\u0433\u043c\u0430\u0442\u0438-\u041f\u0440\u0430\u0434\u0435\u0448",
        "name:ta": "\u0baa\u0bbe\u0b95\u0bcd\u0bae\u0ba4\u0bbf \u0bae\u0bbe\u0ba8\u0bbf\u0bb2\u0bae\u0bcd",
        "name:tr": "Bagamati",
        "name:wuu": "\u7b2c\u4e09\u7701",
        "name:zh": "\u5df4\u683c\u9a6c\u8482\u7701",
        "source:name": "https://myrepublica.nagariknetwork.com/news/province-3-to-be-named-bagmati-likely-capital-hetauda/",
        "type": "boundary",
        "wikidata": "Q25104015",
        "wikipedia": "en:Bagmati Province"
      }
    },
    {
      "type": "relation",
      "id": 10489318,
      "tags": {
        "ISO3166-2": "NP-P2",
        "admin_level": "4",
        "alt_name": "\u092e\u093f\u0925\u093f\u0932\u093e \u092a\u094d\u0930\u0926\u0947\u0936",
        "alt_name:en": "Mithila Province",
        "alt_name:ne": "\u092e\u093f\u0925\u093f\u0932\u093e \u092a\u094d\u0930\u0926\u0947\u0936",
        "boundary": "administrative",
        "is_in:country_code": "NP",
        "name": "\u092e\u0927\u0947\u0936 \u092a\u094d\u0930\u0926\u0947\u0936",
        "name:bh": "\u092e\u0927\u0947\u0936 \u092a\u094d\u0930\u0926\u0947\u0936",
        "name:bn": "\u09ae\u09a7\u09c7\u09b6 \u09aa\u09cd\u09b0\u09a6\u09c7\u09b6",
        "name:ckb": "\u067e\u0627\u0631\u06ce\u0632\u06af\u0627\u06cc \u0645\u0627\u062f\u06ce\u0634",
        "name:de": "Provinz Madhesh",
        "name:en": "Madhesh Province",
        "name:es": "Provincia Madhesh",
        "name:fa": "\u0627\u0633\u062a\u0627\u0646 \u0645\u0627\u062f\u06cc\u0634",
        "name:fr": "Madhesh",
        "name:hi": "\u092e\u0927\u0947\u0936 \u092a\u094d\u0930\u093e\u0928\u094d\u0924",
        "name:id": "Provinsi Nomor 2",
        "name:it": "Provincia No. 2",
        "name:ja": "\u30de\u30c7\u30b7\u5dde",
        "name:ko": "2\ubc88\uc8fc",
        "name:mai": "\u092e\u0927\u0947\u0936 \u092a\u094d\u0930\u0926\u0947\u0936",
        "name:nan": "T\u0113 2 S\u00e9ng",
        "name:ne": "\u092e\u0927\u0947\u0936 \u092a\u094d\u0930\u0926\u0947\u0936",
        "name:ru": "\u041c\u0430\u0434\u0445\u0435\u0448",
        "name:ta": "\u0ba8\u0bc7\u0baa\u0bbe\u0bb3 \u0bae\u0bbe\u0ba8\u0bbf\u0bb2 \u0b8e\u0ba3\u0bcd 2",
        "name:tr": "Madhe\u015f",
        "name:tt": "2-\u0435\u043d\u0447\u0435 \u043d\u043e\u043c\u0435\u0440\u043b\u044b \u041f\u0440\u043e\u0432\u0438\u043d\u0446\u0438\u044f",
        "name:ur": "\u0645\u062f\u06be\u06cc\u0634 \u067e\u0631\u062f\u06cc\u0634",
        "name:wuu": "\u7b2c\u4e8c\u7701",
        "name:zh": "\u6469\u63d0\u820d\u7701",
        "type": "boundary",
        "wikidata": "Q25104009",
        "wikipedia": "en:Province No. 2"
      }
    },
    {
      "type": "relation",
      "id": 10489605,
      "tags": {
        "ISO3166-2": "NP-P4",
        "admin_level": "4",
        "alt_name": "Gandaki Pradesh",
        "alt_name:en": "Gandaki Province",
        "boundary": "administrative",
        "name": "\u0917\u0923\u094d\u0921\u0915\u0940 \u092a\u094d\u0930\u0926\u0947\u0936",
        "name:bh": "\u0917\u0923\u094d\u0921\u0915\u0940 \u092a\u094d\u0930\u0926\u0947\u0936",
        "name:bn": "\u0997\u09a3\u09cd\u09a1\u0995\u09c0 \u09aa\u09cd\u09b0\u09a6\u09c7\u09b6",
        "name:de": "Provinz Gandaki",
        "name:dty": "\u0917\u0923\u094d\u0921\u0915\u0940 \u092a\u094d\u0930\u0926\u0947\u0936",
        "name:en": "Gandaki Province",
        "name:es": "Provincia de Gandaki",
        "name:fa": "\u06af\u0627\u0646\u062f\u0627\u06a9\u06cc \u067e\u0631\u0627\u062f\u0634",
        "name:fr": "Gandaki",
        "name:hi": "\u0917\u0923\u094d\u0921\u0915\u0940 \u092a\u094d\u0930\u0926\u0947\u0936",
        "name:it": "Gandaki Pradesh",
        "name:ja": "\u30ac\u30f3\u30c0\u30ad\u5dde",
        "name:ko": "\uac04\ub2e4\ud0a4\uc8fc",
        "name:mai": "\u0917\u0923\u094d\u0921\u0915\u0940 \u092a\u094d\u0930\u0926\u0947\u0936",
        "name:nan": "Gandaki S\u00e9ng",
        "name:ne": "\u0917\u0923\u094d\u0921\u0915\u0940 \u092a\u094d\u0930\u0926\u0947\u0936",
        "name:pl": "Prowincja 4",
        "name:pnb": "\u06af\u0646\u062f\u0627\u06a9\u06cc \u067e\u0631\u062f\u06cc\u0634",
        "name:pt": "Gandaki Pradesh",
        "name:ru": "\u0413\u0430\u043d\u0434\u0430\u043a\u0438-\u041f\u0440\u0430\u0434\u0435\u0448",
        "name:sat": "\u1c5c\u1c5a\u1c71\u1c70\u1c5a\u1c60\u1c64 \u1c6f\u1c68\u1c5a\u1c6b\u1c6e\u1c65",
        "name:ta": "\u0b95\u0ba3\u0bcd\u0b9f\u0b95\u0bbf \u0baa\u0bbf\u0bb0\u0ba4\u0bc7\u0b9a\u0bae\u0bcd",
        "name:tr": "Gandaki",
        "name:tt": "\u0413\u0430\u043d\u0434\u0430\u043a\u0438 \u041f\u0440\u0430\u0434\u0435\u0448",
        "name:ur": "\u06af\u0646\u062f\u0627\u06a9\u06cc \u067e\u0631\u062f\u06cc\u0634",
        "name:wuu": "\u7518\u8fbe\u57fa\u7701",
        "name:zh": "\u7518\u8fbe\u57fa\u7701",
        "ref": "4",
        "type": "boundary",
        "wikidata": "Q25104016",
        "wikipedia": "en:Gandaki Pradesh"
      }
    },
    {
      "type": "relation",
      "id": 10493722,
      "tags": {
        "ISO3166-2": "NP-P5",
        "admin_level": "4",
        "boundary": "administrative",
        "name": "\u0932\u0941\u092e\u094d\u092c\u093f\u0928\u0940 \u092a\u094d\u0930\u0926\u0947\u0936",
        "name:bh": "\u0932\u0941\u092e\u094d\u092c\u093f\u0928\u0940 \u092a\u094d\u0930\u0926\u0947\u0936",
        "name:bn": "\u09b2\u09c1\u09ae\u09cd\u09ac\u09bf\u09a8\u09c0 \u09aa\u09cd\u09b0\u09a6\u09c7\u09b6",
        "name:ckb": "\u067e\u0627\u0631\u06ce\u0632\u06af\u0627\u06cc \u0644\u0648\u0645\u0628\u06cc\u0646\u06cc",
        "name:de": "Provinz Lumbini",
        "name:dty": "\u0932\u0941\u092e\u094d\u092c\u093f\u0928\u0940 \u092a\u094d\u0930\u0926\u0947\u0936",
        "name:en": "Lumbini Province",
        "name:es": "Provincia de Lumbini",
        "name:fa": "\u0627\u0633\u062a\u0627\u0646 \u0634\u0645\u0627\u0631\u0647 \u06f5",
        "name:fr": "Lumbini",
        "name:hi": "\u0932\u0941\u092e\u094d\u092c\u093f\u0928\u0940 \u092a\u094d\u0930\u0926\u0947\u0936",
        "name:id": "Provinsi Nomor 5",
        "name:it": "Provincia No. 5",
        "name:ja": "\u30eb\u30f3\u30d3\u30cb\u5dde",
        "name:ko": "\ub8f8\ube44\ub2c8\uc8fc",
        "name:mai": "\u0932\u0941\u092e\u094d\u092c\u093f\u0928\u0940 \u092a\u094d\u0930\u0926\u0947\u0936",
        "name:nan": "Lumbini S\u00e9ng",
        "name:ne": "\u0932\u0941\u092e\u094d\u092c\u093f\u0928\u0940 \u092a\u094d\u0930\u0926\u0947\u0936",
        "name:pt": "Prov\u00edncia de Lumbini",
        "name:ru": "\u041b\u0443\u043c\u0431\u0438\u043d\u0438-\u041f\u0440\u0430\u0434\u0435\u0448",
        "name:sat": "\u1c5e\u1c69\u1c62\u1c75\u1c64\u1c71\u1c64 \u1c6f\u1c68\u1c5a\u1c6b\u1c6e\u1c65",
        "name:ta": "\u0bb2\u0bc1\u0bae\u0bcd\u0baa\u0bbf\u0ba9\u0bbf \u0bae\u0bbe\u0ba8\u0bbf\u0bb2\u0bae\u0bcd",
        "name:tr": "Lumbini",
        "name:tt": "5 \u043d\u0447\u0435 \u043d\u043e\u043c\u0435\u0440\u043b\u044b \u0412\u0438\u043b\u0430\u044f\u0442\u044c",
        "name:wuu": "\u7b2c\u4e94\u7701",
        "name:zh": "\u84dd\u6bd7\u5c3c\u7701",
        "type": "boundary",
        "wikidata": "Q25104014",
        "wikipedia": "en:Province No. 5"
      }
    },
    {
      "type": "relation",
      "id": 10493723,
      "tags": {
        "ISO3166-2": "NP-P6",
        "admin_level": "4",
        "alt_name": "Karnali Pradesh",
        "alt_name:en": "Karnali Province",
        "boundary": "administrative",
        "name": "\u0915\u0930\u094d\u0923\u093e\u0932\u0940 \u092a\u094d\u0930\u0926\u0947\u0936",
        "name:bh": "\u0915\u0930\u094d\u0923\u093e\u0932\u0940 \u092a\u094d\u0930\u0926\u0947\u0936",
        "name:bn": "\u0995\u09b0\u09cd\u09a3\u09be\u09b2\u09c0 \u09aa\u09cd\u09b0\u09a6\u09c7\u09b6",
        "name:ckb": "\u067e\u0627\u0631\u06ce\u0632\u06af\u0627\u06cc \u06a9\u0627\u0631\u0646\u0627\u06b5\u06cc",
        "name:de": "Provinz Karnali",
        "name:en": "Karnali Province",
        "name:es": "Provincia de Karnali",
        "name:fa": "\u06a9\u0627\u0631\u0646\u0627\u0644\u06cc \u067e\u0631\u0627\u062f\u0634",
        "name:fr": "Karnali",
        "name:hi": "\u0915\u0930\u094d\u0923\u093e\u0932\u0940 \u092a\u094d\u0930\u0926\u0947\u0936",
        "name:it": "Karnali Pradesh",
        "name:ja": "\u30ab\u30eb\u30ca\u30ea\u5dde",
        "name:ko": "\uce74\ub974\ub0a0\ub9ac\uc8fc",
        "name:mai": "\u0915\u0930\u094d\u0923\u093e\u0932\u0940 \u092a\u094d\u0930\u0926\u0947\u0936",
        "name:ml": "\u0d15\u0d7c\u0d23\u0d32\u0d3f \u0d2a\u0d4d\u0d30\u0d26\u0d47\u0d36\u0d4d",
        "name:nan": "Karnali S\u00e9ng",
        "name:ne": "\u0915\u0930\u094d\u0923\u093e\u0932\u0940 \u092a\u094d\u0930\u0926\u0947\u0936",
        "name:oc": "Karnali Pradesh",
        "name:ru": "\u041a\u0430\u0440\u043d\u0430\u043b\u0438-\u041f\u0440\u0430\u0434\u0435\u0448",
        "name:ta": "\u0b95\u0bb0\u0bcd\u0ba3\u0bbe\u0bb2\u0bbf \u0baa\u0bbf\u0bb0\u0ba4\u0bc7\u0b9a\u0bae\u0bcd",
        "name:tr": "Karnali",
        "name:tt": "\u041a\u0430\u0440\u043d\u0430\u043b\u0438 \u041f\u0440\u0430\u0434\u0435\u0448",
        "name:wuu": "\u683c\u5c14\u7eb3\u5229\u7701",
        "name:zh": "\u683c\u5c14\u7eb3\u5229\u7701",
        "ref": "6",
        "type": "boundary",
        "wikidata": "Q25104017",
        "wikipedia": "en:Karnali Province"
      }
    },
    {
      "type": "rel",
      "id": 4586285,
      "tags": {
        "admin_level": "6",
        "boundary": "administrative",
        "int_name": "Achham",
        "name": "\u0905\u091b\u093e\u092e",
        "name:de": "Achham",
        "name:en": "Achham",
        "name:ja": "\u30a2\u30c1\u30e3\uff0d\u30e0",
        "name:ne": "\u0905\u091b\u093e\u092e",
        "type": "boundary",
        "wikidata": "Q28426",
        "wikipedia": "en:Achham District",
        "parent_id": "10488187"
      }
    },
    {
      "type": "rel",
      "id": 4586286,
      "tags": {
        "admin_level": "6",
        "boundary": "administrative",
        "name": "\u0915\u091e\u094d\u091a\u0928\u092a\u0941\u0930 \u091c\u093f\u0932\u094d\u0932\u093e",
        "name:de": "Distrikt Kanchanpur",
        "name:en": "Kanchanpur District",
        "name:es": "Distrito de Kanchanpur",
        "name:ja": "\u30ab\u30f3\u30c1\u30e3\u30f3\u30d7\u30eb",
        "name:ne": "\u0915\u091e\u094d\u091a\u0928\u092a\u0941\u0930 \u091c\u093f\u0932\u094d\u0932\u093e",
        "name:pnb": "\u0636\u0644\u0639 \u06a9\u0646\u0686\u06be\u0646\u067e\u0648\u0631",
        "name:ur": "\u06a9\u0646\u0686\u0646\u067e\u0648\u0631 \u0636\u0644\u0639",
        "type": "boundary",
        "wikidata": "Q28981",
        "wikipedia": "ne:\u0915\u091e\u094d\u091a\u0928\u092a\u0941\u0930 \u091c\u093f\u0932\u094d\u0932\u093e",
        "parent_id": "10488187"
      }
    },
    {
      "type": "rel",
      "id": 4586287,
      "tags": {
        "admin_level": "6",
        "boundary": "administrative",
        "int_name": "Kailali",
        "name": "\u0915\u0948\u0932\u093e\u0932\u0940",
        "name:en": "Kailali",
        "name:ja": "\u30ab\u30a4\u30e9\u30ea",
        "name:ne": "\u0915\u0948\u0932\u093e\u0932\u0940",
        "type": "boundary",
        "wikidata": "Q28153",
        "wikipedia": "en:Kailali District",
        "parent_id": "10488187"
      }
    },
    {
      "type": "rel",
      "id": 4586288,
      "tags": {
        "admin_level": "6",
        "boundary": "administrative",
        "int_name": "Dadeldhura",
        "name": "\u0921\u0921\u0947\u0932\u0927\u0941\u0930\u093e",
        "name:en": "Dadeldhura",
        "name:ja": "\u30c0\u30f3\u30c7\u30eb\u30c9\u30a5\u30e9",
        "name:ne": "\u0921\u0921\u0947\u0932\u0927\u0941\u0930\u093e",
        "name:uk": "\u0414\u0430\u0434\u0435\u043b\u0434\u0433\u0443\u0440\u0430",
        "type": "boundary",
        "wikidata": "Q28594",
        "wikipedia": "en:Dadeldhura District",
        "parent_id": "10488187"
      }
    },
    {
      "type": "rel",
      "id": 4586289,
      "tags": {
        "admin_level": "6",
        "boundary": "administrative",
        "int_name": "Doti",
        "name": "\u0921\u094b\u091f\u0940",
        "name:en": "Doti",
        "name:ja": "\u30c9\u30fc\u30c6\u30a3",
        "name:ne": "\u0921\u094b\u091f\u0940",
        "type": "boundary",
        "wikidata": "Q28600",
        "wikipedia": "en:Doti District",
        "parent_id": "10488187"
      }
    },
    {
      "type": "rel",
      "id": 4586290,
      "tags": {
        "admin_level": "6",
        "boundary": "administrative",
        "int_name": "Darchula",
        "name": "\u0926\u093e\u0930\u094d\u091a\u0941\u0932\u093e",
        "name:en": "Darchula District (Nepal)",
        "name:ja": "\u30c0\u30eb\u30c1\u30e5\u30e9",
        "name:ne": "\u0926\u093e\u0930\u094d\u091a\u0941\u0932\u093e",
        "type": "boundary",
        "wikidata": "Q28601",
        "wikipedia": "en:Darchula District",
        "parent_id": "10488187"
      }
    },
    {
      "type": "rel",
      "id": 4586291,
      "tags": {
        "admin_level": "6",
        "boundary": "administrative",
        "int_name": "Bajhang",
        "name": "\u092c\u091d\u093e\u0919",
        "name:en": "Bajhang",
        "name:ja": "\u30d0\u30b8\u30e3\u30f3",
        "name:ne": "\u092c\u091d\u093e\u0919",
        "name:zh": "\u5df4\u7ae0",
        "type": "boundary",
        "wikidata": "Q28592",
        "wikipedia": "en:Bajhang District",
        "parent_id": "10488187"
      }
    },
    {
      "type": "rel",
      "id": 4586292,
      "tags": {
        "admin_level": "6",
        "boundary": "administrative",
        "int_name": "Bajura",
        "name": "\u092c\u093e\u091c\u0941\u0930\u093e",
        "name:en": "Bajura",
        "name:ja": "\u30d0\u30fc\u30b8\u30e5\u30e9",
        "name:ne": "\u092c\u093e\u091c\u0941\u0930\u093e",
        "type": "boundary",
        "wikidata": "Q28071",
        "wikipedia": "en:Bajura District",
        "parent_id": "10488187"
      }
    },
    {
      "type": "rel",
      "id": 4586293,
      "tags": {
        "admin_level": "6",
        "boundary": "administrative",
        "int_name": "Baitadi",
        "name": "\u092c\u0948\u0924\u0921\u0940",
        "name:en": "Baitadi",
        "name:ja": "\u30d0\u30a4\u30bf\u30c7\u30a3",
        "name:ne": "\u092c\u0948\u0924\u0921\u0940",
        "type": "boundary",
        "wikidata": "Q28076",
        "wikipedia": "en:Baitadi District",
        "parent_id": "10488187"
      }
    },
    {
      "type": "rel",
      "id": 4589462,
      "tags": {
        "admin_level": "6",
        "boundary": "administrative",
        "int_name": "Udayapur",
        "name": "\u0909\u0926\u092f\u092a\u0941\u0930 \u091c\u093f\u0932\u094d\u0932\u093e",
        "name:en": "Udayapur",
        "name:fa": "\u0646\u0627\u062d\u06cc\u0647 \u0627\u0648\u062f\u06cc\u200c\u067e\u0648\u0631",
        "name:ja": "\u30a6\u30c0\u30a4\u30d7\u30eb",
        "name:ne": "\u0909\u0926\u092f\u092a\u0941\u0930 \u091c\u093f\u0932\u094d\u0932\u093e",
        "name:pl": "Udayapur",
        "name:ur": "\u0627\u062f\u06d2 \u067e\u0648\u0631 \u0636\u0644\u0639",
        "type": "boundary",
        "wikidata": "Q28582",
        "wikipedia": "en:Udayapur District",
        "parent_id": "10489132"
      }
    },
    {
      "type": "rel",
      "id": 4589463,
      "tags": {
        "admin_level": "6",
        "boundary": "administrative",
        "int_name": "Okhaldhunga",
        "name": "\u0913\u0916\u0932\u0922\u0941\u0919\u094d\u0917\u093e \u091c\u093f\u0932\u094d\u0932\u093e",
        "name:en": "Okhaldhunga",
        "name:fa": "\u0646\u0627\u062d\u06cc\u0647 \u0627\u0648\u06a9\u0627\u0644\u062f\u0648\u0646\u06af\u0627",
        "name:ja": "\u30aa\u30ab\u30eb\u30c9\u30a5\u30f3\u30ac",
        "name:ne": "\u0913\u0916\u0932\u0922\u0941\u0919\u094d\u0917\u093e \u091c\u093f\u0932\u094d\u0932\u093e",
        "name:uk": "\u041e\u043a\u0433\u0430\u043b\u0434\u0433\u0443\u043d\u0491\u0430",
        "name:ur": "\u0627\u0648\u06a9\u06be\u0627\u0644\u062f\u06be\u0648\u0646\u06af\u0627 \u0636\u0644\u0639",
        "population": "147984",
        "population:date": "2011",
        "source:name:uk": "https://1drv.ms/b/s!Ar-WXIFaX7UdgQs-x7Qj83y_IvGR",
        "source:population": "Central Bureau of Statistics (CBS) Nepal",
        "type": "boundary",
        "wikidata": "Q29026",
        "wikipedia": "en:Okhaldhunga District",
        "parent_id": "10489132"
      }
    },
    {
      "type": "rel",
      "id": 4589464,
      "tags": {
        "admin_level": "6",
        "boundary": "administrative",
        "int_name": "Khotang",
        "name": "\u0916\u094b\u091f\u093e\u0919 \u091c\u093f\u0932\u094d\u0932\u093e",
        "name:en": "Khotang",
        "name:fa": "\u0646\u0627\u062d\u06cc\u0647 \u06a9\u0648\u062a\u0627\u0646\u06af",
        "name:ja": "\u30b3\u30fc\u30bf\u30f3",
        "name:ne": "\u0916\u094b\u091f\u093e\u0919 \u091c\u093f\u0932\u094d\u0932\u093e",
        "name:pl": "Khotang",
        "name:ur": "\u06a9\u06be\u0648\u0679\u0627\u0646\u06af \u0636\u0644\u0639",
        "type": "boundary",
        "wikidata": "Q28599",
        "wikipedia": "en:Khotang District",
        "parent_id": "10489132"
      }
    },
    {
      "type": "rel",
      "id": 4589465,
      "tags": {
        "admin_level": "6",
        "boundary": "administrative",
        "int_name": "Tehrathum",
        "name": "\u0924\u0947\u0939\u094d\u0930\u0925\u0941\u092e \u091c\u093f\u0932\u094d\u0932\u093e",
        "name:en": "Tehrathum",
        "name:fa": "\u0646\u0627\u062d\u06cc\u0647 \u062a\u0647\u0631\u0627\u062a\u0648\u0645",
        "name:ja": "\u30c6\u30e9\u30c8\u30a5\u30e0",
        "name:ne": "\u0924\u0947\u0939\u094d\u0930\u0925\u0941\u092e",
        "name:pl": "Tehrathum",
        "name:ur": "\u062a\u06cc\u06c1\u0631\u0627\u062a\u06be\u0648\u0645 \u0636\u0644\u0639",
        "type": "boundary",
        "wikidata": "Q28585",
        "wikipedia": "en:Tehrathum District",
        "parent_id": "10489132"
      }
    },
    {
      "type": "rel",
      "id": 4589466,
      "tags": {
        "admin_level": "6",
        "boundary": "administrative",
        "int_name": "Dhankuta",
        "name": "\u0927\u0928\u0915\u0941\u091f\u093e \u091c\u093f\u0932\u094d\u0932\u093e",
        "name:en": "Dhankuta",
        "name:fa": "\u0646\u0627\u062d\u06cc\u0647 \u062f\u0627\u0646\u06a9\u0648\u062a\u0627",
        "name:ja": "\u30c0\u30f3\u30af\u30bf",
        "name:ne": "\u0927\u0928\u0915\u0941\u091f\u093e",
        "name:pl": "Dhankuta",
        "name:ur": "\u062f\u06be\u0627\u0646\u06a9\u0648\u0679\u0627 \u0636\u0644\u0639",
        "type": "boundary",
        "wikidata": "Q28081",
        "wikipedia": "en:Dhankuta District",
        "parent_id": "10489132"
      }
    },
    {
      "type": "rel",
      "id": 4589467,
      "tags": {
        "admin_level": "6",
        "boundary": "administrative",
        "int_name": "Bhojpur",
        "name": "\u092d\u094b\u091c\u092a\u0941\u0930 \u091c\u093f\u0932\u094d\u0932\u093e",
        "name:en": "Bhojpur",
        "name:fa": "\u0646\u0627\u062d\u06cc\u0647 \u0628\u0648\u062c\u067e\u0648\u0631",
        "name:ja": "\u30dc\u30fc\u30b8\u30d7\u30eb",
        "name:ne": "\u092d\u094b\u091c\u092a\u0941\u0930 \u091c\u093f\u0932\u094d\u0932\u093e",
        "name:pl": "Bhojpur",
        "name:ur": "\u0628\u06be\u0648\u062c\u067e\u0648\u0631 \u0636\u0644\u0639",
        "type": "boundary",
        "wikidata": "Q2284812",
        "wikipedia": "en:Bhojpur District, Nepal",
        "parent_id": "10489132"
      }
    },
    {
      "type": "rel",
      "id": 4589468,
      "tags": {
        "admin_level": "6",
        "boundary": "administrative",
        "int_name": "Morang",
        "name": "\u092e\u094b\u0930\u0919 \u091c\u093f\u0932\u094d\u0932\u093e",
        "name:ar": "\u0645\u0648\u0631\u0646\u0643",
        "name:en": "Morang",
        "name:fa": "\u0646\u0627\u062d\u06cc\u0647 \u0645\u0648\u0631\u064e\u0646\u06af",
        "name:ja": "\u30e2\u30e9\u30f3",
        "name:ne": "\u092e\u094b\u0930\u0919 \u091c\u093f\u0932\u094d\u0932\u093e",
        "name:pl": "Morang",
        "name:ur": "\u0645\u0648\u0631\u064e\u0646\u06af \u0636\u0644\u0639",
        "note": "subarea: optional, disputed and redundant",
        "type": "boundary",
        "wikidata": "Q28083",
        "wikipedia": "en:Morang District",
        "parent_id": "10489132"
      }
    },
    {
      "type": "rel",
      "id": 4589469,
      "tags": {
        "admin_level": "6",
        "boundary": "administrative",
        "int_name": "Sankhuwasabha",
        "name": "\u0938\u0919\u094d\u0916\u0941\u0935\u093e\u0938\u092d\u093e \u091c\u093f\u0932\u094d\u0932\u093e",
        "name:en": "Sankhuwasabha",
        "name:fa": "\u0646\u0627\u062d\u06cc\u0647 \u0633\u0627\u0646\u06a9\u0648\u0648\u0627\u0633\u0627\u0628\u0627",
        "name:ja": "\u30b5\u30f3\u30af\u30ef\u30b5\u30d0\u30fc",
        "name:ne": "\u0938\u0919\u094d\u0916\u0941\u0935\u093e\u0938\u092d\u093e",
        "name:pl": "Sankhuwasabha",
        "name:ur": "\u0633\u0646\u06a9\u06be\u0648\u0627\u0633\u0628\u06be\u0627 \u0636\u0644\u0639",
        "type": "boundary",
        "wikidata": "Q28596",
        "wikipedia": "en:Sankhuwasabha District",
        "parent_id": "10489132"
      }
    },
    {
      "type": "rel",
      "id": 4589472,
      "tags": {
        "admin_level": "6",
        "boundary": "administrative",
        "int_name": "Sunsari",
        "name": "\u0938\u0941\u0928\u0938\u0930\u0940 \u091c\u093f\u0932\u094d\u0932\u093e",
        "name:ar": "\u0633\u0648\u0646\u0633\u0627\u0631\u064a",
        "name:en": "Sunsari",
        "name:fa": "\u0646\u0627\u062d\u06cc\u0647 \u0633\u0648\u0646\u0633\u064e\u0631\u06cc",
        "name:ja": "\u30b9\u30f3\u30b5\u30ea",
        "name:ne": "\u0938\u0941\u0928\u0938\u0930\u0940 \u091c\u093f\u0932\u094d\u0932\u093e",
        "name:pl": "Sunsari",
        "name:ur": "\u0633\u0648\u0646\u0633\u064e\u0631\u06cc \u0636\u0644\u0639",
        "type": "boundary",
        "wikidata": "Q28157",
        "wikipedia": "en:Sunsari District",
        "parent_id": "10489132"
      }
    },
    {
      "type": "rel",
      "id": 4589473,
      "tags": {
        "admin_level": "6",
        "boundary": "administrative",
        "int_name": "Solukhumbu",
        "name": "\u0938\u094b\u0932\u0941\u0916\u0941\u092e\u094d\u092c\u0941 \u091c\u093f\u0932\u094d\u0932\u093e",
        "name:en": "Solukhumbu",
        "name:fa": "\u0646\u0627\u062d\u06cc\u0647 \u0633\u0648\u0644\u0648\u06a9\u0648\u0645\u0628\u0648",
        "name:fr": "Solukhumbu",
        "name:ja": "\u30bd\u30eb\u30af\u30f3\u30d6",
        "name:ne": "\u0938\u094b\u0932\u0941\u0916\u0941\u092e\u094d\u092c\u0941 \u091c\u093f\u0932\u094d\u0932\u093e",
        "name:pl": "Solukhumbu",
        "name:ur": "\u0633\u0648\u0644\u0648 \u06a9\u06be\u0648\u0645\u0628\u0648 \u0636\u0644\u0639",
        "type": "boundary",
        "wikidata": "Q28363",
        "wikipedia": "en:Solukhumbu District",
        "parent_id": "10489132"
      }
    },
    {
      "type": "rel",
      "id": 4589476,
      "tags": {
        "admin_level": "6",
        "alt_name": "Ilam District",
        "boundary": "administrative",
        "int_name": "Ilam",
        "name": "\u0907\u0932\u093e\u092e \u091c\u093f\u0932\u094d\u0932\u093e",
        "name:en": "Ilam District",
        "name:fa": "\u0646\u0627\u062d\u06cc\u0647 \u0627\u06cc\u0644\u0627\u0645",
        "name:ja": "\u30a4\u30e9\u30fc\u30e0",
        "name:ne": "\u0907\u0932\u093e\u092e \u091c\u093f\u0932\u094d\u0932\u093e",
        "name:pl": "Ilam",
        "name:ur": "\u0627\u06cc\u0644\u0627\u0645 \u0636\u0644\u0639",
        "note": "subarea: optional, disputed and redundant",
        "type": "boundary",
        "wikidata": "Q29016",
        "wikipedia": "en:Ilam District",
        "parent_id": "10489132"
      }
    },
    {
      "type": "rel",
      "id": 4589478,
      "tags": {
        "admin_level": "6",
        "boundary": "administrative",
        "int_name": "Taplejung",
        "name": "\u0924\u093e\u092a\u094d\u0932\u0947\u091c\u0941\u0919 \u091c\u093f\u0932\u094d\u0932\u093e",
        "name:en": "Taplejung",
        "name:fa": "\u0646\u0627\u062d\u06cc\u0647 \u062a\u0627\u067e\u0644\u062c\u0648\u0646\u06af",
        "name:ja": "\u30bf\u30d7\u30ec\u30b8\u30e5\u30f3",
        "name:ne": "\u0924\u093e\u092a\u094d\u0932\u0947\u091c\u0941\u0919",
        "name:pl": "Taplejung",
        "name:ur": "\u062a\u0627\u067e\u0644\u06cc\u062c\u0648\u0646\u06af \u0636\u0644\u0639",
        "name:zh": "\u5854\u666e\u52d2\u743c\u53bf",
        "type": "boundary",
        "wikidata": "Q28590",
        "wikipedia": "en:Taplejung District",
        "parent_id": "10489132"
      }
    },
    {
      "type": "rel",
      "id": 4589479,
      "tags": {
        "admin_level": "6",
        "boundary": "administrative",
        "int_name": "Panchthar",
        "name": "\u092a\u093e\u0901\u091a\u0925\u0930 \u091c\u093f\u0932\u094d\u0932\u093e",
        "name:en": "Panchthar",
        "name:fa": "\u0646\u0627\u062d\u06cc\u0647 \u067e\u0627\u0646\u0686\u062a\u0631",
        "name:ja": "\u30d1\u30f3\u30c1\u30bf\u30eb",
        "name:ne": "\u092a\u093e\u0901\u091a\u0925\u0930 \u091c\u093f\u0932\u094d\u0932\u093e",
        "name:pl": "Panchthar",
        "name:ur": "\u067e\u0627\u0646\u0686\u062a\u06be\u0631 \u0636\u0644\u0639",
        "type": "boundary",
        "wikidata": "Q28155",
        "wikipedia": "en:Panchthar District",
        "parent_id": "10489132"
      }
    },
    {
      "type": "rel",
      "id": 7522458,
      "tags": {
        "admin_level": "6",
        "alt_name": "Jhapa District",
        "boundary": "administrative",
        "int_name": "Jhapa",
        "name": "\u091d\u093e\u092a\u093e \u091c\u093f\u0932\u094d\u0932\u093e",
        "name:en": "Jhapa",
        "name:fa": "\u0646\u0627\u062d\u06cc\u0647 \u062c\u0627\u067e\u0627",
        "name:ne": "\u091d\u093e\u092a\u093e \u091c\u093f\u0932\u094d\u0932\u093e",
        "name:pl": "Jhapa",
        "name:ur": "\u062c\u06be\u0627\u067e\u0627 \u0636\u0644\u0639",
        "type": "boundary",
        "wikidata": "Q28160",
        "wikipedia": "en:Jhapa District",
        "parent_id": "10489132"
      }
    },
    {
      "type": "rel",
      "id": 4589412,
      "tags": {
        "admin_level": "6",
        "boundary": "administrative",
        "int_name": "Dhanusha",
        "is_in:country_code": "NP",
        "name": "\u0927\u0928\u0941\u0937\u093e \u091c\u093f\u0932\u094d\u0932\u093e",
        "name:en": "Dhanusha",
        "name:fa": "\u0646\u0627\u062d\u06cc\u0647 \u062f\u064e\u0646\u0648\u0634\u0627",
        "name:ja": "\u30c0\u30cc\u30b7\u30e3",
        "name:ne": "\u0927\u0928\u0941\u0937\u093e \u091c\u093f\u0932\u094d\u0932\u093e",
        "name:pl": "Dhanusha",
        "name:ur": "\u062f\u06be\u0646\u0648\u0634\u0627 \u0636\u0644\u0639",
        "type": "boundary",
        "wikidata": "Q29036",
        "wikipedia": "ne:\u0927\u0928\u0941\u0937\u093e \u091c\u093f\u0932\u094d\u0932\u093e",
        "parent_id": "10489318"
      }
    },
    {
      "type": "rel",
      "id": 4589413,
      "tags": {
        "admin_level": "6",
        "boundary": "administrative",
        "int_name": "Parsa",
        "is_in:country_code": "NP",
        "name": "\u092a\u0930\u094d\u0938\u093e \u091c\u093f\u0932\u094d\u0932\u093e",
        "name:en": "Parsa",
        "name:fa": "\u0646\u0627\u062d\u06cc\u0647 \u067e\u064e\u0631\u0633\u0627",
        "name:ja": "\u30d1\u30eb\u30b5",
        "name:ne": "\u092a\u0930\u094d\u0938\u093e \u091c\u093f\u0932\u094d\u0932\u093e",
        "name:pl": "Parsa",
        "name:ur": "\u067e\u0631\u0633\u0627 \u0636\u0644\u0639",
        "type": "boundary",
        "wikidata": "Q28625",
        "wikipedia": "ne:\u092a\u0930\u094d\u0938\u093e \u091c\u093f\u0932\u094d\u0932\u093e",
        "parent_id": "10489318"
      }
    },
    {
      "type": "rel",
      "id": 4589414,
      "tags": {
        "admin_level": "6",
        "boundary": "administrative",
        "int_name": "Bara",
        "is_in:country_code": "NP",
        "name": "\u092c\u093e\u0930\u093e \u091c\u093f\u0932\u094d\u0932\u093e",
        "name:de": "Bara",
        "name:en": "Bara",
        "name:fa": "\u0646\u0627\u062d\u06cc\u0647 \u0628\u0627\u0631\u0627",
        "name:ja": "\u30d0\u30e9",
        "name:ne": "\u092c\u093e\u0930\u093e \u091c\u093f\u0932\u094d\u0932\u093e",
        "name:pl": "Bara",
        "name:ur": "\u0628\u0627\u0631\u0627 \u0636\u0644\u0639",
        "type": "boundary",
        "wikidata": "Q28608",
        "wikipedia": "en:Bara District",
        "parent_id": "10489318"
      }
    },
    {
      "type": "rel",
      "id": 4589416,
      "tags": {
        "admin_level": "6",
        "boundary": "administrative",
        "int_name": "Mahottari",
        "is_in:country_code": "NP",
        "name": "\u092e\u0939\u094b\u0924\u094d\u0924\u0930\u0940",
        "name:en": "Mahottari",
        "name:ja": "\u30de\u30db\u30c3\u30bf\u30ea",
        "name:ne": "\u092e\u0939\u094b\u0924\u094d\u0924\u0930\u0940",
        "type": "boundary",
        "wikidata": "Q28618",
        "wikipedia": "ne:\u092e\u0939\u094b\u0924\u094d\u0924\u0930\u0940 \u091c\u093f\u0932\u094d\u0932\u093e",
        "parent_id": "10489318"
      }
    },
    {
      "type": "rel",
      "id": 4589418,
      "tags": {
        "admin_level": "6",
        "boundary": "administrative",
        "int_name": "Rautahat",
        "is_in:country_code": "NP",
        "name": "\u0930\u094c\u0924\u0939\u091f \u091c\u093f\u0932\u094d\u0932\u093e",
        "name:en": "Rautahat",
        "name:fa": "\u0646\u0627\u062d\u06cc\u0647 \u0631\u0627\u0648\u062a\u064e\u0647\u064e\u062a",
        "name:ja": "\u30e9\u30a6\u30bf\u30cf\u30c8",
        "name:ne": "\u0930\u094c\u0924\u0939\u091f \u091c\u093f\u0932\u094d\u0932\u093e",
        "name:pl": "Rautahat",
        "name:ur": "\u0631\u0648\u062a\u06c1\u0679 \u0636\u0644\u0639",
        "type": "boundary",
        "wikidata": "Q28098",
        "wikipedia": "ne:\u0930\u094c\u0924\u0939\u091f \u091c\u093f\u0932\u094d\u0932\u093e",
        "parent_id": "10489318"
      }
    },
    {
      "type": "rel",
      "id": 4589419,
      "tags": {
        "admin_level": "6",
        "boundary": "administrative",
        "int_name": "Sarlahi",
        "is_in:country_code": "NP",
        "name": "\u0938\u0930\u094d\u0932\u093e\u0939\u0940 \u091c\u093f\u0932\u094d\u0932\u093e",
        "name:en": "Sarlahi",
        "name:fa": "\u0646\u0627\u062d\u06cc\u0647 \u0633\u0631\u0644\u0627\u0647\u06cc",
        "name:ja": "\u30b5\u30eb\u30e9\u30d2",
        "name:ne": "\u0938\u0930\u094d\u0932\u093e\u0939\u0940 \u091c\u093f\u0932\u094d\u0932\u093e",
        "name:ur": "\u0633\u0631\u0644\u0627\u06c1\u06cc \u0636\u0644\u0639",
        "type": "boundary",
        "wikidata": "Q28074",
        "wikipedia": "ne:\u0938\u0930\u094d\u0932\u093e\u0939\u0940 \u091c\u093f\u0932\u094d\u0932\u093e",
        "parent_id": "10489318"
      }
    },
    {
      "type": "rel",
      "id": 4589470,
      "tags": {
        "admin_level": "6",
        "boundary": "administrative",
        "int_name": "Saptari",
        "is_in:country_code": "NP",
        "name": "\u0938\u092a\u094d\u0924\u0930\u0940 \u091c\u093f\u0932\u094d\u0932\u093e",
        "name:en": "Saptari",
        "name:fa": "\u0646\u0627\u062d\u06cc\u0647 \u0633\u067e\u062a\u0627\u0631\u06cc",
        "name:ja": "\u30b5\u30d7\u30bf\u30ea",
        "name:ne": "\u0938\u092a\u094d\u0924\u0930\u0940 \u091c\u093f\u0932\u094d\u0932\u093e",
        "name:pl": "Saptari",
        "name:ur": "\u0633\u067e\u062a\u0627\u0631\u06cc \u0636\u0644\u0639",
        "type": "boundary",
        "wikidata": "Q28613",
        "wikipedia": "en:Saptari District",
        "parent_id": "10489318"
      }
    },
    {
      "type": "rel",
      "id": 4589471,
      "tags": {
        "admin_level": "6",
        "boundary": "administrative",
        "int_name": "Siraha",
        "is_in:country_code": "NP",
        "name": "\u0938\u093f\u0930\u093e\u0939\u093e \u091c\u093f\u0932\u094d\u0932\u093e",
        "name:en": "Siraha",
        "name:fa": "\u0646\u0627\u062d\u06cc\u0647 \u0633\u06cc\u0631\u0627\u0647\u0627",
        "name:ja": "\u30b7\u30e9\u30cf",
        "name:ne": "\u0938\u093f\u0930\u093e\u0939\u093e \u091c\u093f\u0932\u094d\u0932\u093e",
        "name:pl": "Siraha",
        "name:ur": "\u0633\u06cc\u0631\u0627\u06c1\u0627 \u0636\u0644\u0639",
        "type": "boundary",
        "wikidata": "Q28088",
        "wikipedia": "en:Siraha District",
        "parent_id": "10489318"
      }
    },
    {
      "type": "rel",
      "id": 4588143,
      "tags": {
        "admin_level": "6",
        "boundary": "administrative",
        "int_name": "Parbat",
        "name": "\u092a\u0930\u094d\u0935\u0924",
        "name:en": "Parbat",
        "name:ja": "\u30d1\u30eb\u30d0\u30c8",
        "name:ne": "\u092a\u0930\u094d\u0935\u0924",
        "type": "boundary",
        "wikidata": "Q28421",
        "wikipedia": "en:Parbat District",
        "parent_id": "10489605"
      }
    },
    {
      "type": "rel",
      "id": 4588144,
      "tags": {
        "admin_level": "6",
        "boundary": "administrative",
        "int_name": "Baglung",
        "name": "\u092c\u093e\u0917\u0932\u0941\u0919",
        "name:en": "Baglung",
        "name:ja": "\u30d0\u30b0\u30eb\u30f3",
        "name:ne": "\u092c\u093e\u0917\u0932\u0941\u0919",
        "type": "boundary",
        "wikidata": "Q28162",
        "wikipedia": "en:Baglung District",
        "parent_id": "10489605"
      }
    },
    {
      "type": "rel",
      "id": 4588145,
      "tags": {
        "admin_level": "6",
        "boundary": "administrative",
        "int_name": "Mustang",
        "name": "\u092e\u0941\u0938\u094d\u0924\u093e\u0919",
        "name:en": "Mustang",
        "name:ja": "\u30e0\u30b9\u30bf\u30f3",
        "name:ne": "\u092e\u0941\u0938\u094d\u0924\u093e\u0919",
        "name:zh": "\u6728\u65af\u5858",
        "type": "boundary",
        "wikidata": "Q2239575",
        "wikipedia": "en:Mustang District",
        "parent_id": "10489605"
      }
    },
    {
      "type": "rel",
      "id": 4588146,
      "tags": {
        "admin_level": "6",
        "boundary": "administrative",
        "int_name": "Myagdi",
        "name": "\u092e\u094d\u092f\u093e\u0917\u094d\u0926\u0940",
        "name:en": "Myagdi",
        "name:ja": "\u30df\u30e3\u30b0\u30c7\u30a3",
        "name:ne": "\u092e\u094d\u092f\u093e\u0917\u094d\u0926\u0940",
        "type": "boundary",
        "wikidata": "Q28624",
        "wikipedia": "en:Myagdi District",
        "parent_id": "10489605"
      }
    },
    {
      "type": "rel",
      "id": 4588149,
      "tags": {
        "admin_level": "6",
        "boundary": "administrative",
        "int_name": "Kaski",
        "name": "\u0915\u093e\u0938\u094d\u0915\u0940",
        "name:en": "Kaski",
        "name:ja": "\u30ab\u30b9\u30ad",
        "name:ne": "\u0915\u093e\u0938\u094d\u0915\u0940",
        "name:pl": "Kaski",
        "type": "boundary",
        "wikidata": "Q28436",
        "wikipedia": "en:Kaski District",
        "parent_id": "10489605"
      }
    },
    {
      "type": "rel",
      "id": 4588150,
      "tags": {
        "admin_level": "6",
        "boundary": "administrative",
        "int_name": "Gorkha",
        "name": "\u0917\u094b\u0930\u0916\u093e",
        "name:de": "Gorkha",
        "name:en": "Gorkha",
        "name:ja": "\u30b4\u30eb\u30ab",
        "name:ne": "\u0917\u094b\u0930\u0916\u093e",
        "name:pl": "Gorkha",
        "type": "boundary",
        "wikidata": "Q28476",
        "wikipedia": "en:Gorkha District",
        "parent_id": "10489605"
      }
    },
    {
      "type": "rel",
      "id": 4588151,
      "tags": {
        "admin_level": "6",
        "boundary": "administrative",
        "int_name": "Tanahun",
        "name": "\u0924\u0928\u0939\u0941\u0901",
        "name:en": "Tanahun",
        "name:ja": "\u30bf\u30ca\u30d5\u30f3",
        "name:ne": "\u0924\u0928\u0939\u0941\u0901 \u091c\u093f\u0932\u094d\u0932\u093e",
        "name:pl": "Tanahun",
        "type": "boundary",
        "wikidata": "Q28446",
        "wikipedia": "en:Tanahun District",
        "parent_id": "10489605"
      }
    },
    {
      "type": "rel",
      "id": 4588152,
      "tags": {
        "admin_level": "6",
        "boundary": "administrative",
        "int_name": "Manang",
        "name": "\u092e\u0928\u093e\u0919",
        "name:en": "Manang",
        "name:ja": "\u30de\u30ca\u30f3",
        "name:ne": "\u092e\u0928\u093e\u0919",
        "name:pl": "Manang",
        "type": "boundary",
        "wikidata": "Q28434",
        "wikipedia": "en:Manang District, Nepal",
        "parent_id": "10489605"
      }
    },
    {
      "type": "rel",
      "id": 4588153,
      "tags": {
        "admin_level": "6",
        "boundary": "administrative",
        "int_name": "Lamjung",
        "name": "\u0932\u092e\u091c\u0941\u0919",
        "name:en": "Lamjung",
        "name:ja": "\u30e9\u30e0\u30b8\u30e5\u30f3",
        "name:ne": "\u0932\u092e\u091c\u0941\u0919",
        "name:pl": "Lamjung",
        "type": "boundary",
        "wikidata": "Q29275",
        "wikipedia": "en:Lamjung District",
        "parent_id": "10489605"
      }
    },
    {
      "type": "rel",
      "id": 5691338,
      "tags": {
        "admin_level": "6",
        "boundary": "administrative",
        "int_name": "Syangja",
        "name": "\u0938\u094d\u092f\u093e\u0919\u094d\u091c\u093e",
        "name:en": "Syangja",
        "name:ja": "\u30b7\u30e3\u30f3\u30b6",
        "name:ne": "\u0938\u094d\u092f\u093e\u0919\u094d\u091c\u093e",
        "name:pl": "Syangja",
        "type": "boundary",
        "wikidata": "Q28448",
        "wikipedia": "en:Syangja District",
        "parent_id": "10489605"
      }
    },
    {
      "type": "rel",
      "id": 10489606,
      "tags": {
        "admin_level": "6",
        "alt_name": "Nawalparasi E",
        "boundary": "administrative",
        "name": "Nawalpur District",
        "name:en": "Nawalpur District",
        "name:ne": "\u0928\u0935\u0932\u092a\u0941\u0930 \u091c\u093f\u0932\u094d\u0932\u093e",
        "type": "boundary",
        "wikidata": "Q50822475",
        "wikipedia": "en:Nawalpur District",
        "parent_id": "10489605"
      }
    },
    {
      "type": "rel",
      "id": 4586049,
      "tags": {
        "admin_level": "6",
        "boundary": "administrative",
        "int_name": "Rupandehi",
        "name": "\u0930\u0941\u092a\u0928\u094d\u0926\u0947\u0939\u0940",
        "name:en": "Rupandehi",
        "name:ja": "\u30eb\u30d1\u30f3\u30c7\u30d2",
        "name:ne": "\u0930\u0941\u092a\u0928\u094d\u0926\u0947\u0939\u0940",
        "name:uk": "\u0420\u0443\u043f\u0430\u043d\u0434\u0435\u0433\u0456 \u0440\u0430\u0439\u043e\u043d",
        "source": "www.mofald.gov.np",
        "type": "boundary",
        "wikidata": "Q28438",
        "wikipedia": "en:Rupandehi District",
        "parent_id": "10493722"
      }
    },
    {
      "type": "rel",
      "id": 4586360,
      "tags": {
        "admin_level": "6",
        "boundary": "administrative",
        "int_name": "Dang",
        "name": "\u0926\u093e\u0919",
        "name:en": "Dang",
        "name:ja": "\u30c0\u30f3",
        "name:ne": "\u0926\u093e\u0919 \u0926\u0947\u0909\u0916\u0941\u0930\u0940",
        "name:ru": "\u0414\u0430\u043d\u0433",
        "type": "boundary",
        "wikidata": "Q28066",
        "wikipedia": "en:Dang District, Nepal",
        "parent_id": "10493722"
      }
    },
    {
      "type": "rel",
      "id": 4586362,
      "tags": {
        "admin_level": "6",
        "boundary": "administrative",
        "int_name": "Pyuthan",
        "name": "\u092a\u094d\u092f\u0941\u0920\u093e\u0928",
        "name:en": "Pyuthan",
        "name:ja": "\u30d4\u30e5\u30fc\u30bf\u30f3",
        "name:ne": "\u092a\u094d\u092f\u0941\u0920\u093e\u0928",
        "type": "boundary",
        "wikidata": "Q28094",
        "wikipedia": "en:Pyuthan District",
        "parent_id": "10493722"
      }
    },
    {
      "type": "rel",
      "id": 4586363,
      "tags": {
        "admin_level": "6",
        "boundary": "administrative",
        "int_name": "Bardiya",
        "name": "\u092c\u0930\u094d\u0926\u093f\u092f\u093e",
        "name:en": "Bardiya",
        "name:ja": "\u30d0\u30eb\u30c7\u30a3\u30e4",
        "name:ne": "\u092c\u0930\u094d\u0926\u093f\u092f\u093e",
        "type": "boundary",
        "wikidata": "Q28458",
        "wikipedia": "en:Bardiya District",
        "parent_id": "10493722"
      }
    },
    {
      "type": "rel",
      "id": 4586364,
      "tags": {
        "admin_level": "6",
        "boundary": "administrative",
        "int_name": "Nepalgunj",
        "name": "\u0928\u0947\u092a\u093e\u0932\u0917\u0902\u091c",
        "name:en": "Nepalgunj",
        "name:ja": "\u30d0\u30f3\u30b1",
        "name:ne": "\u0928\u0947\u092a\u093e\u0932\u0917\u0902\u091c",
        "type": "boundary",
        "wikidata": "Q28447",
        "wikipedia": "en:Banke District",
        "parent_id": "10493722"
      }
    },
    {
      "type": "rel",
      "id": 4586367,
      "tags": {
        "admin_level": "6",
        "boundary": "administrative",
        "int_name": "Rolpa",
        "name": "\u0930\u094b\u0932\u094d\u092a\u093e",
        "name:en": "Rolpa",
        "name:ja": "\u30ed\u30eb\u30d1",
        "name:ne": "\u0930\u094b\u0932\u094d\u092a\u093e",
        "type": "boundary",
        "wikidata": "Q28597",
        "wikipedia": "en:Rolpa District",
        "parent_id": "10493722"
      }
    },
    {
      "type": "rel",
      "id": 4589557,
      "tags": {
        "admin_level": "6",
        "boundary": "administrative",
        "int_name": "Arghakhanchi",
        "name": "\u0905\u0930\u094d\u0918\u093e\u0916\u093e\u0901\u091a\u0940",
        "name:en": "Arghakhanchi",
        "name:ja": "\u30a2\u30eb\u30ac\u30ab\u30f3\u30c1\u30fc",
        "name:ne": "\u0905\u0930\u094d\u0918\u093e\u0916\u093e\u0901\u091a\u0940",
        "type": "boundary",
        "wikidata": "Q28432",
        "wikipedia": "en:Arghakhanchi District",
        "parent_id": "10493722"
      }
    },
    {
      "type": "rel",
      "id": 4589558,
      "tags": {
        "admin_level": "6",
        "boundary": "administrative",
        "int_name": "Kapilvastu",
        "name": "\u0915\u092a\u093f\u0932\u0935\u0938\u094d\u0924\u0941",
        "name:en": "Kapilvastu",
        "name:ja": "\u30ab\u30d4\u30e9\u30d0\u30b9\u30c8\u30a5",
        "name:ne": "\u0915\u092a\u093f\u0932\u0935\u0938\u094d\u0924\u0941",
        "name:ru": "\u041a\u0430\u043f\u0438\u043b\u0432\u0430\u0441\u0442\u0443",
        "type": "boundary",
        "wikidata": "Q28574",
        "wikipedia": "en:Kapilvastu District",
        "parent_id": "10493722"
      }
    },
    {
      "type": "rel",
      "id": 4589559,
      "tags": {
        "admin_level": "6",
        "boundary": "administrative",
        "int_name": "Gulmi",
        "name": "\u0917\u0941\u0932\u094d\u092e\u0940",
        "name:en": "Gulmi",
        "name:ja": "\u30b0\u30eb\u30df",
        "name:ne": "\u0917\u0941\u0932\u094d\u092e\u0940",
        "type": "boundary",
        "wikidata": "Q28572",
        "wikipedia": "en:Gulmi District",
        "parent_id": "10493722"
      }
    },
    {
      "type": "rel",
      "id": 4589560,
      "tags": {
        "admin_level": "6",
        "alt_name": "Nawalparasi W",
        "boundary": "administrative",
        "name": "Nawalparasi W",
        "name:en": "Nawalparasi W",
        "name:ne": "\u0928\u0935\u0932\u092a\u0930\u093e\u0938\u0940 \u092a\u0936\u094d\u091a\u093f\u092e",
        "type": "boundary",
        "wikidata": "Q28588",
        "wikipedia": "en:Nawalparasi District",
        "parent_id": "10493722"
      }
    },
    {
      "type": "rel",
      "id": 4589561,
      "tags": {
        "admin_level": "6",
        "boundary": "administrative",
        "int_name": "Palpa",
        "name": "\u092a\u093e\u0932\u094d\u092a\u093e",
        "name:en": "Palpa",
        "name:ja": "\u30d1\u30eb\u30d1",
        "name:ne": "\u092a\u093e\u0932\u094d\u092a\u093e",
        "source": "www.mofald.gov.np",
        "type": "boundary",
        "wikidata": "Q28440",
        "wikipedia": "en:Palpa District",
        "parent_id": "10493722"
      }
    },
    {
      "type": "rel",
      "id": 10624408,
      "tags": {
        "admin_level": "6",
        "alt_name": "Rukum E",
        "boundary": "administrative",
        "name": "\u092a\u0942\u0930\u094d\u0935\u0940 \u0930\u0941\u0915\u0941\u092e",
        "name:en": "Eastern Rukum",
        "name:ne": "\u092a\u0942\u0930\u094d\u0935\u0940 \u0930\u0941\u0915\u0941\u092e",
        "source": "http://en.wikibedia.ru/wiki/East_Rukum_District",
        "type": "boundary",
        "wikidata": "Q51844688",
        "wikipedia": "en:Eastern Rukum District",
        "parent_id": "10493722"
      }
    },
    {
      "type": "rel",
      "id": 4586357,
      "tags": {
        "admin_level": "6",
        "boundary": "administrative",
        "int_name": "Jajarkot",
        "name": "\u091c\u093e\u091c\u0930\u0915\u094b\u091f",
        "name:en": "Jajarkot",
        "name:ja": "\u30b8\u30e3\u30fc\u30b8\u30e3\u30eb\u30b3\u30fc\u30c8",
        "name:ne": "\u091c\u093e\u091c\u0930\u0915\u094b\u091f",
        "type": "boundary",
        "wikidata": "Q29430",
        "wikipedia": "en:Jajarkot District",
        "parent_id": "10493723"
      }
    },
    {
      "type": "rel",
      "id": 4586359,
      "tags": {
        "admin_level": "6",
        "boundary": "administrative",
        "int_name": "Dolpa",
        "name": "\u0921\u094b\u0932\u094d\u092a\u093e",
        "name:en": "Dolpa",
        "name:ja": "\u30c9\u30eb\u30d1",
        "name:ne": "\u0921\u094b\u0932\u094d\u092a\u093e",
        "name:zh": "\u5fb7\u5c14\u5e15",
        "type": "boundary",
        "wikidata": "Q28610",
        "wikipedia": "en:Dolpa District",
        "parent_id": "10493723"
      }
    },
    {
      "type": "rel",
      "id": 4586361,
      "tags": {
        "admin_level": "6",
        "alt_name": "Kalikoth",
        "boundary": "administrative",
        "int_name": "Kalikot",
        "name": "\u0915\u093e\u0932\u0940\u0915\u094b\u091f",
        "name:en": "Kalikot",
        "name:ja": "\u30ab\u30ea\u30b3\u30fc\u30c8",
        "name:ne": "\u0915\u093e\u0932\u0940\u0915\u094b\u091f",
        "type": "boundary",
        "wikidata": "Q28102",
        "wikipedia": "en:Kalikot District",
        "parent_id": "10493723"
      }
    },
    {
      "type": "rel",
      "id": 4586365,
      "tags": {
        "admin_level": "6",
        "boundary": "administrative",
        "int_name": "Mugu",
        "name": "\u092e\u0941\u0917\u0941",
        "name:en": "Mugu",
        "name:ja": "\u30e0\u30b0",
        "name:ne": "\u092e\u0941\u0917\u0941",
        "type": "boundary",
        "wikidata": "Q28593",
        "wikipedia": "en:Mugu District",
        "parent_id": "10493723"
      }
    },
    {
      "type": "rel",
      "id": 4586368,
      "tags": {
        "admin_level": "6",
        "boundary": "administrative",
        "int_name": "Salyan",
        "name": "\u0938\u0932\u094d\u092f\u093e\u0928",
        "name:en": "Salyan",
        "name:ja": "\u30b5\u30ea\u30e3\u30fc\u30f3",
        "name:ne": "\u0938\u0932\u094d\u092f\u093e\u0928",
        "type": "boundary",
        "wikidata": "Q28571",
        "wikipedia": "en:Salyan District, Nepal",
        "parent_id": "10493723"
      }
    },
    {
      "type": "rel",
      "id": 4586369,
      "tags": {
        "admin_level": "6",
        "boundary": "administrative",
        "int_name": "Surkhet",
        "name": "\u0938\u0941\u0930\u094d\u0916\u0947\u0924",
        "name:en": "Surkhet",
        "name:ja": "\u30b9\u30eb\u30b1\u30fc\u30c8",
        "name:ne": "\u0938\u0941\u0930\u094d\u0916\u0947\u0924",
        "type": "boundary",
        "wikidata": "Q28589",
        "wikipedia": "en:Surkhet District",
        "parent_id": "10493723"
      }
    },
    {
      "type": "rel",
      "id": 4586370,
      "tags": {
        "admin_level": "6",
        "boundary": "administrative",
        "int_name": "Humla",
        "name": "\u0939\u0941\u092e\u094d\u0932\u093e",
        "name:en": "Humla",
        "name:ja": "\u30d5\u30e0\u30e9",
        "name:ne": "\u0939\u0941\u092e\u094d\u0932\u093e",
        "type": "boundary",
        "wikidata": "Q28623",
        "wikipedia": "en:Humla District",
        "parent_id": "10493723"
      }
    },
    {
      "type": "rel",
      "id": 10493724,
      "tags": {
        "admin_level": "6",
        "alt_name": "Western Rukum",
        "boundary": "administrative",
        "name": "\u092a\u0936\u094d\u091a\u093f\u092e\u0940 \u0930\u0941\u0915\u0941\u092e",
        "name:en": "Western Rukum District",
        "name:ne": "\u092a\u0936\u094d\u091a\u093f\u092e\u0940 \u0930\u0941\u0915\u0941\u092e",
        "type": "boundary",
        "wikidata": "Q53018063",
        "wikipedia": "en:Western Rukum District",
        "parent_id": "10493723"
      }
    },
    {
      "type": "rel",
      "id": 12228031,
      "tags": {
        "admin_level": "6",
        "boundary": "administrative",
        "int_name": "Dailekh",
        "name": "\u0926\u0948\u0932\u0947\u0916",
        "name:en": "Dailekh",
        "name:ja": "\u30c0\u30a4\u30ec\u30af",
        "name:ne": "\u0926\u0948\u0932\u0947\u0916",
        "type": "boundary",
        "wikidata": "Q28443",
        "wikipedia": "en:Dailekh District",
        "parent_id": "10493723"
      }
    },
    {
      "type": "rel",
      "id": 15588737,
      "tags": {
        "admin_level": "6",
        "boundary": "administrative",
        "int_name": "Jumla",
        "name": "Jumla",
        "name:en": "Jumla",
        "name:ja": "\u30b8\u30e5\u30e0\u30e9",
        "name:ne": "\u091c\u0941\u092e\u094d\u0932\u093e",
        "type": "boundary",
        "wikidata": "Q28619",
        "wikipedia": "en:Jumla District",
        "parent_id": "10493723"
      }
    },
    {
      "type": "rel",
      "id": 4583247,
      "tags": {
        "admin_level": "6",
        "boundary": "administrative",
        "int_name": "Kathmandu",
        "name": "\u0915\u093e\u0920\u092e\u093e\u0921\u094c\u0902",
        "name:en": "Kathmandu",
        "name:ja": "\u30ab\u30c8\u30de\u30f3\u30ba",
        "name:ne": "\u0915\u093e\u0920\u092e\u093e\u0921\u094c\u0902",
        "name:pl": "Katmandu",
        "name:ru": "\u041a\u0430\u0442\u043c\u0430\u043d\u0434\u0443",
        "name:sk": "K\u00e1thmandu",
        "name:zh": "\u52a0\u5fb7\u6ee1\u90fd",
        "type": "boundary",
        "wikidata": "Q797472",
        "wikipedia": "ne:\u0915\u093e\u0920\u092e\u093e\u0921\u094c\u0902",
        "parent_id": "10489317"
      }
    },
    {
      "type": "rel",
      "id": 4583248,
      "tags": {
        "admin_level": "6",
        "alt_name:en": "Kabhrepalanchok",
        "boundary": "administrative",
        "int_name": "Kavrepalanchok",
        "name": "\u0915\u093e\u092d\u094d\u0930\u0947\u092a\u0932\u093e\u091e\u094d\u091a\u094b\u0915",
        "name:de": "Kavrepalanchok",
        "name:en": "Kavrepalanchok",
        "name:ja": "\u30ab\u30fc\u30d6\u30ec\u30fb\u30d1\u30e9\u30f3\u30c1\u30e7\u30fc\u30af",
        "name:ne": "\u0915\u093e\u092d\u094d\u0930\u0947\u092a\u0932\u093e\u091e\u094d\u091a\u094b\u0915",
        "name:pl": "Kavrepalanchok",
        "population": "381937",
        "population:date": "2011",
        "source:population": "Central Bureau of Statistics (CBS) Nepal",
        "type": "boundary",
        "wikidata": "Q28569",
        "wikipedia": "en:Kabhrepalanchok District",
        "parent_id": "10489317"
      }
    },
    {
      "type": "rel",
      "id": 4583249,
      "tags": {
        "admin_level": "6",
        "boundary": "administrative",
        "int_name": "Dhading",
        "name": "\u0927\u093e\u0926\u093f\u0919",
        "name:de": "Dhading",
        "name:en": "Dhading",
        "name:ja": "\u30c0\u30fc\u30c7\u30a3\u30f3",
        "name:ne": "\u0927\u093e\u0926\u093f\u0919",
        "name:pl": "Dhading",
        "type": "boundary",
        "wikidata": "Q28454",
        "wikipedia": "ne:\u0927\u093e\u0926\u093f\u0919 \u091c\u093f\u0932\u094d\u0932\u093e",
        "parent_id": "10489317"
      }
    },
    {
      "type": "rel",
      "id": 4583250,
      "tags": {
        "admin_level": "6",
        "boundary": "administrative",
        "int_name": "Nuwakot",
        "name": "\u0928\u0941\u0935\u093e\u0915\u094b\u091f",
        "name:en": "Nuwakot",
        "name:ja": "\u30cc\u30ef\u30b3\u30fc\u30c8",
        "name:ne": "\u0928\u0941\u0935\u093e\u0915\u094b\u091f",
        "name:pl": "Nuwakot",
        "type": "boundary",
        "wikidata": "Q28430",
        "wikipedia": "ne:\u0928\u0941\u0935\u093e\u0915\u094b\u091f \u091c\u093f\u0932\u094d\u0932\u093e",
        "parent_id": "10489317"
      }
    },
    {
      "type": "rel",
      "id": 4583251,
      "tags": {
        "admin_level": "6",
        "boundary": "administrative",
        "int_name": "Bhaktapur",
        "name": "\u092d\u0915\u094d\u0924\u092a\u0941\u0930",
        "name:en": "Bhaktapur",
        "name:ja": "\u30d0\u30af\u30bf\u30d7\u30eb",
        "name:ne": "\u092d\u0915\u094d\u0924\u092a\u0941\u0930",
        "name:pl": "Bhaktapur",
        "type": "boundary",
        "wikidata": "Q28451",
        "wikipedia": "en:Bhaktapur District",
        "parent_id": "10489317"
      }
    },
    {
      "type": "rel",
      "id": 4583252,
      "tags": {
        "admin_level": "6",
        "boundary": "administrative",
        "int_name": "Rasuwa",
        "name": "\u0930\u0938\u0941\u0935\u093e",
        "name:de": "Rasuwa",
        "name:en": "Rasuwa",
        "name:ja": "\u30e9\u30b9\u30ef",
        "name:ne": "\u0930\u0938\u0941\u0935\u093e",
        "type": "boundary",
        "wikidata": "Q28605",
        "wikipedia": "ne:\u0930\u0938\u0941\u0935\u093e \u091c\u093f\u0932\u094d\u0932\u093e",
        "parent_id": "10489317"
      }
    },
    {
      "type": "rel",
      "id": 4583253,
      "tags": {
        "admin_level": "6",
        "boundary": "administrative",
        "int_name": "Lalitpur",
        "name": "\u0932\u0932\u093f\u0924\u092a\u0941\u0930",
        "name:de": "Lalitpur",
        "name:en": "Lalitpur",
        "name:hi": "\u092a\u093e\u091f\u0928",
        "name:ja": "\u30e9\u30ea\u30c8\u30d7\u30eb",
        "name:ne": "\u0932\u0932\u093f\u0924\u092a\u0941\u0930",
        "name:pl": "Lalitpur",
        "type": "boundary",
        "wikidata": "Q1108338",
        "wikipedia": "ne:\u0932\u0932\u093f\u0924\u092a\u0941\u0930 \u091c\u093f\u0932\u094d\u0932\u093e",
        "parent_id": "10489317"
      }
    },
    {
      "type": "rel",
      "id": 4583254,
      "tags": {
        "admin_level": "6",
        "alt_name": "Sindhupalchok;Sindupalchok;Sindupalchock",
        "boundary": "administrative",
        "int_name": "Sindhupalchowk",
        "name": "\u0938\u093f\u0928\u094d\u0927\u0941\u092a\u093e\u0932\u094d\u091a\u094b\u0915",
        "name:en": "Sindhupalchowk",
        "name:ja": "\u30b7\u30f3\u30c9\u30a5\u30fb\u30d1\u30eb\u30c1\u30e7\u30fc\u30af",
        "name:ne": "\u0938\u093f\u0928\u094d\u0927\u0941\u092a\u093e\u0932\u094d\u091a\u094b\u0915",
        "population": "287798",
        "population:date": "2011",
        "source:population": "Central Bureau of Statistics (CBS) Nepal",
        "type": "boundary",
        "wikidata": "Q28445",
        "wikipedia": "ne:\u0938\u093f\u0928\u094d\u0927\u0941\u092a\u093e\u0932\u094d\u091a\u094b\u0915 \u091c\u093f\u0932\u094d\u0932\u093e",
        "parent_id": "10489317"
      }
    },
    {
      "type": "rel",
      "id": 4589410,
      "tags": {
        "admin_level": "6",
        "boundary": "administrative",
        "int_name": "Chitwan",
        "name": "\u091a\u093f\u0924\u0935\u0928",
        "name:en": "Chitwan",
        "name:ja": "\u30c1\u30c8\u30ef\u30f3",
        "name:ne": "\u091a\u093f\u0924\u0935\u0928",
        "name:pl": "Chitwan",
        "type": "boundary",
        "wikidata": "Q28583",
        "wikipedia": "ne:\u091a\u093f\u0924\u0935\u0928 \u091c\u093f\u0932\u094d\u0932\u093e",
        "parent_id": "10489317"
      }
    },
    {
      "type": "rel",
      "id": 4589411,
      "tags": {
        "admin_level": "6",
        "boundary": "administrative",
        "int_name": "Dolakha",
        "name": "\u0926\u094b\u0932\u0916\u093e",
        "name:en": "Dolakha",
        "name:ja": "\u30c9\u30e9\u30ab",
        "name:ne": "\u0926\u094b\u0932\u0916\u093e",
        "population": "186557",
        "population:date": "2011",
        "source:population": "Central Bureau of Statistics (CBS) Nepal",
        "type": "boundary",
        "wikidata": "Q28621",
        "wikipedia": "ne:\u0926\u094b\u0932\u0916\u093e \u091c\u093f\u0932\u094d\u0932\u093e",
        "parent_id": "10489317"
      }
    },
    {
      "type": "rel",
      "id": 4589415,
      "tags": {
        "admin_level": "6",
        "boundary": "administrative",
        "name": "\u092e\u0915\u0935\u093e\u0928\u092a\u0941\u0930",
        "name:de": "Makwanpur",
        "name:en": "Makwanpur",
        "name:fa": "\u0628\u062e\u0634 \u0645\u0627\u06a9\u0648\u0627\u0646\u067e\u0648\u0631",
        "name:ja": "\u30de\u30af\u30ef\u30f3\u30d7\u30eb",
        "name:ne": "\u092e\u0915\u0935\u093e\u0928\u092a\u0941\u0930",
        "name:pl": "Makwanpur",
        "name:pnb": "\u0636\u0644\u0639 \u0645\u06a9\u0646\u0648\u0627\u0631",
        "name:ur": "\u0645\u06a9\u0648\u0627\u0646\u067e\u0648\u0631 \u0636\u0644\u0639",
        "type": "boundary",
        "wikidata": "Q28174",
        "wikipedia": "en:Makwanpur District",
        "wikipedia:ur": "\u0645\u06a9\u0648\u0627\u0646\u067e\u0648\u0631 \u0636\u0644\u0639",
        "parent_id": "10489317"
      }
    },
    {
      "type": "rel",
      "id": 4589417,
      "tags": {
        "admin_level": "6",
        "boundary": "administrative",
        "int_name": "Ramechhap",
        "name": "\u0930\u093e\u092e\u0947\u091b\u093e\u092a",
        "name:de": "Ramechhap",
        "name:en": "Ramechhap",
        "name:ja": "\u30e9\u30e1\u30c1\u30e3\u30fc\u30d7",
        "name:ne": "\u0930\u093e\u092e\u0947\u091b\u093e\u092a",
        "population": "202646",
        "population:date": "2011",
        "source:population": "Central Bureau of Statistics (CBS) Nepal",
        "type": "boundary",
        "wikidata": "Q28611",
        "wikipedia": "en:Ramechhap District",
        "parent_id": "10489317"
      }
    },
    {
      "type": "rel",
      "id": 4589420,
      "tags": {
        "admin_level": "6",
        "boundary": "administrative",
        "int_name": "Sindhuli",
        "name": "\u0938\u093f\u0928\u094d\u0927\u0941\u0932\u0940",
        "name:de": "Sindhuli",
        "name:en": "Sindhuli",
        "name:ja": "\u30b7\u30f3\u30c9\u30a5\u30ea",
        "name:ne": "\u0938\u093f\u0928\u094d\u0927\u0941\u0932\u0940",
        "population": "296192",
        "population:date": "2011",
        "source:population": "Central Bureau of Statistics (CBS) Nepal",
        "type": "boundary",
        "wikidata": "Q28586",
        "wikipedia": "en:Sindhuli District",
        "parent_id": "10489317"
      }
    }
  ]
}