{
  "version": 0.6,
  "generator": "Overpass API 0.7.62.8 e802775f",
  "osm3s": {
    "timestamp_osm_base": "2025-10-03T17:23:36Z",
    "timestamp_areas_base": "2025-10-03T13:36:01Z",
    "copyright": "The data included in this document is from www.openstreetmap.org. The data is made available under ODbL."
  },
  "elements": [
    {
      "type": "relation",
      "id": 87565,
      "tags": {
        "ISO3166-1": "ZA",
        "ISO3166-1:alpha2": "ZA",
        "ISO3166-1:alpha3": "ZAF",
        "ISO3166-1:numeric": "710",
        "admin_level": "2",
        "alt_name:eo": "Sudafriko",
        "alt_name:gl": "\u00c1frica do Sur",
        "alt_name:ln": "Afr\u00edka ya S\u00fadi",
        "alt_name:wo": "Afrig gu B\u00ebj-g\u00e0nnaar",
        "boundary": "administrative",
        "capital_city": "Pretoria;Bloemfontein;Cape Town",
        "country_code_fips": "SF",
        "driving_side": "left",
        "flag": "https://upload.wikimedia.org/wikipedia/commons/a/af/Flag_of_South_Africa.svg",
        "int_name": "South Africa",
        "name": "South Africa",
        "name:ab": "\u0410\u043b\u0430\u0434\u0430\u0442\u04d9\u0438 \u0410\u0444\u0440\u0438\u043a\u0430",
        "name:ace": "Afrika Seulatan",
        "name:af": "Suid-Afrika",
        "name:ak": "Afrika Anaafo",
        "name:als": "S\u00fcdafrika",
        "name:am": "\u12f0\u1261\u1265 \u12a0\u134d\u122a\u12ab",
        "name:an": "Sudafrica",
        "name:ang": "S\u016b\u00f0affrica",
        "name:ar": "\u062c\u0646\u0648\u0628 \u0623\u0641\u0631\u064a\u0642\u064a\u0627",
        "name:arz": "\u062c\u0646\u0648\u0628 \u0627\u0641\u0631\u064a\u0642\u064a\u0627",
        "name:ast": "Sud\u00e1frica",
        "name:az": "C\u0259nub Afrika",
        "name:bar": "S\u00fcdafrika",
        "name:bat-smg": "P\u0117it\u016b Afr\u0117kas Respobl\u0117ka",
        "name:be": "\u041f\u0430\u045e\u0434\u043d\u0451\u0432\u0430-\u0410\u0444\u0440\u044b\u043a\u0430\u043d\u0441\u043a\u0430\u044f \u0420\u044d\u0441\u043f\u0443\u0431\u043b\u0456\u043a\u0430",
        "name:be-tarask": "\u041f\u0430\u045e\u0434\u043d\u0451\u0432\u0430-\u0410\u0444\u0440\u044b\u043a\u0430\u043d\u0441\u043a\u0430\u044f \u0420\u044d\u0441\u043f\u0443\u0431\u043b\u0456\u043a\u0430",
        "name:bg": "\u042e\u0436\u043d\u0430 \u0410\u0444\u0440\u0438\u043a\u0430",
        "name:bjn": "Aprika Salatan",
        "name:bm": "Worodugu Afriki",
        "name:bn": "\u09a6\u0995\u09cd\u09b7\u09bf\u09a3 \u0986\u09ab\u09cd\u09b0\u09bf\u0995\u09be",
        "name:bo": "\u0f63\u0fb7\u0f7c\u0f0b \u0f68\u0f55\u0fb2\u0f72\u0f0b\u0f40\u0f0d",
        "name:bpy": "\u0996\u09be \u0986\u09ab\u09cd\u09b0\u09bf\u0995\u09be",
        "name:br": "Suafrika",
        "name:bs": "Ju\u017ena Afrika",
        "name:bxr": "\u0423\u0440\u0434\u0430 \u0410\u0444\u0440\u0438\u043a\u044b\u043d \u0423\u043b\u0430\u0441",
        "name:ca": "Sud-\u00e0frica",
        "name:ce": "\u041a\u044a\u0438\u043b\u0431\u0430-\u0410\u0444\u0440\u0438\u043a\u0438\u043d \u0420\u0435\u0441\u043f\u0443\u0431\u043b\u0438\u043a\u0430",
        "name:ceb": "Habagatang Aprika",
        "name:chy": "Mo'hetaneho'e h\u00e1n\u00eas\u00f3v\u00f3ne",
        "name:ckb": "\u0626\u06d5\u0641\u0631\u06cc\u0642\u0627\u06cc \u0628\u0627\u0634\u0648\u0648\u0631",
        "name:crh": "Cen\u00fcbiy Afrika",
        "name:cs": "Ji\u017en\u00ed Afrika",
        "name:cv": "\u041a\u0103\u043d\u0442\u0103\u0440 \u0410\u0444\u0440\u0438\u043a\u0430",
        "name:cy": "De Affrica",
        "name:da": "Sydafrika",
        "name:de": "S\u00fcdafrika",
        "name:din": "Pagu\u00f6t Apir\u00efka",
        "name:diq": "Afrikaya Veroci",
        "name:dsb": "P\u00f3dpo\u0142dnjowa Afrika",
        "name:dv": "\u078b\u07ac\u0786\u07aa\u0782\u07aa \u0787\u07ac\u078a\u07b0\u0783\u07a8\u0786\u07a7",
        "name:dz": "\u0f66\u0f71\u0f60\u0f74\u0f50\u0f0b \u0f68\u0f55\u0f0b\u0f62\u0f72\u0f0b\u0f40",
        "name:ee": "Anyiehe Afrika nutome",
        "name:el": "\u039d\u03cc\u03c4\u03b9\u03b1 \u0391\u03c6\u03c1\u03b9\u03ba\u03ae",
        "name:en": "South Africa",
        "name:eo": "Sud-Afriko",
        "name:es": "Sud\u00e1frica",
        "name:et": "L\u00f5una-Aafrika Vabariik",
        "name:eu": "Hegoafrika",
        "name:ext": "Sud\u00e1frica",
        "name:fa": "\u0622\u0641\u0631\u06cc\u0642\u0627\u06cc \u062c\u0646\u0648\u0628\u06cc",
        "name:ff": "Afrik b\u014b Worgo",
        "name:fi": "Etel\u00e4-Afrikka",
        "name:fo": "Su\u00f0urafrika",
        "name:fr": "Afrique du Sud",
        "name:frp": "Africa du Sud",
        "name:fur": "Sud Afriche",
        "name:fy": "S\u00fad-Afrika",
        "name:ga": "An Afraic Theas",
        "name:gag": "\u00dc\u00fclen Afrika Respublikas\u0131",
        "name:gan": "\u5357\u975e",
        "name:gd": "Afraga a Deas",
        "name:gl": "Sur\u00e1frica",
        "name:gn": "Yvyafrika",
        "name:gu": "\u0aa6\u0a95\u0acd\u0ab7\u0abf\u0aa3 \u0a86\u0aab\u0acd\u0ab0\u0abf\u0a95\u0abe",
        "name:gv": "Yn Affrick Yiass",
        "name:ha": "Afirka ta Kudu",
        "name:hak": "N\u00e0m-f\u00ee",
        "name:haw": "\u02bbApelika Hema",
        "name:he": "\u05d3\u05e8\u05d5\u05dd \u05d0\u05e4\u05e8\u05d9\u05e7\u05d4",
        "name:hi": "\u0926\u0915\u094d\u0937\u093f\u0923 \u0905\u092b\u093c\u094d\u0930\u0940\u0915\u093e",
        "name:hif": "South Africa",
        "name:hr": "Ju\u017ena Afrika",
        "name:hsb": "Ju\u017ena Afrika",
        "name:ht": "Afrik disid",
        "name:hu": "D\u00e9l-Afrika",
        "name:hy": "\u0540\u0561\u0580\u0561\u057e\u0561\u0575\u056b\u0576 \u0531\u0586\u0580\u056b\u056f\u0561",
        "name:ia": "Africa del Sud",
        "name:id": "Afrika Selatan",
        "name:ie": "Sudafrica",
        "name:ilo": "Abagatan nga \u00c1prika",
        "name:io": "Sud-Afrika",
        "name:is": "Su\u00f0ur-Afr\u00edka",
        "name:it": "Sudafrica",
        "name:ja": "\u5357\u30a2\u30d5\u30ea\u30ab",
        "name:jbo": "nanfi'ogu'e",
        "name:jv": "Afrika Kidul",
        "name:ka": "\u10e1\u10d0\u10db\u10ee\u10e0\u10d4\u10d7 \u10d0\u10e4\u10e0\u10d8\u10d9\u10d0",
        "name:kaa": "Qubla Afrika",
        "name:kab": "Tafriqt Wadda",
        "name:kbd": "\u0418\u043f\u0448\u044a\u044d \u0410\u0444\u0440\u0438\u043a\u044d \u0420\u0435\u0441\u043f\u0443\u0431\u043b\u0438\u043a\u044d",
        "name:kg": "Afelika ya Sudi",
        "name:ki": "Ab\u0129rika Kusini",
        "name:kk": "\u041e\u04a3\u0442\u04af\u0441\u0442\u0456\u043a \u0410\u0444\u0440\u0438\u043a\u0430",
        "name:km": "\u17a2\u17b6\u1796\u17d2\u179a\u17b7\u1780\u200b\u1797\u17b6\u1782\u200b\u1781\u17b6\u1784\u200b\u178f\u17d2\u1794\u17bc\u1784",
        "name:kn": "\u0ca6\u0c95\u0ccd\u0cb7\u0cbf\u0ca3 \u0c86\u0cab\u0ccd\u0cb0\u0cbf\u0c95\u0cbe",
        "name:ko": "\ub0a8\uc544\ud504\ub9ac\uce74 \uacf5\ud654\uad6d",
        "name:krc": "\u041a\u044a\u044b\u0431\u044b\u043b\u0430-\u0410\u0444\u0440\u0438\u043a\u0430\u043d \u0420\u0435\u0441\u043f\u0443\u0431\u043b\u0438\u043a\u0430",
        "name:ks": "\u062c\u064e\u0646\u0648\u0657\u0628\u06cc \u0627\u064e\u0641\u0631\u06cc\u0656\u06a9\u0627",
        "name:ksh": "S\u00f6daffrika",
        "name:ku": "Afr\u00eekaya Ba\u015f\u00fbr",
        "name:kv": "\u041b\u0443\u043d\u0432\u044b\u0432 \u0410\u0444\u0440\u0438\u043a\u0430\u0441\u0430 \u0420\u0435\u0441\u043f\u0443\u0431\u043b\u0438\u043a\u0430",
        "name:kw": "Afrika Dhyhow",
        "name:ky": "\u0410\u0444\u0440\u0438\u043a\u0430\u0430\u043d\u0441 \u0442\u0438\u043b\u0438",
        "name:la": "Africa Australis",
        "name:lad": "Sud-Afrika",
        "name:lb": "S\u00fcdafrika",
        "name:lez": "\u041a\u044c\u0438\u0431\u043b\u0435-\u0410\u0444\u0440\u0438\u043a\u0430\u0434\u0438\u043d \u0420\u0435\u0441\u043f\u0443\u0431\u043b\u0438\u043a\u0430",
        "name:lg": "Sawusafirika",
        "name:li": "Zuud-Afrika",
        "name:lij": "Sudafrica",
        "name:lmo": "S\u00fcdafrica",
        "name:ln": "Sidafr\u00edka",
        "name:lo": "\u0ead\u0eb2\u0e9f\u0eb0\u0ea5\u0eb4\u0e81\u0eb2\u0ec3\u0e95\u0ec9",
        "name:lt": "Piet\u0173 Afrika",
        "name:ltg": "D\u012bnavydu Afrikys",
        "name:lv": "Dienvid\u0101frika",
        "name:lzh": "\u5357\u975e",
        "name:mdf": "\u041b\u044f\u043c\u0431\u0435\u0448\u0438\u0440\u0435\u043d\u044c \u0410\u0444\u0440\u0438\u043a",
        "name:mg": "Afrika Atsimo",
        "name:mi": "Awherika ki te Tonga",
        "name:min": "Afrika Selatan",
        "name:mk": "\u0408\u0443\u0436\u043d\u0430 \u0410\u0444\u0440\u0438\u043a\u0430",
        "name:ml": "\u0d26\u0d15\u0d4d\u0d37\u0d3f\u0d23\u0d3e\u0d2b\u0d4d\u0d30\u0d3f\u0d15\u0d4d\u0d15",
        "name:mn": "\u04e8\u043c\u043d\u04e9\u0434 \u0410\u0444\u0440\u0438\u043a",
        "name:mr": "\u0926\u0915\u094d\u0937\u093f\u0923 \u0905\u092b\u094d\u0930\u093f\u0915\u093e",
        "name:ms": "Afrika Selatan",
        "name:mt": "Afrika t\u2019Isfel",
        "name:my": "\u1010\u1031\u102c\u1004\u103a\u1021\u102c\u1016\u101b\u102d\u1000",
        "name:mzn": "\u062c\u0646\u0648\u0628\u06cc \u0622\u0641\u0631\u06cc\u062e\u0627",
        "name:nah": "Africa Huitztl\u0101mpa",
        "name:nan": "L\u00e2m-hui-kok",
        "name:nds": "S\u00fc\u00fcdafrika",
        "name:nds-nl": "Zuud-Afrika",
        "name:ne": "\u0926\u0915\u094d\u0937\u093f\u0923 \u0905\u092b\u094d\u0930\u093f\u0915\u093e",
        "name:new": "\u0926\u0915\u094d\u0937\u093f\u0923 \u0905\u092b\u094d\u0930\u093f\u0915\u093e",
        "name:nl": "Zuid-Afrika",
        "name:nn": "S\u00f8r-Afrika",
        "name:no": "S\u00f8r-Afrika",
        "name:nov": "Sud Afrika",
        "name:nrm": "Afrique du Sud",
        "name:nso": "Afrika Borwa",
        "name:nv": "K\u00e9yah Naakai \u0141izhinii Bik\u00e9yah Sh\u00e1di\u02bc\u00e1\u00e1hj\u00ed Si\u02bc\u00e1n\u00edg\u00ed\u00ed",
        "name:ny": "South Africa",
        "name:oc": "Sud d'Africa",
        "name:or": "\u0b26\u0b15\u0b4d\u0b37\u0b3f\u0b23 \u0b06\u0b2b\u0b4d\u0b30\u0b3f\u0b15\u0b3e",
        "name:os": "\u0425\u0443\u0441\u0441\u0430\u0440 \u0410\u0444\u0440\u0438\u043a\u00e6\u0439\u044b",
        "name:pa": "\u0a26\u0a71\u0a16\u0a23\u0a40 \u0a05\u0a2b\u0a3c\u0a30\u0a40\u0a15\u0a3e",
        "name:pam": "Mauling Aprika",
        "name:pap": "Sur Afrika",
        "name:pdc": "Saut Afrikaa",
        "name:pih": "Sowth Afreka",
        "name:pl": "Republika Po\u0142udniowej Afryki",
        "name:pms": "Sud\u00e0frica",
        "name:pnb": "\u062f\u06a9\u06be\u0646\u06cc \u0627\u0641\u0631\u06cc\u0642\u06c1",
        "name:ps": "\u0633\u0648\u06cc\u0644\u064a \u0627\u0641\u0631\u06cc\u0642\u0627",
        "name:pt": "\u00c1frica do Sul",
        "name:qu": "Urin Aphrika",
        "name:rm": "Africa dal Sid",
        "name:rn": "Afurika y'Epfo",
        "name:ro": "Africa de Sud",
        "name:roa-tara": "Sud Afriche",
        "name:ru": "\u042e\u0436\u043d\u0430\u044f \u0410\u0444\u0440\u0438\u043a\u0430",
        "name:rue": "\u042e\u0436\u043d\u0430 \u0410\u0444\u0440\u0438\u043a\u0430",
        "name:rw": "Afurika y\u2019Epfo",
        "name:sa": "\u0926\u0915\u094d\u0937\u093f\u0923-\u0906\u092b\u094d\u0930\u093f\u0915\u093e",
        "name:sah": "\u0421\u043e\u0495\u0443\u0440\u0443\u0443 \u0410\u0444\u0440\u0438\u043a\u0430",
        "name:sc": "Sud\u00e0frica",
        "name:scn": "\u00c0frica d\u00fb Sud",
        "name:sco": "Sooth Africae",
        "name:se": "Lulli-Afrihk\u00e1",
        "name:sg": "Afr\u00eeka-Mbongo",
        "name:sh": "Ju\u017ena Afrika",
        "name:si": "\u0daf\u0d9a\u0dd4\u0dab\u0dd4 \u0d85\u0db4\u0dca\u200d\u0dbb\u0dd2\u0d9a\u0dcf\u0dc0",
        "name:sk": "Ju\u017en\u00e1 Afrika",
        "name:sl": "Ju\u017ena Afrika",
        "name:smn": "Maad\u00e2-Afrik",
        "name:sms": "Saujj-Afrikk",
        "name:sn": "South Africa",
        "name:so": "Koonfur Afrika",
        "name:sq": "Afrika e Jugut",
        "name:sr": "\u0408\u0443\u0436\u043d\u0430 \u0410\u0444\u0440\u0438\u043a\u0430",
        "name:ss": "INingizimu Afrika",
        "name:st": "Afrika Borwa",
        "name:stq": "Suud-Afrikoa",
        "name:su": "Afrika Kidul",
        "name:sv": "Sydafrika",
        "name:sw": "Afrika Kusini",
        "name:szl": "Po\u0142ed\u0144owyj Afriki",
        "name:ta": "\u0ba4\u0bc6\u0ba9\u0bcd \u0b86\u0baa\u0bcd\u0baa\u0bbf\u0bb0\u0bbf\u0b95\u0bcd\u0b95\u0bbe",
        "name:te": "\u0c26\u0c15\u0c4d\u0c37\u0c3f\u0c23 \u0c06\u0c2b\u0c4d\u0c30\u0c3f\u0c15\u0c3e \u0c30\u0c3e\u0c1c\u0c4d\u0c2f\u0c02",
        "name:tg": "\u0410\u0444\u0440\u0438\u049b\u043e\u0438 \u04b6\u0430\u043d\u0443\u0431\u04e3",
        "name:th": "\u0e41\u0e2d\u0e1f\u0e23\u0e34\u0e01\u0e32\u0e43\u0e15\u0e49",
        "name:ti": "\u12f0\u1261\u1265 \u12a0\u134d\u122a\u12ab",
        "name:tk": "G\u00fcnorta Afrika",
        "name:tl": "Timog Aprika",
        "name:tn": "Aferika Borwa",
        "name:to": "\u02bbAfilika tonga",
        "name:tok": "ma Setapika",
        "name:tpi": "Saut Aprika",
        "name:tr": "G\u00fcney Afrika",
        "name:ts": "Afrika-Dzonga",
        "name:tt": "\u041a\u04e9\u043d\u044c\u044f\u043a \u0410\u0444\u0440\u0438\u043a\u0430",
        "name:tzl": "S\u00fcdafrica",
        "name:ug": "\u062c\u06d5\u0646\u06c7\u0628\u0649\u064a \u0626\u0627\u0641\u0631\u0649\u0642\u0627",
        "name:uk": "\u041f\u0456\u0432\u0434\u0435\u043d\u043d\u0430 \u0410\u0444\u0440\u0438\u043a\u0430",
        "name:ur": "\u062c\u0646\u0648\u0628\u06cc \u0627\u0641\u0631\u06cc\u0642\u06c1",
        "name:uz": "Janubiy Afrika",
        "name:ve": "Afurika Tshipembe",
        "name:vec": "Sud\u00e0frica",
        "name:vi": "Nam Phi",
        "name:vls": "Zuud-Afrika",
        "name:vo": "Sul\u00fcdafrik\u00e4n",
        "name:vro": "L\u00f5una-Afriga Vabariik",
        "name:wa": "Nonne-Afrike",
        "name:war": "Salatan nga Aprik\u00e1",
        "name:wo": "Afrig gu B\u00ebj-saalum",
        "name:wuu": "\u5357\u975e",
        "name:xal": "\u04e8\u043c\u043d \u0410\u043f\u0440\u0438\u043a\u0438\u043d",
        "name:xh": "uMzantsi Afrika",
        "name:xmf": "\u10dd\u10d1\u10df\u10d0\u10d7\u10d4 \u10d0\u10e4\u10e0\u10d8\u10d9\u10d0",
        "name:yi": "\u05d3\u05e8\u05d5\u05dd \u05d0\u05e4\u05e8\u05d9\u05e7\u05e2",
        "name:yo": "G\u00fa\u00fas\u00f9 \u00c1fr\u00edk\u00e0",
        "name:yue": "\u5357\u975e",
        "name:zea": "Zuud-Afrika",
        "name:zh": "\u5357\u975e",
        "name:zh-Hans": "\u5357\u975e",
        "name:zh-Hant": "\u5357\u975e",
        "name:zh-Latn-pinyin": "N\u00e1n F\u0113i",
        "name:zu": "iNingizimu Afrika",
        "note": "Three capitals: Pretoria (executive and administrative), Bloemfontein (judicial), Cape Town (legislative)",
        "official_name": "Republic of South Africa",
        "official_name:ab": "\u0410\u043b\u0430\u0434\u0430-\u0410\u0444\u0440\u0438\u043a\u0430\u0442\u04d9\u0438 \u0410\u0440\u0435\u0441\u043f\u0443\u0431\u043b\u0438\u043a\u0430",
        "official_name:ace": "Republik Afrika Seulatan",
        "official_name:af": "Zuid-Afrikaansche Republiek",
        "official_name:als": "Republik S\u00fcdafrika",
        "official_name:am": "\u12e8\u12f0\u1261\u1265 \u12a0\u134d\u122a\u12ab \u122c\u1351\u1265\u120a\u12ad",
        "official_name:an": "Republica de Sudafrica",
        "official_name:ang": "Cynew\u012bse S\u016b\u00feaffrice",
        "official_name:ar": "\u062c\u0645\u0647\u0648\u0631\u064a\u0629 \u062c\u0646\u0648\u0628 \u0623\u0641\u0631\u064a\u0642\u064a\u0627",
        "official_name:arz": "\u062c\u0645\u0647\u0648\u0631\u064a\u0629 \u062c\u0646\u0648\u0628 \u0627\u0641\u0631\u064a\u0642\u064a\u0627",
        "official_name:ast": "Rep\u00fablica Sudafricana",
        "official_name:az": "C\u0259nubi Afrika Respublikas\u0131",
        "official_name:bar": "Republik S\u00fcdafrika",
        "official_name:be": "\u041f\u0430\u045e\u0434\u043d\u0451\u0432\u0430-\u0410\u0444\u0440\u044b\u043a\u0430\u043d\u0441\u043a\u0430\u044f \u0420\u044d\u0441\u043f\u0443\u0431\u043b\u0456\u043a\u0430",
        "official_name:bg": "\u0420\u0435\u043f\u0443\u0431\u043b\u0438\u043a\u0430 \u042e\u0436\u043d\u0430 \u0410\u0444\u0440\u0438\u043a\u0430",
        "official_name:bjn": "Republik Aprika Salatan",
        "official_name:bm": "Worodugu Afrika ka Fasojamana",
        "official_name:bn": "\u09b0\u09bf\u09aa\u09be\u09ac\u09b2\u09bf\u0995 \u0985\u09ab \u09b8\u09be\u0989\u09a5 \u0986\u09ab\u09cd\u09b0\u09bf\u0995\u09be",
        "official_name:bpy": "\u09aa\u09cd\u09b0\u099c\u09be\u09a4\u09a8\u09cd\u09a4\u09cd\u09b0\u09bf \u0996\u09be \u0986\u09ab\u09cd\u09b0\u09bf\u0995\u09be",
        "official_name:br": "Republik Suafrika",
        "official_name:bs": "Ju\u017enoafri\u010dka Republika",
        "official_name:ca": "Rep\u00fablica de Sud-\u00e0frica",
        "official_name:ceb": "Republikang Habagatang Aprikano",
        "official_name:ckb": "\u06a9\u06c6\u0645\u0627\u0631\u06cc \u0626\u0627\u0641\u0631\u06cc\u0642\u0627\u06cc \u0628\u0627\u0634\u0648\u0648\u0631",
        "official_name:crh": "Cen\u00fcbiy Afrika Cumhuriyeti",
        "official_name:cs": "Jihoafrick\u00e1 republika",
        "official_name:cv": "\u041a\u0103\u043d\u0442\u0103\u0440 \u0410\u0444\u0440\u0438\u043a\u0430 \u0420\u0435\u0441\u043f\u0443\u0431\u043b\u0438\u043a\u0438",
        "official_name:cy": "Gweriniaeth De Affrica",
        "official_name:da": "Republikken Sydafrika",
        "official_name:de": "Republik S\u00fcdafrika",
        "official_name:din": "Paank\u0254c Pagu\u00f6t Apir\u00efka",
        "official_name:diq": "Cumhuriyet\u00ea Afrikaya Veroci",
        "official_name:dsb": "P\u00f3dpo\u0142dnjowa Afrika Republika",
        "official_name:el": "\u0394\u03b7\u03bc\u03bf\u03ba\u03c1\u03b1\u03c4\u03af\u03b1 \u03c4\u03b7\u03c2 \u039d\u03bf\u03c4\u03af\u03bf\u03c5 \u0391\u03c6\u03c1\u03b9\u03ba\u03ae\u03c2",
        "official_name:en": "Republic of South Africa",
        "official_name:eo": "Respubliko de Sud-Afriko",
        "official_name:es": "Rep\u00fablica de Sud\u00e1frica",
        "official_name:et": "L\u00f5una-Aafrika Vabariik",
        "official_name:eu": "Hegoafrikako Errepublika",
        "official_name:ext": "Rep\u00fabrica de Sud\u00e1frica",
        "official_name:fa": "\u062c\u0645\u0647\u0648\u0631\u06cc \u0622\u0641\u0631\u06cc\u0642\u0627\u06cc \u062c\u0646\u0648\u0628\u06cc",
        "official_name:fi": "Etel\u00e4-Afrikan tasavalta",
        "official_name:fo": "Tj\u00f3\u00f0veldi\u00f0 Su\u00f0urafrika",
        "official_name:fr": "R\u00e9publique d'Afrique du Sud",
        "official_name:frp": "R\u00e8publica de l'Africa du Sud",
        "official_name:fy": "S\u00fad-Afrikaanske Republyk",
        "official_name:ga": "Poblacht na hAfraice Theas",
        "official_name:gag": "\u00dc\u00fclen Afrika Respublikas\u0131",
        "official_name:gan": "\u5357\u975e\u5171\u548c\u570b",
        "official_name:gd": "Poblachd Afraga a Deas",
        "official_name:gl": "Rep\u00fablica de Sur\u00e1frica",
        "official_name:gn": "Tet\u00e3 Yvyafrika",
        "official_name:gu": "\u0aa6\u0a95\u0acd\u0ab7\u0abf\u0aa3 \u0a86\u0aab\u0acd\u0ab0\u0abf\u0a95\u0abe\u0aa8\u0ac1\u0a82 \u0a97\u0aa3\u0ab0\u0abe\u0a9c\u0acd\u0aaf",
        "official_name:gv": "Pobblaght yn Affrick Yiass",
        "official_name:ha": "Jamhuriyar Afrika ta Kudu",
        "official_name:he": "\u05e8\u05e4\u05d5\u05d1\u05dc\u05d9\u05e7\u05ea \u05d3\u05e8\u05d5\u05dd \u05d0\u05e4\u05e8\u05d9\u05e7\u05d4",
        "official_name:hi": "\u0926\u0915\u094d\u0937\u093f\u0923 \u0905\u092b\u093c\u094d\u0930\u0940\u0915\u093e \u0917\u0923\u0930\u093e\u091c\u094d\u092f",
        "official_name:hif": "Republic of South Africa",
        "official_name:hr": "Republika Ju\u017ena Afrika",
        "official_name:hsb": "Republika Ju\u017ena Afrika",
        "official_name:ht": "Repiblik Afrik disid",
        "official_name:hu": "D\u00e9l-Afrikai K\u00f6zt\u00e1rsas\u00e1g",
        "official_name:ia": "Republica del Africa del Sud",
        "official_name:id": "Republik Afrika Selatan",
        "official_name:ie": "Republic de Sudafrica",
        "official_name:ilo": "Republika iti Abagatan nga \u00c1prika",
        "official_name:io": "Republiko di Sud-Afrika",
        "official_name:is": "L\u00fd\u00f0veldi\u00f0 Su\u00f0ur-Afr\u00edku",
        "official_name:it": "Repubblica del Sudafrica",
        "official_name:ja": "\u5357\u30a2\u30d5\u30ea\u30ab\u5171\u548c\u56fd",
        "official_name:jv": "Republik Afrika Kidul",
        "official_name:ka": "\u10e1\u10d0\u10db\u10ee\u10e0\u10d4\u10d7 \u10d0\u10e4\u10e0\u10d8\u10d9\u10d8\u10e1 \u10e0\u10d4\u10e1\u10de\u10e3\u10d1\u10da\u10d8\u10d9\u10d0",
        "official_name:kaa": "Qubla Afrika Respublikas\u0131",
        "official_name:kbd": "\u0418\u043f\u0448\u044a\u044d \u0410\u0444\u0440\u0438\u043a\u044d \u0420\u0435\u0441\u043f\u0443\u0431\u043b\u0438\u043a\u044d",
        "official_name:kg": "Repubilika ya Afelika ya Sudi",
        "official_name:kk": "\u041e\u04a3\u0442\u04af\u0441\u0442\u0456\u043a \u0410\u0444\u0440\u0438\u043a\u0430 \u0420\u0435\u0441\u043f\u0443\u0431\u043b\u0438\u043a\u0430\u0441\u044b",
        "official_name:ko": "\ub0a8\uc544\ud504\ub9ac\uce74 \uacf5\ud654\uad6d",
        "official_name:krc": "\u041a\u044a\u044b\u0431\u044b\u043b\u0430-\u0410\u0444\u0440\u0438\u043a\u0430\u043d \u0420\u0435\u0441\u043f\u0443\u0431\u043b\u0438\u043a\u0430",
        "official_name:ku": "Komara Afr\u00eekaya Ba\u015f\u00fbr",
        "official_name:kv": "\u041b\u0443\u043d\u0432\u044b\u0432 \u0410\u0444\u0440\u0438\u043a\u0430\u0441\u0430 \u0420\u0435\u0441\u043f\u0443\u0431\u043b\u0438\u043a\u0430",
        "official_name:ky": "\u0422\u04af\u0448\u0442\u04af\u043a-\u0410\u0444\u0440\u0438\u043a\u0430 \u0420\u0435\u0441\u043f\u0443\u0431\u043b\u0438\u043a\u0430\u0441\u044b",
        "official_name:la": "Res Publica Africae Australis",
        "official_name:lad": "Repuvlika de Sud-Afrika",
        "official_name:lb": "Republik S\u00fcdafrika",
        "official_name:lmo": "Rep\u00fcbliga de S\u00fcdafrica",
        "official_name:ln": "Republ\u00edki ya Sidafr\u00edka",
        "official_name:lt": "Piet\u0173 Afrikos Respublika",
        "official_name:ltg": "D\u012bnavydu Afrikys Republika",
        "official_name:lv": "Dienvid\u0101frikas Republika",
        "official_name:mdf": "\u041b\u044f\u043c\u0431\u0435\u0448\u0438\u0440\u0435\u043d\u044c \u0410\u0444\u0440\u0438\u043a\u043e\u043d\u044c \u0420\u0435\u0441\u043f\u0443\u0431\u043b\u0438\u043a",
        "official_name:mk": "\u0408\u0443\u0436\u043d\u043e\u0430\u0444\u0440\u0438\u043a\u0430\u043d\u0441\u043a\u0430 \u0420\u0435\u043f\u0443\u0431\u043b\u0438\u043a\u0430",
        "official_name:ml": "\u0d31\u0d3f\u0d2a\u0d2c\u0d4d\u0d32\u0d3f\u0d15\u0d4d\u0d15\u0d4d \u0d13\u0d2b\u0d4d \u0d38\u0d57\u0d24\u0d4d\u0d24\u0d4d \u0d06\u0d2b\u0d4d\u0d30\u0d3f\u0d15\u0d4d\u0d15",
        "official_name:mn": "\u04e8\u043c\u043d\u04e9\u0434 \u0410\u0444\u0440\u0438\u043a\u0438\u0439\u043d \u0411\u04af\u0433\u0434 \u041d\u0430\u0439\u0440\u0430\u043c\u0434\u0430\u0445 \u0423\u043b\u0441",
        "official_name:mr": "\u0926\u0915\u094d\u0937\u093f\u0923 \u0906\u092b\u094d\u0930\u093f\u0915\u0947\u091a\u0947 \u0917\u0923\u0930\u093e\u091c\u094d\u092f",
        "official_name:ms": "Republik Afrika Selatan",
        "official_name:mt": "Repubblika tal-Afrika t'Isfel",
        "official_name:my": "\u1010\u1031\u102c\u1004\u103a\u1021\u102c\u1016\u101b\u102d\u1000 \u101e\u1019\u1039\u1019\u1010\u1014\u102d\u102f\u1004\u103a\u1004\u1036",
        "official_name:nah": "Tl\u0101catlahtohc\u0101y\u014dtl Africa Huitztl\u0101mpa",
        "official_name:nan": "L\u00e2m-hui Ki\u014dng-h\u00f4-kok",
        "official_name:nds": "S\u00fc\u00fcdafrikaansche Republiek",
        "official_name:nds-nl": "Rippebliek Zuud-Afrika",
        "official_name:nl": "Republiek Zuid-Afrika",
        "official_name:nn": "S\u00f8rafrikanske republikken",
        "official_name:no": "Republikken S\u00f8r-Afrika",
        "official_name:nov": "Sud Afrikani Republike",
        "official_name:nr": "iRiphabliki yeSewula Afrika",
        "official_name:nso": "Repabliki le Afrika Borwa",
        "official_name:nv": "K\u00e9yah Naakai \u0141izhinii Bik\u00e9yah Sh\u00e1di\u02bc\u00e1\u00e1hj\u00ed Si\u02bc\u00e1n\u00edg\u00ed\u00ed",
        "official_name:oc": "Republica Sud-Africana",
        "official_name:os": "\u0425\u0443\u0441\u0441\u0430\u0440 \u0410\u0444\u0440\u0438\u043a\u00e6\u0439\u044b \u0420\u0435\u0441\u043f\u0443\u0431\u043b\u0438\u043a\u00e6",
        "official_name:pa": "\u0a26\u0a71\u0a16\u0a23 \u0a05\u0a2b\u0a3c\u0a30\u0a40\u0a15\u0a3e \u0a17\u0a23\u0a30\u0a3e\u0a1c",
        "official_name:pam": "Republika ning Mauling Aprika",
        "official_name:pap": "Republika di Sur Afrika",
        "official_name:pdc": "Republik vun Saut Afrikaa",
        "official_name:pih": "Sowth Afrekan Repablik",
        "official_name:pl": "Republika Po\u0142udniowej Afryki",
        "official_name:pms": "Rep\u00f9blica Sudafrican-a",
        "official_name:pt": "Rep\u00fablica da \u00c1frica do Sul",
        "official_name:qu": "Urin Aphrika Republika",
        "official_name:rm": "Republica Sidafricana",
        "official_name:ro": "Republica Africa de Sud",
        "official_name:ru": "\u042e\u0436\u043d\u043e-\u0410\u0444\u0440\u0438\u043a\u0430\u043d\u0441\u043a\u0430\u044f \u0420\u0435\u0441\u043f\u0443\u0431\u043b\u0438\u043a\u0430",
        "official_name:rw": "Repubulika \u2019Afurika y \u2019Epfo",
        "official_name:sah": "\u0421\u043e\u0495\u0443\u0440\u0443\u0443 \u0410\u0444\u0440\u0438\u043a\u0430 \u0420\u0435\u0441\u043f\u0443\u0431\u043b\u0438\u043a\u0430\u0442\u0430",
        "official_name:sc": "Repubblica de su Sud\u00e0frica",
        "official_name:scn": "Rip\u00f9bbrica d\u00fb \u00c0frica d\u00fb Sud",
        "official_name:sco": "Sooth African Republic",
        "official_name:se": "Lulli-Afrihk\u00e1 d\u00e1ssev\u00e1ldi",
        "official_name:sg": "K\u00f6d\u00f6r\u00f6s\u00ease t\u00ee Afr\u00eeka-Mbongo",
        "official_name:sh": "Ju\u017enoafri\u010dka Republika;Republika Ju\u017ena Afrika",
        "official_name:sk": "Juhoafrick\u00e1 republika",
        "official_name:sl": "Ju\u017enoafri\u0161ka republika;Republika Ju\u017ena Afrika",
        "official_name:so": "Jamhuuriyadda Koonfur Afrika",
        "official_name:sq": "Republika Jugafrikane",
        "official_name:sr": "\u0408\u0443\u0436\u043d\u043e\u0430\u0444\u0440\u0438\u0447\u043a\u0430 \u0420\u0435\u043f\u0443\u0431\u043b\u0438\u043a\u0430;\u0420\u0435\u043f\u0443\u0431\u043b\u0438\u043a\u0430 \u0408\u0443\u0436\u043d\u0430 \u0410\u0444\u0440\u0438\u043a\u0430",
        "official_name:ss": "iRiphabhulikhi yeNingizimu Afrika",
        "official_name:st": "Rephabliki ya Afrika Borwa",
        "official_name:stq": "Suud-afrikoanske Republik",
        "official_name:su": "Republik Afrika Kidul",
        "official_name:sv": "Republiken Sydafrika",
        "official_name:sw": "Jamhuri ya Afrika Kusini",
        "official_name:szl": "Po\u0142ed\u0144owoafrika\u0144sko Republika",
        "official_name:tg": "\u04b6\u0430\u0437\u0438\u0440\u0430\u04b3\u043e\u0438 \u0410\u0444\u0440\u0438\u049b\u043e\u0438 \u04b6\u0430\u043d\u0443\u0431\u04e3",
        "official_name:th": "\u0e1b\u0e23\u0e30\u0e40\u0e17\u0e28\u0e41\u0e2d\u0e1f\u0e23\u0e34\u0e01\u0e32\u0e43\u0e15\u0e49",
        "official_name:tk": "G\u00fcnorta Afrika Respublikasy",
        "official_name:tn": "Rephaboliki ya Aforika Borwa",
        "official_name:ts": "Riphabliki ya Afrika-Dzonga",
        "official_name:tt": "\u041a\u04e9\u043d\u044c\u044f\u043a \u0410\u0444\u0440\u0438\u043a\u0430 \u0496\u04e9\u043c\u04bb\u04af\u0440\u0438\u044f\u0442\u0435",
        "official_name:uk": "\u041f\u0456\u0432\u0434\u0435\u043d\u043d\u043e-\u0410\u0444\u0440\u0438\u043a\u0430\u043d\u0441\u044c\u043a\u0430 \u0420\u0435\u0441\u043f\u0443\u0431\u043b\u0456\u043a\u0430",
        "official_name:uz": "Janubiy Afrika Respublikasi",
        "official_name:ve": "Riphabu\u1e3diki ya Afurika Tshipembe",
        "official_name:vec": "Republica Sudafricana",
        "official_name:vi": "C\u1ed9ng h\u00f2a Nam Phi",
        "official_name:vo": "Rep\u00fcblik\u00e4n Sul\u00fcdafrik\u00e4na",
        "official_name:wa": "Republike di Nonne-Afrike",
        "official_name:war": "Republika han Salatan nga Aprika",
        "official_name:wo": "Republik bu Afrig gu B\u00ebj-saalum",
        "official_name:xal": "\u04e8\u043c\u043d \u0410\u043f\u0440\u0438\u043a\u0438\u043d \u041e\u0440\u043d",
        "official_name:xh": "iRiphabliki yaseMzantsi Afrika",
        "official_name:xmf": "\u10dd\u10d1\u10df\u10d0\u10d7\u10d4 \u10d0\u10e4\u10e0\u10d8\u10d9\u10d0\u10e8 \u10e0\u10d4\u10e1\u10de\u10e3\u10d1\u10da\u10d8\u10d9\u10d0",
        "official_name:yi": "\u05e8\u05e2\u05e4\u05d5\u05d1\u05dc\u05d9\u05e7 \u05e4\u05d5\u05df \u05d3\u05e8\u05d5\u05dd \u05d0\u05e4\u05e8\u05d9\u05e7\u05e2",
        "official_name:yo": "Or\u00edl\u1eb9\u0300-\u00e8d\u00e8 Ol\u00f3m\u00ecnira il\u1eb9\u0300 G\u00fa\u00fas\u00f9 \u00c1fr\u00edk\u00e0",
        "official_name:yue": "\u5357\u975e\u5171\u548c\u570b",
        "official_name:zea": "Zuud-Afrikaonse Republiek",
        "official_name:zh": "\u5357\u975e\u5171\u548c\u56fd / \u5357\u975e\u5171\u548c\u570b",
        "official_name:zh-Hans": "\u5357\u975e\u5171\u548c\u56fd",
        "official_name:zh-Hant": "\u5357\u975e\u5171\u548c\u570b",
        "official_name:zu": "iRiphabliki yaseNingizimu Afrika",
        "population": "49991300",
        "short_name:ab": "\u0410\u0410\u0410",
        "short_name:af": "ZAR",
        "short_name:be": "\u041f\u0410\u0420",
        "short_name:bg": "\u0420\u042e\u0410",
        "short_name:cv": "\u041a\u0410\u0420",
        "short_name:en": "RSA",
        "short_name:fr": "RSA",
        "short_name:kbd": "\u0418\u0410\u0420",
        "short_name:ko": "\ub0a8\uc544\uacf5",
        "short_name:krc": "\u041a\u044a\u0410\u0420",
        "short_name:kv": "\u041b\u0410\u0420",
        "short_name:ky": "\u0422\u0410\u0420",
        "short_name:mdf": "\u041b\u0410\u0420",
        "short_name:mn": "\u04e8\u0410\u0411\u041d\u0423",
        "short_name:os": "\u0425\u0410\u0420",
        "short_name:pl": "RPA",
        "short_name:ru": "\u042e\u0410\u0420",
        "short_name:sah": "\u0421\u0410\u0420",
        "short_name:sl": "JAR",
        "short_name:tk": "GAR",
        "short_name:tt": "\u041a\u0410\u0496",
        "short_name:uk": "\u041f\u0410\u0420",
        "short_name:uz": "JAR",
        "source:population": "https://www.statssa.gov.za/publications/P0302/P03022010.pdf 2010-08-10",
        "type": "boundary",
        "wikidata": "Q258",
        "wikipedia": "en:South Africa"
      }
    },
    {
      "type": "relation",
      "id": 80501,
      "tags": {
        "ISO3166-2": "ZA-WC",
        "admin_level": "4",
        "alt_name:es": "Provincia del Cabo Occidental",
        "alt_name:hr": "Western Cape",
        "alt_name:ru": "\u0417\u0430\u043f\u0430\u0434\u043d\u0430\u044f \u041a\u0430\u043f\u0441\u043a\u0430\u044f \u043f\u0440\u043e\u0432\u0438\u043d\u0446\u0438\u044f",
        "alt_name:xh": "IPhondo yaNtshona-Koloni",
        "boundary": "administrative",
        "name": "Western Cape",
        "name:af": "Wes-Kaap",
        "name:ar": "\u0643\u064a\u0628 \u0627\u0644\u063a\u0631\u0628\u064a\u0629",
        "name:ast": "Provincia Cabu Occidental",
        "name:az": "Q\u0259rbi Keyp vilay\u0259ti",
        "name:be": "\u0417\u0430\u0445\u043e\u0434\u043d\u0435-\u041a\u0430\u043f\u0441\u043a\u0430\u044f \u043f\u0440\u0430\u0432\u0456\u043d\u0446\u044b\u044f",
        "name:bg": "\u0417\u0430\u043f\u0430\u0434\u0435\u043d \u041a\u0435\u0439\u043f",
        "name:bn": "\u09aa\u09b6\u09cd\u099a\u09bf\u09ae \u0995\u09c7\u09aa",
        "name:br": "Kab ar C'hornaoueg",
        "name:ca": "Cap Occidental",
        "name:ceb": "Western Cape",
        "name:cs": "Z\u00e1padn\u00ed Kapsko",
        "name:da": "Vest-Kapprovinsen",
        "name:de": "Westkap",
        "name:en": "Western Cape",
        "name:eo": "Okcidenta Kablando",
        "name:es": "El Cabo Occidental",
        "name:et": "L\u00e4\u00e4ne-Kapimaa provints",
        "name:eu": "Lurmutur Mendebaldea",
        "name:fa": "\u06a9\u06cc\u067e \u063a\u0631\u0628\u06cc",
        "name:fi": "L\u00e4nsi-Kap",
        "name:fo": "Western Cape",
        "name:fr": "Cap occidental",
        "name:frr": "Waastkap",
        "name:gl": "Cabo Occidental",
        "name:hak": "S\u00ee Cape-s\u00e9n",
        "name:he": "\u05d4\u05db\u05e3 \u05d4\u05de\u05e2\u05e8\u05d1\u05d9",
        "name:hi": "\u092a\u0936\u094d\u091a\u093f\u092e\u0940 \u0915\u0947\u092a \u092a\u094d\u0930\u093e\u0928\u094d\u0924",
        "name:hr": "Zapadni rt",
        "name:hu": "Nyugat-Fokf\u00f6ld",
        "name:hy": "\u0531\u0580\u0587\u0574\u057f\u0575\u0561\u0576 \u053f\u0561\u057a",
        "name:id": "Western Cape",
        "name:it": "Provincia del Capo Occidentale",
        "name:ja": "\u897f\u30b1\u30fc\u30d7\u5dde",
        "name:ka": "\u10d3\u10d0\u10e1\u10d0\u10d5\u10da\u10d4\u10d7\u10d8 \u10d9\u10d0\u10de\u10da\u10d0\u10dc\u10d3\u10d8",
        "name:ko": "\uc6e8\uc2a4\ud134\ucf00\uc774\ud504\uc8fc",
        "name:lt": "Vakar\u0173 Ky\u0161ulio provincija",
        "name:lv": "Rietumk\u0101pa",
        "name:mk": "\u0417\u0430\u043f\u0430\u0434\u0435\u043d \u041a\u0435\u0458\u043f",
        "name:ml": "\u0d2a\u0d1f\u0d3f\u0d1e\u0d4d\u0d1e\u0d3e\u0d31\u0d7b \u0d15\u0d47\u0d2a\u0d4d",
        "name:mr": "\u0935\u0947\u0938\u094d\u091f\u0930\u094d\u0928 \u0915\u0947\u092a",
        "name:ms": "Cape Barat",
        "name:nan": "Sai Cape S\u00e9ng",
        "name:nl": "West-Kaap",
        "name:nn": "Western Cape",
        "name:no": "Wes-Kaap",
        "name:nso": "Kapa Bodikela",
        "name:ny": "Western Cape",
        "name:pl": "Prowincja Przyl\u0105dkowa Zachodnia",
        "name:pnb": "\u0686\u0691\u06be\u062f\u0627 \u06a9\u06cc\u067e",
        "name:pt": "Cabo Ocidental",
        "name:ro": "Provincia Western Cape",
        "name:ru": "\u0417\u0430\u043f\u0430\u0434\u043d\u043e-\u041a\u0430\u043f\u0441\u043a\u0430\u044f \u043f\u0440\u043e\u0432\u0438\u043d\u0446\u0438\u044f",
        "name:sco": "Wastren Cape",
        "name:sh": "Zapadni Kaap",
        "name:short": "WC",
        "name:sk": "Z\u00e1padn\u00e9 Kapsko",
        "name:so": "Western Cape Province",
        "name:sr": "\u0417\u0430\u043f\u0430\u0434\u043d\u0438 \u041a\u0435\u0458\u043f",
        "name:ss": "Western Cape",
        "name:st": "Kapa Bophirimela",
        "name:sv": "V\u00e4stra Kapprovinsen",
        "name:sw": "Rasi ya Magharibi",
        "name:ta": "\u0bae\u0bc7\u0bb1\u0bcd\u0b95\u0bc1 \u0b95\u0bc7\u0baa\u0bcd",
        "name:th": "\u0e08\u0e31\u0e07\u0e2b\u0e27\u0e31\u0e14\u0e40\u0e27\u0e2a\u0e40\u0e17\u0e34\u0e23\u0e4c\u0e19\u0e40\u0e04\u0e1b",
        "name:tn": "Kapa Bophirima",
        "name:tr": "Bat\u0131 Kap",
        "name:uk": "\u0417\u0430\u0445\u0456\u0434\u043d\u043e\u043a\u0430\u043f\u0441\u044c\u043a\u0430 \u043f\u0440\u043e\u0432\u0456\u043d\u0446\u0456\u044f",
        "name:ur": "\u0645\u063a\u0631\u0628\u06cc \u06a9\u06cc\u067e",
        "name:ve": "Kapa Vhukovhela",
        "name:vi": "T\u00e2y Cape",
        "name:war": "Katundan Cape",
        "name:wuu": "\u897f\u5f00\u666e\u7701",
        "name:xh": "Ntshona-Koloni",
        "name:yo": "Western Cape",
        "name:yue": "\u897f\u958b\u666e",
        "name:zh": "\u897f\u958b\u666e\u7701",
        "name:zu": "INtshonalanga Kapa",
        "ref": "WC",
        "type": "boundary",
        "wikidata": "Q127167",
        "wikipedia": "en:Western Cape"
      }
    },
    {
      "type": "relation",
      "id": 86720,
      "tags": {
        "ISO3166-2": "ZA-NC",
        "admin_level": "4",
        "alt_name:es": "Provincia Cabo del Norte",
        "alt_name:fr": "Cap-Nord",
        "alt_name:ru": "\u0421\u0435\u0432\u0435\u0440\u043d\u0430\u044f \u041a\u0430\u043f\u0441\u043a\u0430\u044f \u043f\u0440\u043e\u0432\u0438\u043d\u0446\u0438\u044f",
        "alt_name:xh": "IPhondo yaseMntla-Koloni",
        "boundary": "administrative",
        "name": "Northern Cape",
        "name:af": "Noord-Kaap",
        "name:ar": "\u0643\u064a\u0628 \u0627\u0644\u0634\u0645\u0627\u0644\u064a\u0629",
        "name:ast": "Provincia Cabu del Norte",
        "name:az": "\u015eimali Keyp vilay\u0259ti",
        "name:bg": "\u0421\u0435\u0432\u0435\u0440\u0435\u043d \u041a\u0435\u0439\u043f",
        "name:br": "Kab an Norzh",
        "name:ca": "Cap Septentrional",
        "name:ceb": "Northern Cape",
        "name:cs": "Severn\u00ed Kapsko",
        "name:da": "Nord-Kapprovinsen",
        "name:de": "Nordkap",
        "name:en": "Northern Cape",
        "name:eo": "Norda Kablando",
        "name:es": "El Cabo Septentrional",
        "name:et": "P\u00f5hja-Kapimaa provints",
        "name:eu": "Lurmutur Iparraldea",
        "name:fa": "\u06a9\u06cc\u067e \u0634\u0645\u0627\u0644\u06cc",
        "name:fi": "Pohjois-Kap",
        "name:fo": "Northern Cape",
        "name:fr": "Cap du Nord",
        "name:frr": "Nuurdkap",
        "name:gl": "Cabo Setentrional",
        "name:hak": "Pet Cape-s\u00e9n",
        "name:he": "\u05d4\u05db\u05e3 \u05d4\u05e6\u05e4\u05d5\u05e0\u05d9",
        "name:hi": "\u0909\u0924\u094d\u0924\u0930\u0940 \u0915\u0947\u092a \u092a\u094d\u0930\u093e\u0928\u094d\u0924",
        "name:hr": "Northern Cape",
        "name:hu": "\u00c9szak-Fokf\u00f6ld",
        "name:hy": "\u0540\u0575\u0578\u0582\u057d\u056b\u057d\u0561\u0575\u056b\u0576 \u053f\u0561\u057a",
        "name:id": "Northern Cape",
        "name:it": "Provincia del Capo Settentrionale",
        "name:ja": "\u5317\u30b1\u30fc\u30d7\u5dde",
        "name:ka": "\u10e9\u10e0\u10d3\u10d8\u10da\u10dd\u10d4\u10d7\u10d8 \u10d9\u10d0\u10de\u10da\u10d0\u10dc\u10d3\u10d8",
        "name:ko": "\ub178\ub358\ucf00\uc774\ud504\uc8fc",
        "name:lt": "\u0160iaur\u0117s Ky\u0161ulio provincija",
        "name:lv": "Zieme\u013ck\u0101pa",
        "name:mk": "\u0421\u0435\u0432\u0435\u0440\u0435\u043d \u041a\u0435\u0458\u043f",
        "name:mr": "\u0928\u0949\u0930\u094d\u0926\u0930\u094d\u0928 \u0915\u0947\u092a",
        "name:nan": "Pak Cape S\u00e9ng",
        "name:nl": "Noord-Kaap",
        "name:nn": "Northern Cape",
        "name:no": "Noord-Kaap",
        "name:nso": "Kapa Leboa",
        "name:ny": "Northern Cape",
        "name:oc": "Cap Septentrional",
        "name:pl": "Prowincja Przyl\u0105dkowa P\u00f3\u0142nocna",
        "name:pnb": "\u0627\u062a\u0644\u0627 \u06a9\u06cc\u067e",
        "name:pt": "Cabo Setentrional",
        "name:ro": "Provincia Northern Cape",
        "name:ru": "\u0421\u0435\u0432\u0435\u0440\u043e-\u041a\u0430\u043f\u0441\u043a\u0430\u044f \u043f\u0440\u043e\u0432\u0438\u043d\u0446\u0438\u044f",
        "name:sco": "Northren Cape",
        "name:sh": "Sjeverni Kaap",
        "name:short": "NC",
        "name:sk": "Severn\u00e9 Kapsko",
        "name:sl": "Severna Kaplandija",
        "name:so": "Northern Cape Province",
        "name:sr": "\u0421\u0435\u0432\u0435\u0440\u043d\u0438 \u041a\u0435\u0458\u043f",
        "name:ss": "Northern Cape",
        "name:st": "Kapa Leboya",
        "name:sv": "Norra Kapprovinsen",
        "name:sw": "Rasi ya Kaskazini",
        "name:ta": "\u0bb5\u0b9f\u0b95\u0bcd\u0b95\u0bc1 \u0b95\u0bc7\u0baa\u0bcd",
        "name:tn": "Kapa Bokone",
        "name:tr": "Kuzey Kap",
        "name:uk": "\u041f\u0456\u0432\u043d\u0456\u0447\u043d\u043e\u043a\u0430\u043f\u0441\u044c\u043a\u0430 \u043f\u0440\u043e\u0432\u0456\u043d\u0446\u0456\u044f",
        "name:ur": "\u0634\u0645\u0627\u0644\u06cc \u06a9\u06cc\u067e",
        "name:ve": "Kapa Devhula",
        "name:vec": "Cao Setentrional",
        "name:vi": "B\u1eafc Cape",
        "name:war": "Amihanan Cape",
        "name:wuu": "\u5317\u5f00\u666e\u7701",
        "name:xh": "Mntla-Koloni",
        "name:yo": "Northern Cape",
        "name:yue": "\u5317\u958b\u666e",
        "name:zh": "\u5317\u958b\u666e\u7701",
        "name:zu": "INyakatho Kapa",
        "ref": "NC",
        "type": "boundary",
        "wikidata": "Q132418",
        "wikipedia": "en:Northern Cape"
      }
    },
    {
      "type": "relation",
      "id": 88574,
      "tags": {
        "ISO3166-2": "ZA-EC",
        "admin_level": "4",
        "alt_name:es": "Provincia del Cabo Oriental",
        "alt_name:hr": "Eastern Cape",
        "alt_name:ru": "\u0412\u043e\u0441\u0442\u043e\u0447\u043d\u0430\u044f \u041a\u0430\u043f\u0441\u043a\u0430\u044f \u043f\u0440\u043e\u0432\u0438\u043d\u0446\u0438\u044f",
        "alt_name:xh": "IPhondo laseMpuma-Koloni",
        "boundary": "administrative",
        "name": "Eastern Cape",
        "name:af": "Oos-Kaap",
        "name:ar": "\u0643\u064a\u0628 \u0627\u0644\u0634\u0631\u0642\u064a\u0629",
        "name:ast": "Cabu Oriental",
        "name:az": "\u015e\u0259rqi Keyp vilay\u0259ti",
        "name:be": "\u0423\u0441\u0445\u043e\u0434\u043d\u0435-\u041a\u0430\u043f\u0441\u043a\u0430\u044f \u043f\u0440\u0430\u0432\u0456\u043d\u0446\u044b\u044f",
        "name:be-tarask": "\u0423\u0441\u0445\u043e\u0434\u043d\u044f\u044f \u041a\u0430\u043f\u0441\u043a\u0430\u044f \u043f\u0440\u0430\u0432\u0456\u043d\u0446\u044b\u044f",
        "name:bg": "\u0418\u0437\u0442\u043e\u0447\u0435\u043d \u041a\u0435\u0439\u043f",
        "name:bn": "\u09aa\u09c2\u09b0\u09cd\u09ac \u0995\u09c7\u09aa",
        "name:br": "Kab ar Reter",
        "name:ca": "Cap Oriental",
        "name:ceb": "Eastern Cape",
        "name:cs": "V\u00fdchodn\u00ed Kapsko",
        "name:da": "\u00d8st-Kapprovinsen",
        "name:de": "Ostkap",
        "name:en": "Eastern Cape",
        "name:eo": "Orienta Kablando",
        "name:es": "El Cabo Oriental",
        "name:et": "Ida-Kapimaa provints",
        "name:eu": "Lurmutur Ekialdea",
        "name:fa": "\u06a9\u06cc\u067e \u0634\u0631\u0642\u06cc",
        "name:fi": "It\u00e4-Kap",
        "name:fo": "Eastern Cape",
        "name:fr": "Cap-Oriental",
        "name:frr": "Uastkap",
        "name:gl": "Cabo Oriental",
        "name:hak": "T\u00fbng Cape-s\u00e9n",
        "name:he": "\u05d4\u05db\u05e3 \u05d4\u05de\u05d6\u05e8\u05d7\u05d9",
        "name:hi": "\u092a\u0942\u0930\u094d\u0935\u0940 \u0915\u0947\u092a \u092a\u094d\u0930\u093e\u0928\u094d\u0924",
        "name:hr": "Isto\u010dni rt",
        "name:hu": "Kelet-Fokf\u00f6ld",
        "name:hy": "\u0531\u0580\u0587\u0565\u056c\u0575\u0561\u0576 \u053f\u0561\u057a",
        "name:id": "Eastern Cape",
        "name:it": "Provincia del Capo Orientale",
        "name:ja": "\u6771\u30b1\u30fc\u30d7\u5dde",
        "name:ka": "\u10d0\u10e6\u10db\u10dd\u10e1\u10d0\u10d5\u10da\u10d4\u10d7\u10d8 \u10d9\u10d0\u10de\u10da\u10d0\u10dc\u10d3\u10d8",
        "name:ko": "\uc774\uc2a4\ud134\ucf00\uc774\ud504\uc8fc",
        "name:la": "Caput orientale",
        "name:lt": "Ryt\u0173 Ky\u0161ulio provincija",
        "name:lv": "Austrumk\u0101pa",
        "name:mk": "\u0418\u0441\u0442\u043e\u0447\u0435\u043d \u041a\u0435\u0458\u043f",
        "name:ml": "\u0d15\u0d3f\u0d34\u0d15\u0d4d\u0d15\u0d7b \u0d15\u0d47\u0d2a\u0d4d",
        "name:mr": "\u0908\u0938\u094d\u091f\u0930\u094d\u0928 \u0915\u0947\u092a",
        "name:ms": "Cape Timur",
        "name:nan": "Tang Cape S\u00e9ng",
        "name:nl": "Oost-Kaap",
        "name:nn": "Eastern Cape",
        "name:no": "IMpuma-Koloni",
        "name:nso": "Kapa Bohlabela",
        "name:ny": "Eastern Cape",
        "name:pl": "Prowincja Przyl\u0105dkowa Wschodnia",
        "name:pnb": "\u0644\u06cc\u0646\u062f\u0627 \u06a9\u06cc\u067e",
        "name:pt": "Cabo Oriental",
        "name:ro": "Provincia Eastern Cape",
        "name:ru": "\u0412\u043e\u0441\u0442\u043e\u0447\u043d\u043e-\u041a\u0430\u043f\u0441\u043a\u0430\u044f \u043f\u0440\u043e\u0432\u0438\u043d\u0446\u0438\u044f",
        "name:sh": "Isto\u010dni Kaap",
        "name:short": "EC",
        "name:so": "Eastern Cape Province",
        "name:sr": "\u0418\u0441\u0442\u043e\u0447\u043d\u0438 \u041a\u0435\u0458\u043f",
        "name:ss": "Eastern Cape",
        "name:st": "Kapa Botjhabela",
        "name:sv": "\u00d6stra Kapprovinsen",
        "name:sw": "Rasi ya Mashariki",
        "name:ta": "\u0b95\u0bbf\u0bb4\u0b95\u0bcd\u0b95\u0bc1 \u0b95\u0bc7\u0baa\u0bcd",
        "name:tn": "Kapa Botlhaba",
        "name:tr": "Do\u011fu Kap",
        "name:uk": "\u0421\u0445\u0456\u0434\u043d\u043e\u043a\u0430\u043f\u0441\u044c\u043a\u0430 \u043f\u0440\u043e\u0432\u0456\u043d\u0446\u0456\u044f",
        "name:ur": "\u0645\u0634\u0631\u0642\u06cc \u06a9\u06cc\u067e",
        "name:ve": "Kapa Vhubva\u1e13uvha",
        "name:vi": "\u0110\u00f4ng Cape",
        "name:war": "Sinirangan Cape",
        "name:wuu": "\u4e1c\u5f00\u666e\u7701",
        "name:xh": "Mpuma-Koloni",
        "name:yo": "Eastern Cape",
        "name:yue": "\u6771\u958b\u666e",
        "name:zh": "\u6771\u958b\u666e\u7701",
        "name:zu": "KwaXhosa",
        "ref": "EC",
        "type": "boundary",
        "wikidata": "Q130840",
        "wikipedia": "en:Eastern Cape"
      }
    },
    {
      "type": "relation",
      "id": 92417,
      "tags": {
        "ISO3166-2": "ZA-FS",
        "admin_level": "4",
        "alt_name:ar": "\u0627\u0644\u0648\u0644\u0627\u064a\u0629 \u0627\u0644\u062d\u0631\u0629",
        "alt_name:xh": "IPhondo yaFreyistata",
        "boundary": "administrative",
        "land_area": "administrative",
        "name": "Free State",
        "name:af": "Vrystaat",
        "name:ar": "\u0641\u0631\u064a \u0633\u062a\u064a\u062a",
        "name:de": "Freistaat",
        "name:en": "Free State",
        "name:eo": "Liber\u015dtato",
        "name:es": "Provincia del Estado Libre",
        "name:nl": "Vrijstaat",
        "name:pt": "Estado Livre",
        "name:ru": "\u0424\u0440\u0438-\u0421\u0442\u0435\u0439\u0442",
        "name:ss": "Fuleyistata",
        "name:st": "Freistata",
        "name:tn": "Foreistata",
        "name:xh": "iFreyistata",
        "ref": "FS",
        "type": "boundary",
        "wikidata": "Q160284",
        "wikipedia": "en:Free State (province)"
      }
    },
    {
      "type": "relation",
      "id": 349344,
      "tags": {
        "ISO3166-2": "ZA-GP",
        "admin_level": "4",
        "boundary": "administrative",
        "name": "Gauteng",
        "name:ar": "\u063a\u0627\u0648\u062a\u064a\u0646\u062c",
        "name:pt": "Gautengue",
        "ref": "GP",
        "type": "boundary",
        "wikidata": "Q133083",
        "wikipedia": "en:Gauteng"
      }
    },
    {
      "type": "relation",
      "id": 349390,
      "tags": {
        "ISO3166-2": "ZA-KZN",
        "admin_level": "4",
        "boundary": "administrative",
        "name": "KwaZulu-Natal",
        "name:ar": "\u0643\u0648\u0627\u0632\u0648\u0644\u0648 \u0646\u0627\u062a\u0627\u0644",
        "name:nl": "KwaZoeloe-Natal",
        "name:nso": "KwaZulu Natala",
        "name:pt": "KwaZulu-Natal",
        "name:ru": "\u041a\u0432\u0430\u0437\u0443\u043b\u0443-\u041d\u0430\u0442\u0430\u043b\u044c",
        "name:zu": "IKwaZulu-Natali",
        "ref": "KZN",
        "type": "boundary",
        "wikidata": "Q81725",
        "wikipedia": "en:KwaZulu-Natal"
      }
    },
    {
      "type": "relation",
      "id": 349519,
      "tags": {
        "ISO3166-2": "ZA-NW",
        "admin_level": "4",
        "alt_name:ar": "\u0627\u0644\u0645\u0642\u0627\u0637\u0639\u0629 \u0627\u0644\u0634\u0645\u0627\u0644\u064a\u0629 \u0627\u0644\u063a\u0631\u0628\u064a\u0629 \u0644\u062c\u0646\u0648\u0628 \u0623\u0641\u0631\u064a\u0642\u064a\u0627",
        "alt_name:es": "Provincia del Noroeste",
        "alt_name:xh": "IPhondo yaseMntla-Ntshona",
        "alt_name:zu": "INyakatho-Ntshonalanga",
        "boundary": "administrative",
        "name": "North West",
        "name:af": "Noordwes",
        "name:ar": "\u0627\u0644\u0634\u0645\u0627\u0644\u064a\u0629 \u0627\u0644\u063a\u0631\u0628\u064a\u0629",
        "name:ast": "Provincia del Noroeste",
        "name:az": "\u015eimal-Q\u0259rb vilay\u0259ti",
        "name:be": "\u041f\u0430\u045e\u043d\u043e\u0447\u043d\u0430-\u0417\u0430\u0445\u043e\u0434\u043d\u044f\u044f \u043f\u0440\u0430\u0432\u0456\u043d\u0446\u044b\u044f",
        "name:bg": "\u0421\u0435\u0432\u0435\u0440\u043e\u0437\u0430\u043f\u0430\u0434\u043d\u0430 \u043f\u0440\u043e\u0432\u0438\u043d\u0446\u0438\u044f",
        "name:br": "Gwalarn",
        "name:ca": "Prov\u00edncia del Nord-oest",
        "name:ceb": "Province of North West",
        "name:cs": "Severoz\u00e1padn\u00ed provincie",
        "name:da": "Nordvest",
        "name:de": "Nordwest",
        "name:en": "North West",
        "name:es": "Noroeste",
        "name:et": "Loodeprovints",
        "name:eu": "Ipar-mendebaldea",
        "name:fa": "\u0634\u0645\u0627\u0644 \u063a\u0631\u0628\u06cc",
        "name:fi": "Luoteismaakunta",
        "name:fo": "North West",
        "name:fr": "Nord-Ouest",
        "name:frr": "Nuurdwaast",
        "name:hak": "S\u00ee-pet-s\u00e9n",
        "name:he": "\u05d4\u05e4\u05e8\u05d5\u05d1\u05d9\u05e0\u05e6\u05d9\u05d4 \u05d4\u05e6\u05e4\u05d5\u05df-\u05de\u05e2\u05e8\u05d1\u05d9\u05ea",
        "name:hi": "\u092a\u0936\u094d\u091a\u093f\u092e\u094b\u0924\u094d\u0924\u0930 \u092a\u094d\u0930\u093e\u0928\u094d\u0924",
        "name:hr": "North West",
        "name:hu": "\u00c9szaknyugati Tartom\u00e1ny",
        "name:hy": "\u0540\u0575\u0578\u0582\u057d\u056b\u057d\u0561\u0580\u0587\u0574\u057f\u0575\u0561\u0576 \u0576\u0561\u0570\u0561\u0576\u0563",
        "name:id": "North West, Afrika Selatan",
        "name:it": "Provincia del Nordovest",
        "name:ja": "\u5317\u897f\u5dde",
        "name:ka": "\u10e9\u10e0\u10d3\u10d8\u10da\u10dd-\u10d3\u10d0\u10e1\u10d0\u10d5\u10da\u10d4\u10d7\u10d8",
        "name:ko": "\ub178\uc2a4\uc6e8\uc2a4\ud2b8\uc8fc",
        "name:lt": "\u0160iaur\u0117s Vakarai",
        "name:lv": "Zieme\u013crietumi",
        "name:mk": "\u0421\u0435\u0432\u0435\u0440\u043e\u0437\u0430\u043f\u0430\u0434\u043d\u0430 \u043f\u043e\u043a\u0440\u0430\u0438\u043d\u0430",
        "name:mr": "\u0928\u0949\u0930\u094d\u0925 \u0935\u0947\u0938\u094d\u091f",
        "name:nan": "Sai-pak S\u00e9ng",
        "name:nl": "Noordwest",
        "name:no": "Bokone Bophirima",
        "name:nso": "Leboa Bodikela",
        "name:ny": "North West",
        "name:pl": "Prowincja P\u00f3\u0142nocno-Zachodnia",
        "name:pnb": "\u0627\u062a\u0644\u0627 \u0644\u06c1\u0646\u062f\u0627 \u0635\u0648\u0628\u06c1",
        "name:pt": "Noroeste",
        "name:ro": "Provincia North West",
        "name:ru": "\u0421\u0435\u0432\u0435\u0440\u043e-\u0417\u0430\u043f\u0430\u0434\u043d\u0430\u044f \u043f\u0440\u043e\u0432\u0438\u043d\u0446\u0438\u044f",
        "name:sco": "North Wast",
        "name:sh": "Sjeverozapad",
        "name:so": "North West Province",
        "name:sr": "\u0421\u0435\u0432\u0435\u0440\u043e\u0437\u0430\u043f\u0430\u0434\u043d\u0430 \u043f\u043e\u043a\u0440\u0430\u0458\u0438\u043d\u0430",
        "name:ss": "North West",
        "name:st": "Leboya Bophirimela",
        "name:sv": "Nordv\u00e4stprovinsen, Sydafrika",
        "name:sw": "Kaskazini-Magharibi",
        "name:ta": "\u0bb5\u0b9f \u0bae\u0bc7\u0bb1\u0bcd\u0b95\u0bc1",
        "name:tn": "Bokone Bophirima",
        "name:tr": "Kuzeybat\u0131",
        "name:uk": "\u041f\u0456\u0432\u043d\u0456\u0447\u043d\u043e-\u0417\u0430\u0445\u0456\u0434\u043d\u0430 \u043f\u0440\u043e\u0432\u0456\u043d\u0446\u0456\u044f",
        "name:ur": "\u0634\u0645\u0627\u0644 \u0645\u063a\u0631\u0628\u06cc",
        "name:ve": "Devhula-Vhukovhela",
        "name:vi": "T\u00e2y B\u1eafc",
        "name:war": "Amihanan-Katundan",
        "name:wuu": "\u897f\u5317\u7701",
        "name:xh": "Mntla-Ntshona",
        "name:yo": "\u00c0r\u00edw\u00e1-\u00ccw\u1ecd\u00f2r\u00f9n",
        "name:yue": "\u897f\u5317\u7701",
        "name:zh": "\u897f\u5317\u7701",
        "name:zu": "iNyakatho-Ntshonalanga",
        "ref": "NW",
        "type": "boundary",
        "wikidata": "Q165956",
        "wikipedia": "en:North West (South African province)"
      }
    },
    {
      "type": "relation",
      "id": 349547,
      "tags": {
        "ISO3166-2": "ZA-LP",
        "admin_level": "4",
        "boundary": "administrative",
        "name": "Limpopo",
        "name:af": "Limpopo",
        "name:ar": "\u0644\u064a\u0645\u0628\u0648\u0628\u0648",
        "name:ast": "Provincia de Limpopo",
        "name:az": "Limpopo vilay\u0259ti",
        "name:be": "\u041b\u0456\u043c\u043f\u043e\u043f\u0430",
        "name:be-tarask": "\u041b\u0456\u043c\u043f\u043e\u043f\u0430",
        "name:bg": "\u041b\u0438\u043c\u043f\u043e\u043f\u043e",
        "name:br": "Limpopo",
        "name:ca": "Prov\u00edncia de Limpopo",
        "name:ceb": "Limpopo",
        "name:cs": "Limpopo",
        "name:da": "Limpopo",
        "name:de": "Limpopo",
        "name:en": "Limpopo",
        "name:eo": "Limpopo",
        "name:es": "Provincia de Limpopo",
        "name:et": "Limpopo provints",
        "name:eu": "Limpopo",
        "name:fa": "\u0644\u06cc\u0645\u067e\u0648\u067e\u0648",
        "name:fi": "Limpopon provinssi",
        "name:fr": "Limpopo",
        "name:frr": "Limpopo",
        "name:gl": "Limpopo",
        "name:hak": "Limpopo-s\u00e9n",
        "name:he": "\u05dc\u05d9\u05de\u05e4\u05d5\u05e4\u05d5",
        "name:hi": "\u0932\u093f\u092e\u094d\u092a\u094b\u092a\u094b \u092a\u094d\u0930\u093e\u0928\u094d\u0924",
        "name:hr": "Limpopo",
        "name:hu": "Limpopo",
        "name:hy": "\u053c\u056b\u0574\u057a\u0578\u057a\u0578",
        "name:id": "Limpopo",
        "name:it": "Provincia del Limpopo",
        "name:ja": "\u30ea\u30f3\u30dd\u30dd\u5dde",
        "name:ka": "\u10da\u10d8\u10db\u10de\u10dd\u10de\u10dd",
        "name:ko": "\ub9bc\ud3ec\ud3ec\uc8fc",
        "name:lt": "Limpopas",
        "name:lv": "Limpopo",
        "name:mk": "\u041b\u0438\u043c\u043f\u043e\u043f\u043e",
        "name:ml": "\u0d32\u0d3f\u0d02\u0d2a\u0d4b\u0d2a\u0d4b",
        "name:mr": "\u0932\u093f\u092e\u094d\u092a\u094b\u092a\u094b",
        "name:nan": "Limpopo S\u00e9ng",
        "name:nl": "Limpopo",
        "name:nn": "Limpopo",
        "name:no": "Limpopo",
        "name:nso": "Limpopo",
        "name:ny": "Limpopo",
        "name:pl": "Limpopo",
        "name:pnb": "\u0644\u0645\u067e\u0648\u067e\u0648",
        "name:pt": "Limpopo",
        "name:ro": "Provincia Limpopo",
        "name:ru": "\u041b\u0438\u043c\u043f\u043e\u043f\u043e",
        "name:sh": "Limpopo",
        "name:so": "Limpopo Province",
        "name:sr": "\u041b\u0438\u043c\u043f\u043e\u043f\u043e",
        "name:ss": "Limpopo",
        "name:st": "Limpopo",
        "name:sv": "Limpopoprovinsen",
        "name:sw": "Limpopo",
        "name:ta": "\u0bb2\u0bbf\u0bae\u0bcd\u0baa\u0bcb\u0baa\u0bcb",
        "name:tg": "\u041b\u0438\u043c\u043f\u043e\u043f\u043e",
        "name:tn": "Kgaolo ya Limpopo",
        "name:tr": "Limpopo",
        "name:ts": "Limpopo",
        "name:uk": "\u041b\u0456\u043c\u043f\u043e\u043f\u043e",
        "name:ur": "\u0644\u06cc\u0645\u067e\u0648\u067e\u0648",
        "name:ve": "Limpopo",
        "name:vi": "Limpopo",
        "name:war": "Limpopo",
        "name:wuu": "\u6797\u6ce2\u6ce2\u7701",
        "name:xh": "IPhondo yaLimpopo",
        "name:yo": "Limpopo",
        "name:yue": "\u6797\u6ce2\u6ce2",
        "name:zh": "\u6797\u6ce2\u6ce2\u7701",
        "name:zu": "ILimpopo",
        "ref": "LP",
        "type": "boundary",
        "wikidata": "Q134907",
        "wikipedia": "en:Limpopo"
      }
    },
    {
      "type": "relation",
      "id": 349556,
      "tags": {
        "ISO3166-2": "ZA-MP",
        "admin_level": "4",
        "boundary": "administrative",
        "name": "Mpumalanga",
        "name:af": "Mpumalanga",
        "name:ar": "\u0645\u0628\u0648\u0645\u0627\u0644\u0627\u0646\u062c\u0627",
        "name:ast": "Mpumalanga",
        "name:az": "Mpumalanqa vilay\u0259ti",
        "name:be": "\u041c\u043f\u0443\u043c\u0430\u043b\u0430\u043d\u0433\u0430",
        "name:be-tarask": "\u041c\u043f\u0443\u043c\u0430\u043b\u0430\u043d\u0433\u0430",
        "name:bg": "\u041c\u043f\u0443\u043c\u0430\u043b\u0430\u043d\u0433\u0430",
        "name:br": "Mpumalanga",
        "name:ca": "Mpumalanga",
        "name:ceb": "Mpumalanga",
        "name:cs": "Mpumalanga",
        "name:da": "Mpumalanga",
        "name:de": "Mpumalanga",
        "name:en": "Mpumalanga",
        "name:es": "Provincia de Mpumalanga",
        "name:et": "Mpumalanga provints",
        "name:eu": "Mpumalanga",
        "name:fa": "\u0627\u0645\u067e\u0648\u0645\u0627\u0644\u0627\u0646\u06af\u0627",
        "name:fi": "Mpumalanga",
        "name:fr": "Mpumalanga",
        "name:frr": "Mpumalanga",
        "name:gl": "Mpumalanga",
        "name:hak": "Mpumalanga-s\u00e9n",
        "name:he": "\u05de\u05e4\u05d5\u05de\u05dc\u05e0\u05d2\u05d4",
        "name:hi": "\u0905\u092e\u092a\u0942\u092e\u0932\u093e\u0902\u0917\u093e \u092a\u094d\u0930\u093e\u0928\u094d\u0924",
        "name:hr": "Mpumalanga",
        "name:hu": "Mpumalanga",
        "name:hy": "\u0544\u057a\u0578\u0582\u0574\u0561\u056c\u0561\u0576\u0563\u0561",
        "name:id": "Mpumalanga",
        "name:it": "Mpumalanga",
        "name:ja": "\u30e0\u30d7\u30de\u30e9\u30f3\u30ac\u5dde",
        "name:ka": "\u10db\u10de\u10e3\u10db\u10d0\u10da\u10d0\u10dc\u10d2\u10d0",
        "name:ko": "\uc74c\ud478\ub9d0\ub791\uac00\uc8fc",
        "name:lt": "Mpumalanga",
        "name:lv": "Mpumalana",
        "name:mg": "Mpumalanga",
        "name:mk": "\u041c\u043f\u0443\u043c\u0430\u043b\u0430\u043d\u0433\u0430",
        "name:ml": "\u0d2a\u0d41\u0d2e\u0d3e\u0d32\u0d7b\u0d17",
        "name:mr": "\u0909\u092e\u094d\u092a\u0941\u092e\u093e\u0932\u093e\u0902\u0917\u093e",
        "name:nan": "Mpumalanga S\u00e9ng",
        "name:nl": "Mpumalanga",
        "name:nn": "Mpumalanga",
        "name:no": "IMpumalanga",
        "name:nso": "Mpumalanga",
        "name:ny": "Mpumalanga",
        "name:pl": "Mpumalanga",
        "name:pnb": "\u0645\u067e\u0648\u0645\u0627\u0644\u0627\u0646\u06af\u0627",
        "name:pt": "Mepumalanga",
        "name:ro": "Provincia Mpumalanga",
        "name:ru": "\u041c\u043f\u0443\u043c\u0430\u043b\u0430\u043d\u0433\u0430",
        "name:sh": "Mpumalanga",
        "name:so": "Mpumalanga Province",
        "name:sr": "\u041c\u043f\u0443\u043c\u0430\u043b\u0430\u043d\u0433\u0430",
        "name:ss": "Mpumalanga",
        "name:st": "Mpumalanga",
        "name:sv": "Mpumalanga",
        "name:sw": "Mpumalanga",
        "name:ta": "\u0b87\u0bae\u0bcd\u0baa\u0bc1\u0bae\u0bb2\u0bbe\u0b99\u0bcd\u0b95\u0bbe",
        "name:tn": "Mpumalanga",
        "name:tr": "Mpumalanga",
        "name:ts": "Mpumalanga",
        "name:uk": "\u041c\u043f\u0443\u043c\u0430\u043b\u0430\u043d\u0433\u0430",
        "name:ur": "\u0645\u0627\u067e\u0648\u0645\u0627\u0644\u0627\u0646\u06af\u0627",
        "name:ve": "Mpumalanga",
        "name:vi": "Mpumalanga",
        "name:war": "Mpumalanga",
        "name:wuu": "\u666e\u9a6c\u5170\u52a0\u7701",
        "name:xh": "IPhondo yaMpumalanga",
        "name:yo": "Mpumalanga",
        "name:yue": "\u666e\u99ac\u862d\u52a0",
        "name:zh": "\u59c6\u666e\u9a6c\u5170\u52a0\u7701",
        "name:zu": "IMpumalanga",
        "ref": "MP",
        "type": "boundary",
        "wikidata": "Q132410",
        "wikipedia": "en:Mpumalanga"
      }
    },
    {
      "type": "rel",
      "id": 79604,
      "tags": {
        "admin_level": "6",
        "boundary": "administrative",
        "common_name": "Cape Town",
        "land_area": "administrative",
        "name": "City of Cape Town",
        "name:af": "Stad Kaapstad",
        "name:de": "Kapstadt",
        "name:lt": "Keiptauno miestas",
        "name:nl": "Stad Kaapstad",
        "ref": "CPT",
        "type": "boundary",
        "wikidata": "Q1185115",
        "wikipedia": "en:City of Cape Town",
        "parent_id": "80501"
      }
    },
    {
      "type": "rel",
      "id": 79634,
      "tags": {
        "admin_level": "6",
        "boundary": "administrative",
        "land_area": "administrative",
        "name": "West Coast District Municipality",
        "ref": "DC1",
        "type": "boundary",
        "wikidata": "Q2562901",
        "wikipedia": "en:West Coast District Municipality",
        "parent_id": "80501"
      }
    },
    {
      "type": "rel",
      "id": 79652,
      "tags": {
        "admin_level": "6",
        "boundary": "administrative",
        "land_area": "administrative",
        "name": "Cape Winelands District Municipality",
        "ref": "DC2",
        "type": "boundary",
        "wikidata": "Q1974486",
        "wikipedia": "en:Cape Winelands District Municipality",
        "parent_id": "80501"
      }
    },
    {
      "type": "rel",
      "id": 79680,
      "tags": {
        "admin_level": "6",
        "boundary": "administrative",
        "land_area": "administrative",
        "name": "Overberg District Municipality",
        "ref": "DC3",
        "type": "boundary",
        "wikidata": "Q1899307",
        "wikipedia": "en:Overberg District Municipality",
        "parent_id": "80501"
      }
    },
    {
      "type": "rel",
      "id": 79797,
      "tags": {
        "admin_level": "6",
        "boundary": "administrative",
        "land_area": "administrative",
        "name": "Garden Route District Municipality",
        "old_name:2000-2018": "Eden District Municipality",
        "ref": "DC4",
        "type": "boundary",
        "wikidata": "Q220249",
        "wikipedia": "en:Garden Route District Municipality",
        "parent_id": "80501"
      }
    },
    {
      "type": "rel",
      "id": 79807,
      "tags": {
        "admin_level": "6",
        "boundary": "administrative",
        "land_area": "administrative",
        "name": "Central Karoo District Municipality",
        "ref": "DC5",
        "type": "boundary",
        "wikidata": "Q1053888",
        "wikipedia": "en:Central Karoo District Municipality",
        "parent_id": "80501"
      }
    },
    {
      "type": "rel",
      "id": 81973,
      "tags": {
        "admin_level": "6",
        "boundary": "administrative",
        "land_area": "administrative",
        "name": "Namakwa District Municipality",
        "ref": "DC6",
        "type": "boundary",
        "wikidata": "Q617646",
        "wikipedia": "en:Namakwa District Municipality",
        "parent_id": "86720"
      }
    },
    {
      "type": "rel",
      "id": 82027,
      "tags": {
        "admin_level": "6",
        "boundary": "administrative",
        "land_area": "administrative",
        "name": "Pixley ka Seme District Municipality",
        "ref": "DC7",
        "type": "boundary",
        "wikidata": "Q1886098",
        "wikipedia": "en:Pixley ka Seme District Municipality",
        "parent_id": "86720"
      }
    },
    {
      "type": "rel",
      "id": 82046,
      "tags": {
        "admin_level": "6",
        "boundary": "administrative",
        "land_area": "administrative",
        "name": "ZF Mgcawu District Municipality",
        "old_name": "Siyanda District Municipality",
        "ref": "DC8",
        "type": "boundary",
        "wikidata": "Q1773268",
        "wikipedia": "en:ZF Mgcawu District Municipality",
        "parent_id": "86720"
      }
    },
    {
      "type": "rel",
      "id": 86694,
      "tags": {
        "admin_level": "6",
        "boundary": "administrative",
        "land_area": "administrative",
        "name": "Frances Baard District Municipality",
        "ref": "DC9",
        "type": "boundary",
        "wikidata": "Q1263830",
        "wikipedia": "en:Frances Baard District Municipality",
        "parent_id": "86720"
      }
    },
    {
      "type": "rel",
      "id": 86701,
      "tags": {
        "admin_level": "6",
        "boundary": "administrative",
        "land_area": "administrative",
        "name": "John Taolo Gaetsewe District Municipality",
        "old_name": "Kgalagadi District Municipality",
        "ref": "DC45",
        "type": "boundary",
        "wikidata": "Q384731",
        "wikipedia": "en:John Taolo Gaetsewe District Municipality",
        "parent_id": "86720"
      }
    },
    {
      "type": "rel",
      "id": 86751,
      "tags": {
        "admin_level": "6",
        "boundary": "administrative",
        "land_area": "administrative",
        "name": "Nelson Mandela Bay Metropolitan Municipality",
        "ref": "NMA",
        "type": "boundary",
        "wikidata": "Q1856565",
        "parent_id": "88574"
      }
    },
    {
      "type": "rel",
      "id": 88144,
      "tags": {
        "admin_level": "6",
        "boundary": "administrative",
        "land_area": "administrative",
        "name": "Sarah Baartman District Municipality",
        "name:zh": "\u8428\u62c9\u00b7\u5df4\u7279\u66fc\u533a\u81ea\u6cbb\u5e02",
        "note": "Name change 1st September 2014.",
        "old_name": "Cacadu District Municipality",
        "ref": "DC10",
        "type": "boundary",
        "wikidata": "Q1024985",
        "wikipedia": "en:Sarah Baartman District Municipality",
        "parent_id": "88574"
      }
    },
    {
      "type": "rel",
      "id": 88195,
      "tags": {
        "admin_level": "6",
        "boundary": "administrative",
        "land_area": "administrative",
        "name": "Buffalo City Metropolitan Municipality",
        "old_name": "Buffalo City Local Municipality",
        "old_ref": "EC125",
        "ref": "BUF",
        "type": "boundary",
        "wikidata": "Q1002006",
        "wikipedia": "en:Buffalo City Metropolitan Municipality",
        "parent_id": "88574"
      }
    },
    {
      "type": "rel",
      "id": 88267,
      "tags": {
        "admin_level": "6",
        "alt_name": "Amatole District Municipality",
        "boundary": "administrative",
        "land_area": "administrative",
        "name": "Amathole District Municipality",
        "name:de": "Amathole",
        "name:en": "Amathole District Municipality",
        "name:es": "Distrito Municipal de Amathole",
        "name:fr": "District d'Amathole",
        "name:it": "Municipalit\u00e0 distrettuale di Amatole",
        "name:nl": "Amatole",
        "name:pl": "Amatole",
        "ref": "DC12",
        "type": "boundary",
        "wikidata": "Q455705",
        "wikimedia_commons": "Category:Amathole District Municipality",
        "wikipedia": "en:Amathole District Municipality",
        "parent_id": "88574"
      }
    },
    {
      "type": "rel",
      "id": 88468,
      "tags": {
        "admin_level": "6",
        "boundary": "administrative",
        "land_area": "administrative",
        "name": "Chris Hani District Municipality",
        "ref": "DC13",
        "type": "boundary",
        "wikidata": "Q1077283",
        "wikipedia": "en:Chris Hani District Municipality",
        "parent_id": "88574"
      }
    },
    {
      "type": "rel",
      "id": 88480,
      "tags": {
        "admin_level": "6",
        "boundary": "administrative",
        "land_area": "administrative",
        "name": "Joe Gqabi District Municipality",
        "old_name": "Ukhahlamba District Municipality",
        "ref": "DC14",
        "type": "boundary",
        "wikidata": "Q654849",
        "wikipedia": "en:Joe Gqabi District Municipality",
        "parent_id": "88574"
      }
    },
    {
      "type": "rel",
      "id": 88549,
      "tags": {
        "admin_level": "6",
        "boundary": "administrative",
        "land_area": "administrative",
        "name": "O.R. Tambo District Municipality",
        "ref": "DC15",
        "type": "boundary",
        "wikidata": "Q2007299",
        "parent_id": "88574"
      }
    },
    {
      "type": "rel",
      "id": 88563,
      "tags": {
        "admin_level": "6",
        "boundary": "administrative",
        "land_area": "administrative",
        "name": "Alfred Nzo District Municipality",
        "ref": "DC44",
        "type": "boundary",
        "wikidata": "Q1664120",
        "wikipedia": "en:Alfred Nzo District Municipality",
        "parent_id": "88574"
      }
    },
    {
      "type": "rel",
      "id": 593793,
      "tags": {
        "admin_level": "6",
        "boundary": "administrative",
        "name": "Fezile Dabi District Municipality",
        "ref": "DC20",
        "type": "boundary",
        "wikidata": "Q1410315",
        "wikipedia": "en:Fezile Dabi District Municipality",
        "parent_id": "92417"
      }
    },
    {
      "type": "rel",
      "id": 593795,
      "tags": {
        "admin_level": "6",
        "boundary": "administrative",
        "name": "Thabo Mofutsanyana District Municipality",
        "ref": "DC19",
        "type": "boundary",
        "wikidata": "Q1437719",
        "parent_id": "92417"
      }
    },
    {
      "type": "rel",
      "id": 593796,
      "tags": {
        "admin_level": "6",
        "boundary": "administrative",
        "name": "Lejweleputswa District Municipality",
        "ref": "DC18",
        "type": "boundary",
        "wikidata": "Q1816477",
        "wikipedia": "en:Lejweleputswa District Municipality",
        "parent_id": "92417"
      }
    },
    {
      "type": "rel",
      "id": 593797,
      "tags": {
        "admin_level": "6",
        "boundary": "administrative",
        "name": "Xhariep District Municipality",
        "name:af": "Xhariep-distriksmunisipaliteit",
        "name:ceb": "Xhariep District Municipality",
        "name:de": "Xhariep",
        "name:en": "Xhariep District Municipality",
        "name:et": "Xhariepi ringkond",
        "name:id": "Distrik Xhariep",
        "name:it": "Municipalit\u00e0 distrettuale di Xhariep",
        "name:nl": "Xhariep",
        "name:nov": "Gariep",
        "name:nso": "Mmasepala Setereke t\u0161a Xhariep",
        "name:pl": "Xhariep",
        "name:zh_min_nan": "Xhariep Khu-he\u030dk Ch\u016b-t\u012b-th\u00e9",
        "name:zu": "Xhariep District Municipality",
        "ref": "DC16",
        "type": "boundary",
        "wikidata": "Q2006764",
        "wikipedia": "en:Xhariep District Municipality",
        "parent_id": "92417"
      }
    },
    {
      "type": "rel",
      "id": 593812,
      "tags": {
        "admin_level": "6",
        "boundary": "administrative",
        "name": "Mangaung Metropolitan Municipality",
        "old_name": "Mangaung Local Municipality",
        "old_ref": "FS172",
        "ref": "MAN",
        "type": "boundary",
        "wikidata": "Q1159185",
        "parent_id": "92417"
      }
    },
    {
      "type": "rel",
      "id": 611666,
      "tags": {
        "admin_level": "6",
        "boundary": "administrative",
        "name": "Ngaka Modiri Molema District Municipality",
        "name:de": "Ngaka Modiri Molema",
        "name:en": "Ngaka Modiri Molema District Municipality",
        "name:es": "Distrito Municipal de Ngaka Modiri Molema",
        "name:it": "Municipalit\u00e0 distrettuale di Ngaka Modiri Molema",
        "name:nl": "Ngaka Modiri Molema",
        "name:pl": "Ngaka Modiri Molema",
        "name:ru": "\u041d\u0433\u0430\u043a\u0430-\u041c\u043e\u0434\u0438\u0440\u0438-\u041c\u043e\u043b\u0435\u043c\u0430",
        "old_name": "Central District Municipality",
        "ref": "DC38",
        "type": "boundary",
        "wikidata": "Q1984191",
        "wikipedia": "en:Ngaka Modiri Molema District Municipality",
        "parent_id": "349519"
      }
    },
    {
      "type": "rel",
      "id": 611674,
      "tags": {
        "admin_level": "6",
        "boundary": "administrative",
        "name": "Bojanala Platinum District Municipality",
        "ref": "DC37",
        "type": "boundary",
        "wikidata": "Q891165",
        "wikipedia": "en:Bojanala Platinum District Municipality",
        "parent_id": "349519"
      }
    },
    {
      "type": "rel",
      "id": 611675,
      "tags": {
        "admin_level": "6",
        "boundary": "administrative",
        "name": "Dr Kenneth Kaunda District Municipality",
        "name:de": "Dr Kenneth Kaunda",
        "name:en": "Dr Kenneth Kaunda District Municipality",
        "name:es": "Distrito Municipal de Dr Kenneth Kaunda",
        "name:it": "Municipalit\u00e0 distrettuale di Dr Kenneth Kaunda",
        "name:nl": "Dr Kenneth Kaunda",
        "name:pl": "Dr Kenneth Kaunda",
        "name:ru": "\u0414\u043e\u043a\u0442\u043e\u0440-\u041a\u0435\u043d\u043d\u0435\u0442-\u041a\u0430\u0443\u043d\u0434\u0430",
        "old_name": "Southern District Municipality",
        "ref": "DC40",
        "type": "boundary",
        "wikidata": "Q1150452",
        "wikipedia": "en:Dr Kenneth Kaunda District Municipality",
        "parent_id": "349519"
      }
    },
    {
      "type": "rel",
      "id": 611676,
      "tags": {
        "admin_level": "6",
        "boundary": "administrative",
        "name": "Dr Ruth Segomotsi Mompati District Municipality",
        "name:de": "Dr Ruth Segomotsi Mompati",
        "name:en": "Dr Ruth Segomotsi Mompati District Municipality",
        "name:es": "Distrito Municipal de Dr. Ruth Segomotsi Mompati",
        "name:it": "Municipalit\u00e0 distrettuale di Dr. Ruth Segomotsi Mompati",
        "name:nl": "Dr Ruth Segomotsi Mompati",
        "name:pl": "Dr Ruth Segomotsi Mompati",
        "name:ru": "\u0414\u043e\u043a\u0442\u043e\u0440-\u0420\u0443\u0442-\u0421\u0435\u0433\u043e\u043c\u043e\u0446\u0438-\u041c\u043e\u043c\u043f\u0430\u0442\u0438",
        "old_name": "Bophirima District Municipality",
        "ref": "DC39",
        "type": "boundary",
        "wikidata": "Q1254171",
        "wikipedia": "en:Dr Ruth Segomotsi Mompati District Municipality",
        "parent_id": "349519"
      }
    },
    {
      "type": "rel",
      "id": 611425,
      "tags": {
        "admin_level": "6",
        "boundary": "administrative",
        "name": "Mopani District Municipality",
        "name:af": "Mopani-distriksmunisipaliteit",
        "name:bg": "\u041c\u043e\u043f\u0430\u043d\u0438",
        "name:ceb": "Mopani District Municipality",
        "name:de": "Mopani",
        "name:es": "Distrito Municipal de Mopani",
        "name:et": "Mopani ringkond",
        "name:in": "Distrik Mopani",
        "name:it": "Municipalit\u00e0 distrettuale di Mopani",
        "name:nl": "Mopani",
        "name:nov": "Mopani",
        "name:nso": "Mmasepala Setereke t\u0161a Mopani",
        "name:pl": "Mopani",
        "name:ru": "\u041c\u043e\u043f\u0430\u043d\u0438",
        "name:tn": "Karolwana sa Mopani",
        "name:ve": "Mopani District Municipality",
        "name:zu": "Mopani District Municipality",
        "ref": "DC33",
        "type": "boundary",
        "wikidata": "Q611074",
        "wikipedia": "en:Mopani District Municipality",
        "parent_id": "349547"
      }
    },
    {
      "type": "rel",
      "id": 611438,
      "tags": {
        "admin_level": "6",
        "boundary": "administrative",
        "name": "Vhembe District Municipality",
        "ref": "DC34",
        "type": "boundary",
        "wikidata": "Q2305610",
        "wikipedia": "en:Vhembe District Municipality",
        "parent_id": "349547"
      }
    },
    {
      "type": "rel",
      "id": 611509,
      "tags": {
        "admin_level": "6",
        "boundary": "administrative",
        "name": "Capricorn District Municipality",
        "ref": "DC35",
        "type": "boundary",
        "wikidata": "Q692290",
        "wikipedia": "en:Capricorn District Municipality",
        "parent_id": "349547"
      }
    },
    {
      "type": "rel",
      "id": 611544,
      "tags": {
        "admin_level": "6",
        "boundary": "administrative",
        "name": "Waterberg District Municipality",
        "ref": "DC36",
        "type": "boundary",
        "wikidata": "Q2096830",
        "wikipedia": "en:Waterberg District Municipality",
        "parent_id": "349547"
      }
    },
    {
      "type": "rel",
      "id": 611577,
      "tags": {
        "admin_level": "6",
        "boundary": "administrative",
        "name": "Sekhukhune District Municipality",
        "name:de": "Sekhukhune",
        "name:en": "Sekhukhune District Municipality",
        "name:it": "Municipalit\u00e0 distrettuale di Sekhukhune",
        "name:nl": "Sekhukhune",
        "name:pl": "Sekhukhune",
        "name:ru": "\u0421\u0435\u043a\u0445\u0443\u043a\u0445\u0443\u043d\u0435",
        "name:sv": "Sekhukhune",
        "ref": "DC47",
        "type": "boundary",
        "wikidata": "Q1544445",
        "wikipedia": "en:Sekhukhune District Municipality",
        "parent_id": "349547"
      }
    },
    {
      "type": "rel",
      "id": 610712,
      "tags": {
        "admin_level": "6",
        "boundary": "administrative",
        "name": "Umkhanyakude District Municipality",
        "ref": "DC27",
        "type": "boundary",
        "wikidata": "Q1654018",
        "wikipedia": "en:Umkhanyakude District Municipality",
        "parent_id": "349390"
      }
    },
    {
      "type": "rel",
      "id": 610720,
      "tags": {
        "admin_level": "6",
        "boundary": "administrative",
        "name": "eThekwini Metropolitan Municipality",
        "ref": "ETH",
        "type": "boundary",
        "wikidata": "Q311544",
        "parent_id": "349390"
      }
    },
    {
      "type": "rel",
      "id": 610723,
      "tags": {
        "admin_level": "6",
        "boundary": "administrative",
        "name": "Ugu District Municipality",
        "ref": "DC21",
        "type": "boundary",
        "wikidata": "Q2091235",
        "wikipedia": "en:Ugu District Municipality",
        "parent_id": "349390"
      }
    },
    {
      "type": "rel",
      "id": 610729,
      "tags": {
        "admin_level": "6",
        "boundary": "administrative",
        "name": "uMgungundlovu District Municipality",
        "ref": "DC22",
        "type": "boundary",
        "wikidata": "Q311803",
        "wikipedia": "en:Umgungundlovu District Municipality",
        "parent_id": "349390"
      }
    },
    {
      "type": "rel",
      "id": 611001,
      "tags": {
        "admin_level": "6",
        "boundary": "administrative",
        "name": "Uthukela District Municipality",
        "ref": "DC23",
        "type": "boundary",
        "wikidata": "Q1324549",
        "wikipedia": "en:Uthukela District Municipality",
        "parent_id": "349390"
      }
    },
    {
      "type": "rel",
      "id": 611026,
      "tags": {
        "admin_level": "6",
        "boundary": "administrative",
        "name": "Umzinyathi District Municipality",
        "ref": "DC24",
        "type": "boundary",
        "wikidata": "Q2226837",
        "wikipedia": "en:Umzinyathi District Municipality",
        "parent_id": "349390"
      }
    },
    {
      "type": "rel",
      "id": 611069,
      "tags": {
        "admin_level": "6",
        "boundary": "administrative",
        "name": "Amajuba District Municipality",
        "ref": "DC25",
        "type": "boundary",
        "wikidata": "Q452565",
        "wikipedia": "en:Amajuba District Municipality",
        "parent_id": "349390"
      }
    },
    {
      "type": "rel",
      "id": 611105,
      "tags": {
        "admin_level": "6",
        "boundary": "administrative",
        "name": "Zululand District Municipality",
        "ref": "DC26",
        "type": "boundary",
        "wikidata": "Q2309262",
        "wikipedia": "en:Zululand District Municipality",
        "parent_id": "349390"
      }
    },
    {
      "type": "rel",
      "id": 611181,
      "tags": {
        "admin_level": "6",
        "boundary": "administrative",
        "name": "King Cetswayo District Municipality",
        "ref": "DC28",
        "type": "boundary",
        "wikidata": "Q311668",
        "parent_id": "349390"
      }
    },
    {
      "type": "rel",
      "id": 611247,
      "tags": {
        "admin_level": "6",
        "boundary": "administrative",
        "name": "iLembe District Municipality",
        "ref": "DC29",
        "type": "boundary",
        "wikidata": "Q311794",
        "wikipedia": "en:iLembe District Municipality",
        "parent_id": "349390"
      }
    },
    {
      "type": "rel",
      "id": 611315,
      "tags": {
        "admin_level": "6",
        "boundary": "administrative",
        "name": "Sisonke District Municipality",
        "ref": "DC43",
        "type": "boundary",
        "wikidata": "Q549746",
        "parent_id": "349390"
      }
    },
    {
      "type": "rel",
      "id": 611620,
      "tags": {
        "admin_level": "6",
        "boundary": "administrative",
        "name": "Ehlanzeni",
        "name:de": "Ehlanzeni",
        "name:en": "Ehlanzeni District Municipality",
        "name:es": "Distrito Municipal de Ehlanzeni",
        "name:et": "Ehlanzeni ringkond",
        "name:it": "Municipalit\u00e0 distrettuale di Ehlanzeni",
        "name:nl": "Ehlanzeni",
        "name:pl": "Ehlanzeni",
        "name:ru": "\u042d\u0445\u043b\u0430\u043d\u0437\u0435\u043d\u0438",
        "ref": "DC32",
        "type": "boundary",
        "wikidata": "Q1244497",
        "wikipedia": "en:Ehlanzeni District Municipality",
        "parent_id": "349556"
      }
    },
    {
      "type": "rel",
      "id": 611622,
      "tags": {
        "admin_level": "6",
        "boundary": "administrative",
        "name": "Gert Sibande",
        "ref": "DC30",
        "type": "boundary",
        "wikidata": "Q1515346",
        "wikipedia": "en:Gert Sibande District Municipality",
        "parent_id": "349556"
      }
    },
    {
      "type": "rel",
      "id": 611627,
      "tags": {
        "admin_level": "6",
        "boundary": "administrative",
        "name": "Nkangala",
        "ref": "DC31",
        "type": "boundary",
        "wikidata": "Q1856181",
        "wikipedia": "en:Nkangala District Municipality",
        "parent_id": "349556"
      }
    },
    {
      "type": "rel",
      "id": 594475,
      "tags": {
        "admin_level": "6",
        "boundary": "administrative",
        "name": "City of Ekurhuleni Metropolitan Municipality",
        "name:zh": "\u827e\u53e4\u83b1\u5c3c\u90fd\u5e02\u5708\u81ea\u6cbb\u5e02",
        "name:zh-Hans": "\u827e\u53e4\u83b1\u5c3c\u90fd\u5e02\u5708\u81ea\u6cbb\u5e02",
        "name:zh-Hant": "\u827e\u53e4\u840a\u5c3c\u5e02\u5927\u90fd\u6703\u81ea\u6cbb\u5e02",
        "ref": "EKU",
        "type": "boundary",
        "website": "https://www.ekurhuleni.gov.za",
        "wikidata": "Q326891",
        "wikipedia": "en:City of Ekurhuleni Metropolitan Municipality",
        "parent_id": "349344"
      }
    },
    {
      "type": "rel",
      "id": 594484,
      "tags": {
        "admin_level": "6",
        "boundary": "administrative",
        "name": "City of Tshwane Metropolitan Municipality",
        "ref": "TSH",
        "type": "boundary",
        "website": "https://www.tshwane.gov.za/",
        "wikidata": "Q1094207",
        "wikipedia": "en:City of Tshwane Metropolitan Municipality",
        "parent_id": "349344"
      }
    },
    {
      "type": "rel",
      "id": 594496,
      "tags": {
        "admin_level": "6",
        "boundary": "administrative",
        "name": "Sedibeng District Municipality",
        "name:de": "Sedibeng",
        "name:en": "Sedibeng District Municipality",
        "name:es": "Distrito Municipal de Sedibeng",
        "name:fr": "District de Sedibeng",
        "name:it": "Municipalit\u00e0 distrettuale di Sedibeng",
        "name:nl": "Sedibeng",
        "name:pl": "Sedibeng",
        "name:ru": "\u0421\u0435\u0434\u0438\u0431\u0435\u043d\u0433",
        "name:zh": "\u745f\u8fea\u90a6\u533a\u81ea\u6cbb\u5e02",
        "name:zh-Hans": "\u745f\u8fea\u90a6\u533a\u81ea\u6cbb\u5e02",
        "name:zh-Hant": "\u745f\u8fea\u90a6\u5340\u81ea\u6cbb\u5e02",
        "ref": "DC42",
        "type": "boundary",
        "website": "http://www.sedibeng.gov.za",
        "wikidata": "Q2038939",
        "wikipedia": "en:Sedibeng District Municipality",
        "parent_id": "349344"
      }
    },
    {
      "type": "rel",
      "id": 594508,
      "tags": {
        "admin_level": "6",
        "boundary": "administrative",
        "name": "City of Johannesburg Metropolitan Municipality",
        "name:es": "Municipio Metropolitano de la Ciudad de Johannesburgo",
        "name:fr": "Municipalit\u00e9 m\u00e9tropolitaine de la ville de Johannesburg",
        "name:zh": "\u7ea6\u7ff0\u5185\u65af\u5821\u90fd\u5e02\u5708\u81ea\u6cbb\u5e02",
        "name:zh-Hans": "\u7ea6\u7ff0\u5185\u65af\u5821\u90fd\u5e02\u5708\u81ea\u6cbb\u5e02",
        "name:zh-Hant": "\u7d04\u7ff0\u5167\u65af\u5821\u5e02\u5927\u90fd\u6703\u81ea\u6cbb\u5e02",
        "ref": "JHB",
        "surface": "asphalt",
        "type": "boundary",
        "website": "https://www.joburg.org.za",
        "wikidata": "Q2346838",
        "wikipedia": "en:City of Johannesburg Metropolitan Municipality",
        "parent_id": "349344"
      }
    },
    {
      "type": "rel",
      "id": 594516,
      "tags": {
        "admin_level": "6",
        "boundary": "administrative",
        "name": "West Rand District Municipality",
        "ref": "DC48",
        "surface": "asphalt",
        "type": "boundary",
        "wikidata": "Q1789890",
        "wikipedia": "en:West Rand District Municipality",
        "parent_id": "349344"
      }
    },
    {
      "type": "rel",
      "id": 81967,
      "tags": {
        "admin_level": "8",
        "boundary": "administrative",
        "land_area": "administrative",
        "name": "Richtersveld Local Municipality",
        "ref": "NC061",
        "type": "boundary",
        "wikidata": "Q8251259",
        "parent_id": "81973"
      }
    },
    {
      "type": "rel",
      "id": 81968,
      "tags": {
        "admin_level": "8",
        "boundary": "administrative",
        "land_area": "administrative",
        "name": "Nama Khoi Local Municipality",
        "ref": "NC062",
        "type": "boundary",
        "wikidata": "Q1964128",
        "parent_id": "81973"
      }
    },
    {
      "type": "rel",
      "id": 81969,
      "tags": {
        "admin_level": "8",
        "boundary": "administrative",
        "land_area": "administrative",
        "name": "Kamiesberg Local Municipality",
        "ref": "NC064",
        "type": "boundary",
        "wikidata": "Q1723052",
        "parent_id": "81973"
      }
    },
    {
      "type": "rel",
      "id": 81970,
      "tags": {
        "admin_level": "8",
        "boundary": "administrative",
        "land_area": "administrative",
        "name": "Hantam Local Municipality",
        "ref": "NC065",
        "type": "boundary",
        "wikidata": "Q1584028",
        "parent_id": "81973"
      }
    },
    {
      "type": "rel",
      "id": 81971,
      "tags": {
        "admin_level": "8",
        "boundary": "administrative",
        "land_area": "administrative",
        "name": "Karoo Hoogland Local Municipality",
        "ref": "NC066",
        "type": "boundary",
        "wikidata": "Q1734288",
        "wikipedia": "en:Karoo Hoogland Local Municipality",
        "parent_id": "81973"
      }
    },
    {
      "type": "rel",
      "id": 81972,
      "tags": {
        "admin_level": "8",
        "boundary": "administrative",
        "land_area": "administrative",
        "name": "Kh\u00e2i-Ma Local Municipality",
        "ref": "NC067",
        "type": "boundary",
        "wikidata": "Q1672186",
        "parent_id": "81973"
      }
    },
    {
      "type": "rel",
      "id": 82047,
      "tags": {
        "admin_level": "8",
        "boundary": "administrative",
        "land_area": "administrative",
        "name": "Mier Local Municipality",
        "ref": "NC081",
        "type": "boundary",
        "wikidata": "Q1932200",
        "parent_id": "82046"
      }
    },
    {
      "type": "rel",
      "id": 82048,
      "tags": {
        "admin_level": "8",
        "boundary": "administrative",
        "land_area": "administrative",
        "name": "Kai !Garib Local Municipality",
        "ref": "NC082",
        "type": "boundary",
        "wikidata": "Q1721381",
        "parent_id": "82046"
      }
    },
    {
      "type": "rel",
      "id": 82050,
      "tags": {
        "admin_level": "8",
        "alt_name": "//Khara Hais Local Municipality",
        "boundary": "administrative",
        "land_area": "administrative",
        "name": "\u01c1Khara Hais Local Municipality",
        "ref": "NC083",
        "type": "boundary",
        "wikidata": "Q1740579",
        "parent_id": "82046"
      }
    },
    {
      "type": "rel",
      "id": 82051,
      "tags": {
        "admin_level": "8",
        "boundary": "administrative",
        "land_area": "administrative",
        "name": "!Kheis Local Municipality",
        "ref": "NC084",
        "type": "boundary",
        "wikidata": "Q394771",
        "parent_id": "82046"
      }
    },
    {
      "type": "rel",
      "id": 82052,
      "tags": {
        "admin_level": "8",
        "boundary": "administrative",
        "land_area": "administrative",
        "name": "Tsantsabane Local Municipality",
        "ref": "NC085",
        "type": "boundary",
        "wikidata": "Q692264",
        "parent_id": "82046"
      }
    },
    {
      "type": "rel",
      "id": 82053,
      "tags": {
        "admin_level": "8",
        "boundary": "administrative",
        "land_area": "administrative",
        "name": "Kgatelopele Local Municipality",
        "ref": "NC086",
        "type": "boundary",
        "wikidata": "Q257196",
        "parent_id": "82046"
      }
    },
    {
      "type": "rel",
      "id": 88107,
      "tags": {
        "admin_level": "8",
        "boundary": "administrative",
        "land_area": "administrative",
        "name": "Kou-Kamma Local Municipality",
        "ref": "EC109",
        "type": "boundary",
        "wikidata": "Q303647",
        "parent_id": "88144"
      }
    },
    {
      "type": "rel",
      "id": 88116,
      "tags": {
        "admin_level": "8",
        "boundary": "administrative",
        "land_area": "administrative",
        "name": "Kouga Local Municipality",
        "name:zh": "\u79d1\u52a0\u5730\u65b9\u81ea\u6cbb\u5e02",
        "ref": "EC108",
        "type": "boundary",
        "wikidata": "Q1785553",
        "parent_id": "88144"
      }
    },
    {
      "type": "rel",
      "id": 88121,
      "tags": {
        "admin_level": "8",
        "boundary": "administrative",
        "land_area": "administrative",
        "name": "Sundays River Valley Local Municipality",
        "ref": "EC106",
        "type": "boundary",
        "wikidata": "Q2162456",
        "parent_id": "88144"
      }
    },
    {
      "type": "rel",
      "id": 88135,
      "tags": {
        "admin_level": "8",
        "boundary": "administrative",
        "land_area": "administrative",
        "name": "Ndlambe Local Municipality",
        "ref": "EC105",
        "type": "boundary",
        "wikidata": "Q1972906",
        "parent_id": "88144"
      }
    },
    {
      "type": "rel",
      "id": 88159,
      "tags": {
        "admin_level": "8",
        "boundary": "administrative",
        "land_area": "administrative",
        "name": "Camdeboo Local Municipality",
        "ref": "EC101",
        "type": "boundary",
        "wikidata": "Q1028399",
        "parent_id": "88144"
      }
    },
    {
      "type": "rel",
      "id": 88160,
      "tags": {
        "admin_level": "8",
        "boundary": "administrative",
        "land_area": "administrative",
        "name": "Blue Crane Route Local Municipality",
        "ref": "EC102",
        "type": "boundary",
        "wikidata": "Q885667",
        "parent_id": "88144"
      }
    },
    {
      "type": "rel",
      "id": 88161,
      "tags": {
        "admin_level": "8",
        "boundary": "administrative",
        "land_area": "administrative",
        "name": "Ikwezi Local Municipality",
        "ref": "EC103",
        "type": "boundary",
        "wikidata": "Q1419305",
        "parent_id": "88144"
      }
    },
    {
      "type": "rel",
      "id": 88162,
      "tags": {
        "admin_level": "8",
        "boundary": "administrative",
        "land_area": "administrative",
        "name": "Makana Local Municipality",
        "ref": "EC104",
        "type": "boundary",
        "wikidata": "Q1886243",
        "parent_id": "88144"
      }
    },
    {
      "type": "rel",
      "id": 88163,
      "tags": {
        "admin_level": "8",
        "boundary": "administrative",
        "land_area": "administrative",
        "name": "Baviaans Local Municipality",
        "ref": "EC107",
        "type": "boundary",
        "wikidata": "Q812021",
        "parent_id": "88144"
      }
    },
    {
      "type": "rel",
      "id": 593813,
      "tags": {
        "admin_level": "8",
        "boundary": "administrative",
        "name": "Mantsopa Local Municipality",
        "old_ref": "FS173",
        "ref": "FS196",
        "type": "boundary",
        "wikidata": "Q600842",
        "parent_id": "593795"
      }
    },
    {
      "type": "rel",
      "id": 593824,
      "tags": {
        "admin_level": "8",
        "boundary": "administrative",
        "name": "Phumelela Local Municipality",
        "ref": "FS195",
        "type": "boundary",
        "wikidata": "Q253979",
        "parent_id": "593795"
      }
    },
    {
      "type": "rel",
      "id": 593830,
      "tags": {
        "admin_level": "8",
        "boundary": "administrative",
        "name": "Setsoto Local Municipality",
        "ref": "FS191",
        "type": "boundary",
        "wikidata": "Q2067601",
        "parent_id": "593795"
      }
    },
    {
      "type": "rel",
      "id": 593831,
      "tags": {
        "admin_level": "8",
        "boundary": "administrative",
        "name": "Nketoana Local Municipality",
        "ref": "FS193",
        "type": "boundary",
        "wikidata": "Q685302",
        "parent_id": "593795"
      }
    },
    {
      "type": "rel",
      "id": 593832,
      "tags": {
        "admin_level": "8",
        "boundary": "administrative",
        "name": "Dihlabeng Local Municipality",
        "ref": "FS192",
        "type": "boundary",
        "wikidata": "Q1225159",
        "wikipedia": "en:Dihlabeng Local Municipality",
        "parent_id": "593795"
      }
    },
    {
      "type": "rel",
      "id": 593837,
      "tags": {
        "admin_level": "8",
        "boundary": "administrative",
        "name": "Maluti-a-Phofung Local Municipality",
        "ref": "FS194",
        "type": "boundary",
        "wikidata": "Q1887939",
        "parent_id": "593795"
      }
    },
    {
      "type": "rel",
      "id": 611658,
      "tags": {
        "admin_level": "8",
        "boundary": "administrative",
        "name": "Greater Taung Local Municipality",
        "ref": "NW394",
        "type": "boundary",
        "wikidata": "Q1544453",
        "parent_id": "611676"
      }
    },
    {
      "type": "rel",
      "id": 611659,
      "tags": {
        "admin_level": "8",
        "boundary": "administrative",
        "name": "Mamusa Local Municipality",
        "ref": "NW393",
        "type": "boundary",
        "wikidata": "Q1888475",
        "parent_id": "611676"
      }
    },
    {
      "type": "rel",
      "id": 611661,
      "tags": {
        "admin_level": "8",
        "boundary": "administrative",
        "name": "Lekwa-Teemane Local Municipality",
        "ref": "NW396",
        "type": "boundary",
        "wikidata": "Q1816588",
        "parent_id": "611676"
      }
    },
    {
      "type": "rel",
      "id": 611663,
      "tags": {
        "admin_level": "8",
        "boundary": "administrative",
        "name": "Naledi Local Municipality",
        "ref": "NW392",
        "type": "boundary",
        "wikidata": "Q775608",
        "parent_id": "611676"
      }
    },
    {
      "type": "rel",
      "id": 1802556,
      "tags": {
        "admin_level": "8",
        "boundary": "administrative",
        "name": "Kagisano-Molopo Local Municipality",
        "ref": "NW397",
        "type": "boundary",
        "wikidata": "Q3643416",
        "parent_id": "611676"
      }
    },
    {
      "type": "rel",
      "id": 79653,
      "tags": {
        "admin_level": "8",
        "boundary": "administrative",
        "land_area": "administrative",
        "name": "Witzenberg Local Municipality",
        "ref": "WC022",
        "type": "boundary",
        "wikidata": "Q474835",
        "parent_id": "79652"
      }
    },
    {
      "type": "rel",
      "id": 79654,
      "tags": {
        "admin_level": "8",
        "boundary": "administrative",
        "land_area": "administrative",
        "name": "Drakenstein Local Municipality",
        "ref": "WC023",
        "type": "boundary",
        "wikidata": "Q1255574",
        "parent_id": "79652"
      }
    },
    {
      "type": "rel",
      "id": 79655,
      "tags": {
        "admin_level": "8",
        "boundary": "administrative",
        "land_area": "administrative",
        "name": "Stellenbosch Local Municipality",
        "name:es": "Municipio local de Stellenbosch",
        "ref": "WC024",
        "type": "boundary",
        "wikidata": "Q522028",
        "wikipedia": "en:Stellenbosch Local Municipality",
        "parent_id": "79652"
      }
    },
    {
      "type": "rel",
      "id": 79656,
      "tags": {
        "admin_level": "8",
        "boundary": "administrative",
        "land_area": "administrative",
        "name": "Breede Valley Local Municipality",
        "ref": "WC025",
        "type": "boundary",
        "wikidata": "Q905003",
        "parent_id": "79652"
      }
    },
    {
      "type": "rel",
      "id": 79657,
      "tags": {
        "admin_level": "8",
        "boundary": "administrative",
        "land_area": "administrative",
        "name": "Langeberg Local Municipality",
        "old_name": "Breede River/Winelands Local Municipality",
        "ref": "WC026",
        "type": "boundary",
        "wikidata": "Q971361",
        "parent_id": "79652"
      }
    },
    {
      "type": "rel",
      "id": 79676,
      "tags": {
        "admin_level": "8",
        "boundary": "administrative",
        "land_area": "administrative",
        "name": "Theewaterskloof Local Municipality",
        "ref": "WC031",
        "type": "boundary",
        "wikidata": "Q1931418",
        "parent_id": "79680"
      }
    },
    {
      "type": "rel",
      "id": 79677,
      "tags": {
        "admin_level": "8",
        "boundary": "administrative",
        "land_area": "administrative",
        "name": "Overstrand Local Municipality",
        "ref": "WC032",
        "type": "boundary",
        "wikidata": "Q2042454",
        "parent_id": "79680"
      }
    },
    {
      "type": "rel",
      "id": 79678,
      "tags": {
        "admin_level": "8",
        "boundary": "administrative",
        "land_area": "administrative",
        "name": "Cape Agulhas Local Municipality",
        "ref": "WC033",
        "type": "boundary",
        "wikidata": "Q616669",
        "parent_id": "79680"
      }
    },
    {
      "type": "rel",
      "id": 79679,
      "tags": {
        "admin_level": "8",
        "boundary": "administrative",
        "land_area": "administrative",
        "name": "Swellendam Local Municipality",
        "ref": "WC034",
        "type": "boundary",
        "wikidata": "Q1632782",
        "parent_id": "79680"
      }
    },
    {
      "type": "rel",
      "id": 79629,
      "tags": {
        "admin_level": "8",
        "boundary": "administrative",
        "land_area": "administrative",
        "name": "Matzikama Local Municipality",
        "ref": "WC011",
        "type": "boundary",
        "wikidata": "Q767965",
        "parent_id": "79634"
      }
    },
    {
      "type": "rel",
      "id": 79630,
      "tags": {
        "admin_level": "8",
        "boundary": "administrative",
        "land_area": "administrative",
        "name": "Cederberg Local Municipality",
        "ref": "WC012",
        "type": "boundary",
        "wikidata": "Q1052585",
        "parent_id": "79634"
      }
    },
    {
      "type": "rel",
      "id": 79631,
      "tags": {
        "admin_level": "8",
        "boundary": "administrative",
        "land_area": "administrative",
        "name": "Bergrivier Local Municipality",
        "ref": "WC013",
        "type": "boundary",
        "wikidata": "Q820158",
        "parent_id": "79634"
      }
    },
    {
      "type": "rel",
      "id": 79632,
      "tags": {
        "admin_level": "8",
        "boundary": "administrative",
        "land_area": "administrative",
        "name": "Saldanha Bay Local Municipality",
        "ref": "WC014",
        "type": "boundary",
        "wikidata": "Q2006784",
        "parent_id": "79634"
      }
    },
    {
      "type": "rel",
      "id": 79633,
      "tags": {
        "admin_level": "8",
        "boundary": "administrative",
        "land_area": "administrative",
        "name": "Swartland Local Municipality",
        "ref": "WC015",
        "type": "boundary",
        "wikidata": "Q1530051",
        "parent_id": "79634"
      }
    },
    {
      "type": "rel",
      "id": 79790,
      "tags": {
        "admin_level": "8",
        "boundary": "administrative",
        "land_area": "administrative",
        "name": "Kannaland Local Municipality",
        "ref": "WC041",
        "type": "boundary",
        "wikidata": "Q1723822",
        "parent_id": "79797"
      }
    },
    {
      "type": "rel",
      "id": 79791,
      "tags": {
        "admin_level": "8",
        "boundary": "administrative",
        "land_area": "administrative",
        "name": "Hessequa Local Municipality",
        "ref": "WC042",
        "type": "boundary",
        "wikidata": "Q1516786",
        "parent_id": "79797"
      }
    },
    {
      "type": "rel",
      "id": 79792,
      "tags": {
        "admin_level": "8",
        "boundary": "administrative",
        "land_area": "administrative",
        "name": "Mossel Bay Local Municipality",
        "ref": "WC043",
        "type": "boundary",
        "wikidata": "Q1707740",
        "parent_id": "79797"
      }
    },
    {
      "type": "rel",
      "id": 79793,
      "tags": {
        "admin_level": "8",
        "boundary": "administrative",
        "land_area": "administrative",
        "name": "George Local Municipality",
        "ref": "WC044",
        "type": "boundary",
        "wikidata": "Q4931109",
        "wikipedia": "en:George Local Municipality",
        "parent_id": "79797"
      }
    },
    {
      "type": "rel",
      "id": 79794,
      "tags": {
        "admin_level": "8",
        "boundary": "administrative",
        "land_area": "administrative",
        "name": "Oudtshoorn Local Municipality",
        "ref": "WC045",
        "type": "boundary",
        "wikidata": "Q1417176",
        "parent_id": "79797"
      }
    },
    {
      "type": "rel",
      "id": 79795,
      "tags": {
        "admin_level": "8",
        "boundary": "administrative",
        "land_area": "administrative",
        "name": "Bitou Local Municipality",
        "ref": "WC047",
        "type": "boundary",
        "wikidata": "Q878862",
        "parent_id": "79797"
      }
    },
    {
      "type": "rel",
      "id": 79796,
      "tags": {
        "admin_level": "8",
        "boundary": "administrative",
        "land_area": "administrative",
        "name": "Knysna Local Municipality",
        "population": "51078",
        "ref": "WC048",
        "type": "boundary",
        "wikidata": "Q1777700",
        "parent_id": "79797"
      }
    },
    {
      "type": "rel",
      "id": 79808,
      "tags": {
        "admin_level": "8",
        "boundary": "administrative",
        "land_area": "administrative",
        "name": "Laingsburg Local Municipality",
        "ref": "WC051",
        "type": "boundary",
        "wikidata": "Q178591",
        "parent_id": "79807"
      }
    },
    {
      "type": "rel",
      "id": 79809,
      "tags": {
        "admin_level": "8",
        "boundary": "administrative",
        "land_area": "administrative",
        "name": "Prince Albert Local Municipality",
        "ref": "WC052",
        "type": "boundary",
        "wikidata": "Q2006772",
        "parent_id": "79807"
      }
    },
    {
      "type": "rel",
      "id": 79810,
      "tags": {
        "admin_level": "8",
        "boundary": "administrative",
        "land_area": "administrative",
        "name": "Beaufort West Local Municipality",
        "ref": "WC053",
        "type": "boundary",
        "wikidata": "Q813381",
        "parent_id": "79807"
      }
    },
    {
      "type": "rel",
      "id": 82028,
      "tags": {
        "admin_level": "8",
        "boundary": "administrative",
        "land_area": "administrative",
        "name": "Ubuntu Local Municipality",
        "ref": "NC071",
        "type": "boundary",
        "wikidata": "Q1447551",
        "parent_id": "82027"
      }
    },
    {
      "type": "rel",
      "id": 82029,
      "tags": {
        "admin_level": "8",
        "boundary": "administrative",
        "land_area": "administrative",
        "name": "Umsobomvu Local Municipality",
        "ref": "NC072",
        "type": "boundary",
        "wikidata": "Q1945552",
        "parent_id": "82027"
      }
    },
    {
      "type": "rel",
      "id": 82030,
      "tags": {
        "admin_level": "8",
        "boundary": "administrative",
        "land_area": "administrative",
        "name": "Emthanjeni Local Municipality",
        "ref": "NC073",
        "type": "boundary",
        "wikidata": "Q1339806",
        "parent_id": "82027"
      }
    },
    {
      "type": "rel",
      "id": 82031,
      "tags": {
        "admin_level": "8",
        "boundary": "administrative",
        "land_area": "administrative",
        "name": "Kareeberg Local Municipality",
        "ref": "NC074",
        "type": "boundary",
        "wikidata": "Q253683",
        "parent_id": "82027"
      }
    },
    {
      "type": "rel",
      "id": 82032,
      "tags": {
        "admin_level": "8",
        "boundary": "administrative",
        "land_area": "administrative",
        "name": "Renosterberg Local Municipality",
        "ref": "NC075",
        "type": "boundary",
        "wikidata": "Q781995",
        "parent_id": "82027"
      }
    },
    {
      "type": "rel",
      "id": 82033,
      "tags": {
        "admin_level": "8",
        "boundary": "administrative",
        "land_area": "administrative",
        "name": "Thembelihle Local Municipality",
        "ref": "NC076",
        "type": "boundary",
        "wikidata": "Q259411",
        "parent_id": "82027"
      }
    },
    {
      "type": "rel",
      "id": 82034,
      "tags": {
        "admin_level": "8",
        "boundary": "administrative",
        "land_area": "administrative",
        "name": "Siyathemba Local Municipality",
        "ref": "NC077",
        "type": "boundary",
        "wikidata": "Q926143",
        "parent_id": "82027"
      }
    },
    {
      "type": "rel",
      "id": 82035,
      "tags": {
        "admin_level": "8",
        "boundary": "administrative",
        "land_area": "administrative",
        "name": "Siyancuma Local Municipality",
        "ref": "NC078",
        "type": "boundary",
        "wikidata": "Q2006754",
        "parent_id": "82027"
      }
    },
    {
      "type": "rel",
      "id": 88173,
      "tags": {
        "admin_level": "8",
        "boundary": "administrative",
        "land_area": "administrative",
        "name": "Mbhashe Local Municipality",
        "ref": "EC121",
        "type": "boundary",
        "wikidata": "Q1642573",
        "parent_id": "88267"
      }
    },
    {
      "type": "rel",
      "id": 88177,
      "tags": {
        "admin_level": "8",
        "boundary": "administrative",
        "land_area": "administrative",
        "name": "Mnquma Local Municipality",
        "ref": "EC122",
        "type": "boundary",
        "wikidata": "Q1941297",
        "parent_id": "88267"
      }
    },
    {
      "type": "rel",
      "id": 88184,
      "tags": {
        "admin_level": "8",
        "boundary": "administrative",
        "land_area": "administrative",
        "name": "Great Kei Local Municipality",
        "name:de": "Great Kei",
        "name:en": "Great Kei Local Municipality",
        "name:es": "Great Kei",
        "name:fr": "Great Kei",
        "name:it": "Municipalit\u00e0 locale di Great Kei",
        "name:nl": "Groot Kei",
        "name:pl": "Great Kei",
        "ref": "EC123",
        "type": "boundary",
        "wikidata": "Q1517371",
        "wikipedia": "en:Great Kei Local Municipality",
        "parent_id": "88267"
      }
    },
    {
      "type": "rel",
      "id": 88187,
      "tags": {
        "admin_level": "8",
        "boundary": "administrative",
        "land_area": "administrative",
        "name": "Amahlathi Local Municipality",
        "name:de": "Amahlathi",
        "name:en": "Amahlathi Local Municipality",
        "name:es": "Amahlathi",
        "name:fr": "Amahlathi",
        "name:it": "Municipalit\u00e0 locale di Amahlathi",
        "name:nl": "Amahlathi",
        "name:pl": "Amahlathi",
        "ref": "EC124",
        "type": "boundary",
        "wikidata": "Q452531",
        "wikipedia": "en:Amahlathi Local Municipality",
        "parent_id": "88267"
      }
    },
    {
      "type": "rel",
      "id": 88220,
      "tags": {
        "admin_level": "8",
        "boundary": "administrative",
        "land_area": "administrative",
        "name": "Ngqushwa Local Municipality",
        "ref": "EC126",
        "type": "boundary",
        "wikidata": "Q1984351",
        "parent_id": "88267"
      }
    },
    {
      "type": "rel",
      "id": 88251,
      "tags": {
        "admin_level": "8",
        "boundary": "administrative",
        "land_area": "administrative",
        "name": "Nkonkobe Local Municipality",
        "ref": "EC127",
        "type": "boundary",
        "wikidata": "Q1994391",
        "parent_id": "88267"
      }
    },
    {
      "type": "rel",
      "id": 88257,
      "tags": {
        "admin_level": "8",
        "boundary": "administrative",
        "land_area": "administrative",
        "name": "Nxuba Local Municipality",
        "ref": "EC128",
        "type": "boundary",
        "wikidata": "Q727225",
        "parent_id": "88267"
      }
    },
    {
      "type": "rel",
      "id": 88469,
      "tags": {
        "admin_level": "8",
        "boundary": "administrative",
        "land_area": "administrative",
        "name": "Inxuba Yethemba Local Municipality",
        "ref": "EC131",
        "type": "boundary",
        "wikidata": "Q1671847",
        "parent_id": "88468"
      }
    },
    {
      "type": "rel",
      "id": 88470,
      "tags": {
        "admin_level": "8",
        "boundary": "administrative",
        "land_area": "administrative",
        "name": "Tsolwana Local Municipality",
        "ref": "EC132",
        "type": "boundary",
        "wikidata": "Q1670648",
        "parent_id": "88468"
      }
    },
    {
      "type": "rel",
      "id": 88471,
      "tags": {
        "admin_level": "8",
        "boundary": "administrative",
        "land_area": "administrative",
        "name": "Inkwanca Local Municipality",
        "ref": "EC133",
        "type": "boundary",
        "wikidata": "Q205363",
        "parent_id": "88468"
      }
    },
    {
      "type": "rel",
      "id": 88472,
      "tags": {
        "admin_level": "8",
        "alt_name": "Lukanji Local Municipality",
        "boundary": "administrative",
        "land_area": "administrative",
        "name": "Lukhanji Local Municipality",
        "ref": "EC134",
        "type": "boundary",
        "wikidata": "Q123716",
        "parent_id": "88468"
      }
    },
    {
      "type": "rel",
      "id": 88473,
      "tags": {
        "admin_level": "8",
        "boundary": "administrative",
        "land_area": "administrative",
        "name": "Intsika Yethu Local Municipality",
        "ref": "EC135",
        "type": "boundary",
        "wikidata": "Q1671635",
        "parent_id": "88468"
      }
    },
    {
      "type": "rel",
      "id": 88474,
      "tags": {
        "admin_level": "8",
        "boundary": "administrative",
        "land_area": "administrative",
        "name": "Emalahleni Local Municipality",
        "ref": "EC136",
        "type": "boundary",
        "wikidata": "Q767727",
        "parent_id": "88468"
      }
    },
    {
      "type": "rel",
      "id": 88475,
      "tags": {
        "admin_level": "8",
        "boundary": "administrative",
        "land_area": "administrative",
        "name": "Engcobo Local Municipality",
        "ref": "EC137",
        "type": "boundary",
        "wikidata": "Q762131",
        "parent_id": "88468"
      }
    },
    {
      "type": "rel",
      "id": 88476,
      "tags": {
        "admin_level": "8",
        "boundary": "administrative",
        "land_area": "administrative",
        "name": "Sakhisizwe Local Municipality",
        "ref": "EC138",
        "type": "boundary",
        "wikidata": "Q430520",
        "parent_id": "88468"
      }
    },
    {
      "type": "rel",
      "id": 88481,
      "tags": {
        "admin_level": "8",
        "boundary": "administrative",
        "land_area": "administrative",
        "name": "Elundini Local Municipality",
        "ref": "EC141",
        "type": "boundary",
        "wikidata": "Q670966",
        "parent_id": "88480"
      }
    },
    {
      "type": "rel",
      "id": 88482,
      "tags": {
        "admin_level": "8",
        "boundary": "administrative",
        "land_area": "administrative",
        "name": "Senqu Local Municipality",
        "ref": "EC142",
        "type": "boundary",
        "wikidata": "Q2006821",
        "parent_id": "88480"
      }
    },
    {
      "type": "rel",
      "id": 88483,
      "tags": {
        "admin_level": "8",
        "boundary": "administrative",
        "land_area": "administrative",
        "name": "Maletswai Local Municipality",
        "ref": "EC143",
        "type": "boundary",
        "wikidata": "Q617894",
        "parent_id": "88480"
      }
    },
    {
      "type": "rel",
      "id": 88484,
      "tags": {
        "admin_level": "8",
        "boundary": "administrative",
        "land_area": "administrative",
        "name": "Gariep Local Municipality",
        "ref": "EC144",
        "type": "boundary",
        "wikidata": "Q673459",
        "parent_id": "88480"
      }
    },
    {
      "type": "rel",
      "id": 593805,
      "tags": {
        "admin_level": "8",
        "boundary": "administrative",
        "name": "Kopanong Local Municipality",
        "ref": "FS162",
        "type": "boundary",
        "wikidata": "Q1514156",
        "parent_id": "593797"
      }
    },
    {
      "type": "rel",
      "id": 593806,
      "tags": {
        "admin_level": "8",
        "boundary": "administrative",
        "name": "Letsemeng Local Municipality",
        "ref": "FS161",
        "type": "boundary",
        "wikidata": "Q1821165",
        "parent_id": "593797"
      }
    },
    {
      "type": "rel",
      "id": 593807,
      "tags": {
        "admin_level": "8",
        "boundary": "administrative",
        "name": "Mohokare Local Municipality",
        "ref": "FS163",
        "type": "boundary",
        "wikidata": "Q671160",
        "parent_id": "593797"
      }
    },
    {
      "type": "rel",
      "id": 593814,
      "tags": {
        "admin_level": "8",
        "boundary": "administrative",
        "name": "Naledi Local Municipality",
        "old_ref": "FS171",
        "ref": "FS164",
        "type": "boundary",
        "wikidata": "Q427568",
        "parent_id": "593797"
      }
    },
    {
      "type": "rel",
      "id": 86702,
      "tags": {
        "admin_level": "8",
        "boundary": "administrative",
        "land_area": "administrative",
        "name": "Joe Morolong Local Municipality",
        "old_name": "Moshaweng Local Municipality",
        "ref": "NC451",
        "type": "boundary",
        "wikidata": "Q859983",
        "parent_id": "86701"
      }
    },
    {
      "type": "rel",
      "id": 86703,
      "tags": {
        "admin_level": "8",
        "boundary": "administrative",
        "land_area": "administrative",
        "name": "Ga-Segonyana Local Municipality",
        "ref": "NC452",
        "type": "boundary",
        "wikidata": "Q1487822",
        "parent_id": "86701"
      }
    },
    {
      "type": "rel",
      "id": 86704,
      "tags": {
        "admin_level": "8",
        "boundary": "administrative",
        "land_area": "administrative",
        "name": "Gamagara Local Municipality",
        "ref": "NC453",
        "type": "boundary",
        "wikidata": "Q1492854",
        "parent_id": "86701"
      }
    },
    {
      "type": "rel",
      "id": 86695,
      "tags": {
        "admin_level": "8",
        "boundary": "administrative",
        "land_area": "administrative",
        "name": "Sol Plaatje Local Municipality",
        "ref": "NC091",
        "type": "boundary",
        "wikidata": "Q965471",
        "parent_id": "86694"
      }
    },
    {
      "type": "rel",
      "id": 86696,
      "tags": {
        "admin_level": "8",
        "boundary": "administrative",
        "land_area": "administrative",
        "name": "Dikgatlong Local Municipality",
        "name:af": "Dikgatlong Plaaslike Munisipaliteit",
        "name:ceb": "Dikgatlong",
        "name:de": "Dikgatlong",
        "name:en": "Dikgatlong Local Municipality",
        "name:it": "Municipalit\u00e0 locale di Dikgatlong",
        "name:nl": "Dikgatlong",
        "name:nov": "Dikgatlong Komunie, Sud Afrika",
        "name:nso": "Mmu\u0161\u00f4ga\u00ea wa Dikgatlong",
        "name:pl": "Dikgatlong",
        "name:zu": "Dikgatlong Local Municipality",
        "ref": "NC092",
        "type": "boundary",
        "wikidata": "Q1225310",
        "wikipedia": "en:Dikgatlong Local Municipality",
        "parent_id": "86694"
      }
    },
    {
      "type": "rel",
      "id": 86697,
      "tags": {
        "admin_level": "8",
        "boundary": "administrative",
        "land_area": "administrative",
        "name": "Magareng Local Municipality",
        "ref": "NC093",
        "type": "boundary",
        "wikidata": "Q1883735",
        "parent_id": "86694"
      }
    },
    {
      "type": "rel",
      "id": 86698,
      "tags": {
        "admin_level": "8",
        "boundary": "administrative",
        "land_area": "administrative",
        "name": "Phokwane Local Municipality",
        "ref": "NC094",
        "type": "boundary",
        "wikidata": "Q2006800",
        "parent_id": "86694"
      }
    },
    {
      "type": "rel",
      "id": 593825,
      "tags": {
        "admin_level": "8",
        "boundary": "administrative",
        "name": "Metsimaholo Local Municipality",
        "ref": "FS204",
        "type": "boundary",
        "wikidata": "Q1925949",
        "parent_id": "593793"
      }
    },
    {
      "type": "rel",
      "id": 593827,
      "tags": {
        "admin_level": "8",
        "boundary": "administrative",
        "name": "Mafube Local Municipality",
        "ref": "FS205",
        "type": "boundary",
        "wikidata": "Q922256",
        "parent_id": "593793"
      }
    },
    {
      "type": "rel",
      "id": 593828,
      "tags": {
        "admin_level": "8",
        "boundary": "administrative",
        "name": "Ngwathe Local Municipality",
        "ref": "FS203",
        "type": "boundary",
        "wikidata": "Q1316771",
        "parent_id": "593793"
      }
    },
    {
      "type": "rel",
      "id": 593836,
      "tags": {
        "admin_level": "8",
        "boundary": "administrative",
        "name": "Moqhaka Local Municipality",
        "ref": "FS201",
        "type": "boundary",
        "wikidata": "Q1947071",
        "parent_id": "593793"
      }
    },
    {
      "type": "rel",
      "id": 593823,
      "tags": {
        "admin_level": "8",
        "boundary": "administrative",
        "name": "Matjhabeng Local Municipality",
        "ref": "FS184",
        "type": "boundary",
        "wikidata": "Q1873451",
        "parent_id": "593796"
      }
    },
    {
      "type": "rel",
      "id": 593826,
      "tags": {
        "admin_level": "8",
        "boundary": "administrative",
        "name": "Nala Local Municipality",
        "ref": "FS185",
        "type": "boundary",
        "wikidata": "Q1964073",
        "wikipedia": "en:Nala Local Municipality",
        "parent_id": "593796"
      }
    },
    {
      "type": "rel",
      "id": 593829,
      "tags": {
        "admin_level": "8",
        "boundary": "administrative",
        "name": "Masilonyana Local Municipality",
        "ref": "FS181",
        "type": "boundary",
        "wikidata": "Q1907111",
        "parent_id": "593796"
      }
    },
    {
      "type": "rel",
      "id": 593833,
      "tags": {
        "admin_level": "8",
        "boundary": "administrative",
        "name": "Tswelopele Local Municipality",
        "ref": "FS183",
        "type": "boundary",
        "wikidata": "Q1526250",
        "wikipedia": "en:Tswelopele Local Municipality",
        "parent_id": "593796"
      }
    },
    {
      "type": "rel",
      "id": 593835,
      "tags": {
        "admin_level": "8",
        "boundary": "administrative",
        "name": "Tokologo Local Municipality",
        "ref": "FS182",
        "type": "boundary",
        "wikidata": "Q1594423",
        "parent_id": "593796"
      }
    },
    {
      "type": "rel",
      "id": 611660,
      "tags": {
        "admin_level": "8",
        "boundary": "administrative",
        "name": "Tlokwe Local Municipality",
        "old_name": "Potchefstroom Local Municipality",
        "ref": "NW402",
        "type": "boundary",
        "wikidata": "Q2576328",
        "parent_id": "611675"
      }
    },
    {
      "type": "rel",
      "id": 611667,
      "tags": {
        "admin_level": "8",
        "boundary": "administrative",
        "name": "Matlosana Local Municipality",
        "ref": "NW403",
        "type": "boundary",
        "wikidata": "Q2081805",
        "parent_id": "611675"
      }
    },
    {
      "type": "rel",
      "id": 611669,
      "tags": {
        "admin_level": "8",
        "boundary": "administrative",
        "name": "Ventersdorp Local Municipality",
        "ref": "NW401",
        "type": "boundary",
        "wikidata": "Q612412",
        "parent_id": "611675"
      }
    },
    {
      "type": "rel",
      "id": 611671,
      "tags": {
        "admin_level": "8",
        "boundary": "administrative",
        "name": "Maquassi Hills Local Municipality",
        "ref": "NW404",
        "type": "boundary",
        "wikidata": "Q2576320",
        "parent_id": "611675"
      }
    },
    {
      "type": "rel",
      "id": 611539,
      "tags": {
        "admin_level": "8",
        "boundary": "administrative",
        "name": "Thabazimbi Local Municipality",
        "ref": "LIM361",
        "type": "boundary",
        "wikidata": "Q1308343",
        "parent_id": "611544"
      }
    },
    {
      "type": "rel",
      "id": 611540,
      "tags": {
        "admin_level": "8",
        "boundary": "administrative",
        "name": "Lephalale Local Municipality",
        "ref": "LIM362",
        "type": "boundary",
        "wikidata": "Q1815498",
        "parent_id": "611544"
      }
    },
    {
      "type": "rel",
      "id": 611541,
      "tags": {
        "admin_level": "8",
        "boundary": "administrative",
        "name": "Bela Bela Local Municipality",
        "ref": "LIM366",
        "type": "boundary",
        "wikidata": "Q815084",
        "wikimedia_commons": "Category:Bela-Bela_Local_Municipality",
        "wikipedia": "en:Bela-Bela Local Municipality",
        "parent_id": "611544"
      }
    },
    {
      "type": "rel",
      "id": 611542,
      "tags": {
        "admin_level": "8",
        "boundary": "administrative",
        "name": "Modimolle Local Municipality",
        "ref": "LIM365",
        "type": "boundary",
        "wikidata": "Q1509947",
        "parent_id": "611544"
      }
    },
    {
      "type": "rel",
      "id": 611543,
      "tags": {
        "admin_level": "8",
        "boundary": "administrative",
        "name": "Mogalakwena Local Municipality",
        "ref": "LIM367",
        "type": "boundary",
        "wikidata": "Q1942488",
        "parent_id": "611544"
      }
    },
    {
      "type": "rel",
      "id": 611545,
      "tags": {
        "admin_level": "8",
        "boundary": "administrative",
        "name": "Mookgopong Local Municipality",
        "ref": "LIM364",
        "type": "boundary",
        "wikidata": "Q575104",
        "parent_id": "611544"
      }
    },
    {
      "type": "rel",
      "id": 611662,
      "tags": {
        "admin_level": "8",
        "boundary": "administrative",
        "name": "Tswaing Local Municipality",
        "ref": "NW382",
        "type": "boundary",
        "wikidata": "Q2065087",
        "parent_id": "611666"
      }
    },
    {
      "type": "rel",
      "id": 611664,
      "tags": {
        "admin_level": "8",
        "boundary": "administrative",
        "name": "Ratlou Local Municipality",
        "ref": "NW381",
        "type": "boundary",
        "wikidata": "Q2671219",
        "parent_id": "611666"
      }
    },
    {
      "type": "rel",
      "id": 611665,
      "tags": {
        "admin_level": "8",
        "boundary": "administrative",
        "name": "Ditsobotla Local Municipality",
        "ref": "NW384",
        "type": "boundary",
        "wikidata": "Q2182810",
        "parent_id": "611666"
      }
    },
    {
      "type": "rel",
      "id": 611668,
      "tags": {
        "admin_level": "8",
        "boundary": "administrative",
        "name": "Ramotshere Moiloa Local Municipality",
        "ref": "NW385",
        "type": "boundary",
        "wikidata": "Q2671202",
        "parent_id": "611666"
      }
    },
    {
      "type": "rel",
      "id": 611673,
      "tags": {
        "admin_level": "8",
        "boundary": "administrative",
        "name": "Mahikeng Local Municipality",
        "old_name": "Mafikeng Local Municipality",
        "ref": "NW383",
        "type": "boundary",
        "wikidata": "Q2576308",
        "parent_id": "611666"
      }
    },
    {
      "type": "rel",
      "id": 611656,
      "tags": {
        "admin_level": "8",
        "boundary": "administrative",
        "name": "Madibeng Local Municipality",
        "ref": "NW372",
        "type": "boundary",
        "wikidata": "Q2473039",
        "parent_id": "611674"
      }
    },
    {
      "type": "rel",
      "id": 611657,
      "tags": {
        "admin_level": "8",
        "boundary": "administrative",
        "name": "Moses Kotane Local Municipality",
        "ref": "NW375",
        "type": "boundary",
        "wikidata": "Q2230868",
        "parent_id": "611674"
      }
    },
    {
      "type": "rel",
      "id": 611672,
      "tags": {
        "admin_level": "8",
        "boundary": "administrative",
        "name": "Rustenburg Local Municipality",
        "ref": "NW373",
        "type": "boundary",
        "wikidata": "Q934141",
        "wikipedia": "en:Rustenburg Local Municipality",
        "parent_id": "611674"
      }
    },
    {
      "type": "rel",
      "id": 611677,
      "tags": {
        "admin_level": "8",
        "boundary": "administrative",
        "name": "Moretele Local Municipality",
        "ref": "NW371",
        "type": "boundary",
        "parent_id": "611674"
      }
    },
    {
      "type": "rel",
      "id": 611678,
      "tags": {
        "admin_level": "8",
        "boundary": "administrative",
        "name": "Kgetleng River Local Municipality",
        "ref": "NW374",
        "type": "boundary",
        "wikidata": "Q2042724",
        "parent_id": "611674"
      }
    },
    {
      "type": "rel",
      "id": 88491,
      "tags": {
        "admin_level": "8",
        "boundary": "administrative",
        "land_area": "administrative",
        "name": "Ingquza Hill Local Municipality",
        "old_name": "Qaukeni Local Municipality",
        "ref": "EC153",
        "type": "boundary",
        "wikidata": "Q2194994",
        "parent_id": "88549"
      }
    },
    {
      "type": "rel",
      "id": 88527,
      "tags": {
        "admin_level": "8",
        "boundary": "administrative",
        "land_area": "administrative",
        "name": "Port St Johns Local Municipality",
        "ref": "EC154",
        "type": "boundary",
        "wikidata": "Q14833732",
        "wikipedia": "en:Port St. Johns Local Municipality",
        "parent_id": "88549"
      }
    },
    {
      "type": "rel",
      "id": 88540,
      "tags": {
        "admin_level": "8",
        "boundary": "administrative",
        "land_area": "administrative",
        "name": "Nyandeni Local Municipality",
        "ref": "EC155",
        "type": "boundary",
        "wikidata": "Q596849",
        "parent_id": "88549"
      }
    },
    {
      "type": "rel",
      "id": 88541,
      "tags": {
        "admin_level": "8",
        "boundary": "administrative",
        "land_area": "administrative",
        "name": "Mhlontlo Local Municipality",
        "ref": "EC156",
        "type": "boundary",
        "wikidata": "Q1926544",
        "parent_id": "88549"
      }
    },
    {
      "type": "rel",
      "id": 88542,
      "tags": {
        "admin_level": "8",
        "boundary": "administrative",
        "land_area": "administrative",
        "name": "King Sabata Dalindyebo Local Municipality",
        "ref": "EC157",
        "type": "boundary",
        "wikidata": "Q2783921",
        "parent_id": "88549"
      }
    },
    {
      "type": "rel",
      "id": 88487,
      "tags": {
        "admin_level": "8",
        "boundary": "administrative",
        "land_area": "administrative",
        "name": "Mbizana Local Municipality",
        "ref": "EC151",
        "type": "boundary",
        "wikidata": "Q583728",
        "parent_id": "88563"
      }
    },
    {
      "type": "rel",
      "id": 88490,
      "tags": {
        "admin_level": "8",
        "boundary": "administrative",
        "land_area": "administrative",
        "name": "Ntabankulu Local Municipality",
        "ref": "EC152",
        "type": "boundary",
        "wikidata": "Q527085",
        "parent_id": "88563"
      }
    },
    {
      "type": "rel",
      "id": 88564,
      "tags": {
        "admin_level": "8",
        "boundary": "administrative",
        "land_area": "administrative",
        "name": "Matatiele Local Municipality",
        "ref": "EC441",
        "type": "boundary",
        "wikidata": "Q1693384",
        "parent_id": "88563"
      }
    },
    {
      "type": "rel",
      "id": 88565,
      "tags": {
        "admin_level": "8",
        "boundary": "administrative",
        "land_area": "administrative",
        "name": "Umzimvubu Local Municipality",
        "ref": "EC442",
        "type": "boundary",
        "wikidata": "Q615965",
        "parent_id": "88563"
      }
    },
    {
      "type": "rel",
      "id": 611316,
      "tags": {
        "admin_level": "8",
        "boundary": "administrative",
        "name": "Greater Kokstad Local Municipality",
        "ref": "KZN433",
        "type": "boundary",
        "wikidata": "Q928276",
        "parent_id": "611315"
      }
    },
    {
      "type": "rel",
      "id": 611317,
      "tags": {
        "admin_level": "8",
        "boundary": "administrative",
        "name": "Ingwe Local Municipality",
        "ref": "KZN431",
        "type": "boundary",
        "wikidata": "Q1663481",
        "parent_id": "611315"
      }
    },
    {
      "type": "rel",
      "id": 611318,
      "tags": {
        "admin_level": "8",
        "boundary": "administrative",
        "name": "Kwa Sani Local Municipality",
        "ref": "KZN432",
        "type": "boundary",
        "wikidata": "Q1794872",
        "parent_id": "611315"
      }
    },
    {
      "type": "rel",
      "id": 611319,
      "tags": {
        "admin_level": "8",
        "boundary": "administrative",
        "name": "Umzimkhulu Local Municipality",
        "ref": "KZN435",
        "type": "boundary",
        "wikidata": "Q2096545",
        "parent_id": "611315"
      }
    },
    {
      "type": "rel",
      "id": 611320,
      "tags": {
        "admin_level": "8",
        "boundary": "administrative",
        "name": "Ubuhlebezwe Local Municipality",
        "ref": "KZN434",
        "type": "boundary",
        "wikidata": "Q786096",
        "parent_id": "611315"
      }
    },
    {
      "type": "rel",
      "id": 610722,
      "tags": {
        "admin_level": "8",
        "boundary": "administrative",
        "name": "uMdoni Local Municipality",
        "ref": "KZN212",
        "type": "boundary",
        "wikidata": "Q311662",
        "parent_id": "610723"
      }
    },
    {
      "type": "rel",
      "id": 610724,
      "tags": {
        "admin_level": "8",
        "boundary": "administrative",
        "name": "Ezinqoleni Local Municipality",
        "ref": "KZN215",
        "type": "boundary",
        "wikidata": "Q1386037",
        "parent_id": "610723"
      }
    },
    {
      "type": "rel",
      "id": 610725,
      "tags": {
        "admin_level": "8",
        "boundary": "administrative",
        "name": "Umzumbe Local Municipality",
        "ref": "KZN213",
        "type": "boundary",
        "wikidata": "Q1023251",
        "parent_id": "610723"
      }
    },
    {
      "type": "rel",
      "id": 610726,
      "tags": {
        "admin_level": "8",
        "boundary": "administrative",
        "name": "Hibiscus Coast Local Municipality",
        "ref": "KZN216",
        "type": "boundary",
        "wikidata": "Q1617222",
        "parent_id": "610723"
      }
    },
    {
      "type": "rel",
      "id": 610727,
      "tags": {
        "admin_level": "8",
        "boundary": "administrative",
        "name": "Vulamehlo Local Municipality",
        "ref": "KZN211",
        "type": "boundary",
        "wikidata": "Q2006810",
        "parent_id": "610723"
      }
    },
    {
      "type": "rel",
      "id": 610728,
      "tags": {
        "admin_level": "8",
        "boundary": "administrative",
        "name": "uMuziwabantu Local Municipality",
        "ref": "KZN215",
        "type": "boundary",
        "parent_id": "610723"
      }
    },
    {
      "type": "rel",
      "id": 610730,
      "tags": {
        "admin_level": "8",
        "boundary": "administrative",
        "name": "Richmond Local Municipality",
        "ref": "KZN227",
        "type": "boundary",
        "wikidata": "Q1983195",
        "parent_id": "610729"
      }
    },
    {
      "type": "rel",
      "id": 610731,
      "tags": {
        "admin_level": "8",
        "boundary": "administrative",
        "name": "Mpofana Local Municipality",
        "ref": "KZN223",
        "type": "boundary",
        "wikidata": "Q1298937",
        "parent_id": "610729"
      }
    },
    {
      "type": "rel",
      "id": 610732,
      "tags": {
        "admin_level": "8",
        "boundary": "administrative",
        "name": "Mkhambathini Local Municipality",
        "ref": "KZN226",
        "type": "boundary",
        "wikidata": "Q1941155",
        "parent_id": "610729"
      }
    },
    {
      "type": "rel",
      "id": 610733,
      "tags": {
        "admin_level": "8",
        "boundary": "administrative",
        "name": "uMshwathi Local Municipality",
        "ref": "KZN221",
        "type": "boundary",
        "wikidata": "Q311795",
        "parent_id": "610729"
      }
    },
    {
      "type": "rel",
      "id": 610734,
      "tags": {
        "admin_level": "8",
        "boundary": "administrative",
        "name": "uMgeni Local Municipality",
        "ref": "KZN222",
        "type": "boundary",
        "parent_id": "610729"
      }
    },
    {
      "type": "rel",
      "id": 610735,
      "tags": {
        "admin_level": "8",
        "boundary": "administrative",
        "name": "Impendle Local Municipality",
        "ref": "KZN224",
        "type": "boundary",
        "wikidata": "Q1660258",
        "parent_id": "610729"
      }
    },
    {
      "type": "rel",
      "id": 610736,
      "tags": {
        "admin_level": "8",
        "boundary": "administrative",
        "name": "Msunduzi Local Municipality",
        "ref": "KZN225",
        "type": "boundary",
        "wikidata": "Q1815510",
        "parent_id": "610729"
      }
    },
    {
      "type": "rel",
      "id": 610998,
      "tags": {
        "admin_level": "8",
        "boundary": "administrative",
        "name": "Emnambithi/Ladysmith Local Municipality",
        "ref": "KZN232",
        "type": "boundary",
        "wikidata": "Q685192",
        "parent_id": "611001"
      }
    },
    {
      "type": "rel",
      "id": 610999,
      "tags": {
        "admin_level": "8",
        "boundary": "administrative",
        "name": "Indaka Local Municipality",
        "ref": "KZN233",
        "type": "boundary",
        "wikidata": "Q1661010",
        "parent_id": "611001"
      }
    },
    {
      "type": "rel",
      "id": 611000,
      "tags": {
        "admin_level": "8",
        "boundary": "administrative",
        "name": "Imbabazane Local Municipality",
        "ref": "KZN236",
        "type": "boundary",
        "wikidata": "Q1659754",
        "parent_id": "611001"
      }
    },
    {
      "type": "rel",
      "id": 611002,
      "tags": {
        "admin_level": "8",
        "boundary": "administrative",
        "name": "Okhahlamba Local Municipality",
        "name:de": "Okhahlamba",
        "name:en": "Okhahlamba Local Municipality",
        "name:it": "Municipalit\u00e0 locale di Okhahlamba",
        "name:nl": "Okhahlamba",
        "name:pl": "Okhahlamba",
        "ref": "KZN235",
        "type": "boundary",
        "wikidata": "Q775825",
        "wikipedia": "en:Okhahlamba Local Municipality",
        "parent_id": "611001"
      }
    },
    {
      "type": "rel",
      "id": 611003,
      "tags": {
        "admin_level": "8",
        "boundary": "administrative",
        "name": "Umtshezi Local Municipality",
        "ref": "KZN234",
        "type": "boundary",
        "wikidata": "Q1681863",
        "parent_id": "611001"
      }
    },
    {
      "type": "rel",
      "id": 611023,
      "tags": {
        "admin_level": "8",
        "boundary": "administrative",
        "name": "Nquthu Local Municipality",
        "ref": "KZN242",
        "type": "boundary",
        "wikidata": "Q2003963",
        "parent_id": "611026"
      }
    },
    {
      "type": "rel",
      "id": 611024,
      "tags": {
        "admin_level": "8",
        "boundary": "administrative",
        "name": "Msinga Local Municipality",
        "ref": "KZN244",
        "type": "boundary",
        "wikidata": "Q278422",
        "parent_id": "611026"
      }
    },
    {
      "type": "rel",
      "id": 611025,
      "tags": {
        "admin_level": "8",
        "boundary": "administrative",
        "name": "Endumeni Local Municipality",
        "ref": "KZN241",
        "type": "boundary",
        "wikidata": "Q1341026",
        "parent_id": "611026"
      }
    },
    {
      "type": "rel",
      "id": 611027,
      "tags": {
        "admin_level": "8",
        "boundary": "administrative",
        "name": "Umvoti Local Municipality",
        "ref": "KZN245",
        "type": "boundary",
        "wikidata": "Q254505",
        "parent_id": "611026"
      }
    },
    {
      "type": "rel",
      "id": 611070,
      "tags": {
        "admin_level": "8",
        "boundary": "administrative",
        "name": "Dannhauser Local Municipality",
        "ref": "KZN254",
        "type": "boundary",
        "wikidata": "Q4833492",
        "wikipedia": "en:Dannhauser Local Municipality",
        "parent_id": "611069"
      }
    },
    {
      "type": "rel",
      "id": 611071,
      "tags": {
        "admin_level": "8",
        "boundary": "administrative",
        "name": "eMadlangeni Local Municipality",
        "name:de": "eMadlangeni",
        "name:en": "eMadlangeni Local Municipality",
        "name:it": "Municipalit\u00e0 locale di Emadlangeni",
        "name:nl": "eMadlangeni",
        "name:pl": "eMadlangeni",
        "old_name": "Utrecht Local Municipality",
        "ref": "KZN253",
        "type": "boundary",
        "wikidata": "Q310008",
        "wikipedia": "en:EMadlangeni Local Municipality",
        "parent_id": "611069"
      }
    },
    {
      "type": "rel",
      "id": 611072,
      "tags": {
        "admin_level": "8",
        "boundary": "administrative",
        "name": "Newcastle Local Municipality",
        "ref": "KZN252",
        "type": "boundary",
        "wikidata": "Q1983450",
        "parent_id": "611069"
      }
    },
    {
      "type": "rel",
      "id": 611616,
      "tags": {
        "admin_level": "8",
        "boundary": "administrative",
        "name": "Msukaligwa",
        "ref": "MP302",
        "type": "boundary",
        "wikidata": "Q2084908",
        "parent_id": "611622"
      }
    },
    {
      "type": "rel",
      "id": 611617,
      "tags": {
        "admin_level": "8",
        "boundary": "administrative",
        "name": "Lekwa Local Municipality",
        "ref": "MP305",
        "type": "boundary",
        "wikidata": "Q595051",
        "parent_id": "611622"
      }
    },
    {
      "type": "rel",
      "id": 611618,
      "tags": {
        "admin_level": "8",
        "boundary": "administrative",
        "name": "Pixley Ka Seme Local Municipality",
        "ref": "MP304",
        "type": "boundary",
        "wikidata": "Q1303780",
        "parent_id": "611622"
      }
    },
    {
      "type": "rel",
      "id": 611619,
      "tags": {
        "admin_level": "8",
        "boundary": "administrative",
        "name": "Govan Mbeki",
        "name:de": "Govan Mbeki",
        "name:en": "Govan Mbeki Local Municipality",
        "name:it": "Municipalit\u00e0 locale di Govan Mbeki",
        "name:nl": "Govan Mbeki",
        "name:pl": "Govan Mbeki",
        "name:ru": "\u0413\u043e\u0432\u0430\u043d \u041c\u0431\u0435\u043a\u0438",
        "ref": "MP307",
        "type": "boundary",
        "wikidata": "Q1301527",
        "parent_id": "611622"
      }
    },
    {
      "type": "rel",
      "id": 611628,
      "tags": {
        "admin_level": "8",
        "boundary": "administrative",
        "name": "Dipaleseng Local Municipality",
        "name:de": "Dipaleseng",
        "name:en": "Dipaleseng Local Municipality",
        "name:it": "Municipalit\u00e0 locale di Dipaleseng",
        "name:nl": "Dipaleseng",
        "name:pl": "Dipaleseng",
        "name:ru": "\u0414\u0438\u043f\u0430\u043b\u0435\u0441\u0435\u043d\u0433",
        "ref": "MP306",
        "type": "boundary",
        "wikidata": "Q1227128",
        "wikipedia": "en:Dipaleseng Local Municipality",
        "parent_id": "611622"
      }
    },
    {
      "type": "rel",
      "id": 611630,
      "tags": {
        "admin_level": "8",
        "boundary": "administrative",
        "name": "Mkhondo",
        "name:af": "Mkhondo Plaaslike Munisipaliteit",
        "name:de": "Gemeinde Mkhondo",
        "name:en": "Mkhondo Local Municipality",
        "name:it": "Municipalit\u00e0 locale di Mkhondo",
        "name:pl": "gmina Mkhondo",
        "name:uk": "\u041c\u043a\u0445\u043e\u043d\u0434\u043e \u043c\u0456\u0441\u0446\u0435\u0432\u0438\u0439 \u043c\u0443\u043d\u0456\u0446\u0438\u043f\u0430\u043b\u0456\u0442\u0435\u0442",
        "ref": "MP303",
        "type": "boundary",
        "wikidata": "Q120788",
        "wikipedia": "nso:Mkhondo Mmusogae",
        "parent_id": "611622"
      }
    },
    {
      "type": "rel",
      "id": 611632,
      "tags": {
        "admin_level": "8",
        "boundary": "administrative",
        "name": "Albert Luthuli Local Municipality",
        "name:de": "Albert Luthuli",
        "name:en": "Albert Luthuli Local Municipality",
        "name:it": "Municipalit\u00e0 locale di Albert Luthuli",
        "name:nl": "Albert Luthuli",
        "name:pl": "Albert Luthuli",
        "name:ru": "\u0410\u043b\u044c\u0431\u0435\u0440\u0442 \u041b\u0443\u0442\u0445\u0443\u043b\u0438",
        "ref": "MP301",
        "type": "boundary",
        "wikidata": "Q1643020",
        "wikipedia": "en:Albert Luthuli Local Municipality",
        "parent_id": "611622"
      }
    },
    {
      "type": "rel",
      "id": 610708,
      "tags": {
        "admin_level": "8",
        "boundary": "administrative",
        "name": "uMhlabuyalingana Local Municipality",
        "ref": "KZN271",
        "type": "boundary",
        "wikidata": "Q2067619",
        "parent_id": "610712"
      }
    },
    {
      "type": "rel",
      "id": 610709,
      "tags": {
        "admin_level": "8",
        "boundary": "administrative",
        "name": "Hlabisa Local Municipality",
        "ref": "KZN274",
        "type": "boundary",
        "wikidata": "Q638488",
        "parent_id": "610712"
      }
    },
    {
      "type": "rel",
      "id": 610710,
      "tags": {
        "admin_level": "8",
        "boundary": "administrative",
        "name": "Jozini Local Municipality",
        "ref": "KZN272",
        "type": "boundary",
        "wikidata": "Q241617",
        "parent_id": "610712"
      }
    },
    {
      "type": "rel",
      "id": 610711,
      "tags": {
        "admin_level": "8",
        "boundary": "administrative",
        "name": "Mtubatuba Local Municipality",
        "ref": "KZN275",
        "type": "boundary",
        "wikidata": "Q10975369",
        "parent_id": "610712"
      }
    },
    {
      "type": "rel",
      "id": 610713,
      "tags": {
        "admin_level": "8",
        "boundary": "administrative",
        "name": "The Big Five False Bay Local Municipality",
        "ref": "KZN273",
        "type": "boundary",
        "wikidata": "Q138717",
        "parent_id": "610712"
      }
    },
    {
      "type": "rel",
      "id": 611106,
      "tags": {
        "admin_level": "8",
        "boundary": "administrative",
        "name": "eDumbe Local Municipality",
        "ref": "KZN261",
        "type": "boundary",
        "wikidata": "Q311812",
        "parent_id": "611105"
      }
    },
    {
      "type": "rel",
      "id": 611107,
      "tags": {
        "admin_level": "8",
        "boundary": "administrative",
        "name": "Ulundi Local Municipality",
        "population": "29132",
        "ref": "KZN266",
        "type": "boundary",
        "wikidata": "Q1856473",
        "parent_id": "611105"
      }
    },
    {
      "type": "rel",
      "id": 611108,
      "tags": {
        "admin_level": "8",
        "boundary": "administrative",
        "name": "Abaqulusi Local Municipality",
        "ref": "KZN263",
        "type": "boundary",
        "wikidata": "Q304168",
        "wikipedia": "en:Abaqulusi Local Municipality",
        "parent_id": "611105"
      }
    },
    {
      "type": "rel",
      "id": 611109,
      "tags": {
        "admin_level": "8",
        "boundary": "administrative",
        "name": "Nongoma Local Municipality",
        "ref": "KZN265",
        "type": "boundary",
        "wikidata": "Q925168",
        "wikipedia": "en:Nongoma Local Municipality",
        "parent_id": "611105"
      }
    },
    {
      "type": "rel",
      "id": 611110,
      "tags": {
        "admin_level": "8",
        "boundary": "administrative",
        "name": "uPhongolo Local Municipality",
        "ref": "KZN262",
        "type": "boundary",
        "wikidata": "Q177535",
        "parent_id": "611105"
      }
    },
    {
      "type": "rel",
      "id": 611177,
      "tags": {
        "admin_level": "8",
        "boundary": "administrative",
        "name": "uMfolozi Local Municipality",
        "old_name": "Mbonambi Local Municipality",
        "ref": "KZN281",
        "type": "boundary",
        "wikidata": "Q1681141",
        "parent_id": "611181"
      }
    },
    {
      "type": "rel",
      "id": 611178,
      "tags": {
        "admin_level": "8",
        "boundary": "administrative",
        "name": "Mthonjaneni Local Municipality",
        "ref": "KZN285",
        "type": "boundary",
        "wikidata": "Q1951578",
        "parent_id": "611181"
      }
    },
    {
      "type": "rel",
      "id": 611179,
      "tags": {
        "admin_level": "8",
        "boundary": "administrative",
        "name": "Nkandla Local Municipality",
        "ref": "KZN286",
        "type": "boundary",
        "wikidata": "Q3644604",
        "parent_id": "611181"
      }
    },
    {
      "type": "rel",
      "id": 611180,
      "tags": {
        "admin_level": "8",
        "boundary": "administrative",
        "name": "uMlalazi Local Municipality",
        "ref": "KZN284",
        "type": "boundary",
        "wikidata": "Q311805",
        "parent_id": "611181"
      }
    },
    {
      "type": "rel",
      "id": 611182,
      "tags": {
        "admin_level": "8",
        "boundary": "administrative",
        "name": "Ntambanana Local Municipality",
        "ref": "KZN283",
        "type": "boundary",
        "wikidata": "Q509059",
        "parent_id": "611181"
      }
    },
    {
      "type": "rel",
      "id": 611183,
      "tags": {
        "admin_level": "8",
        "boundary": "administrative",
        "name": "uMhlathuze Local Municipality",
        "ref": "KZN282",
        "type": "boundary",
        "wikidata": "Q311800",
        "parent_id": "611181"
      }
    },
    {
      "type": "rel",
      "id": 611248,
      "tags": {
        "admin_level": "8",
        "boundary": "administrative",
        "name": "Maphumulo Local Municipality",
        "ref": "KZN294",
        "type": "boundary",
        "wikidata": "Q1892065",
        "wikipedia": "en:Maphumulo Local Municipality",
        "parent_id": "611247"
      }
    },
    {
      "type": "rel",
      "id": 611249,
      "tags": {
        "admin_level": "8",
        "boundary": "administrative",
        "name": "KwaDukuza Local Municipality",
        "ref": "KZN292",
        "type": "boundary",
        "wikidata": "Q1759943",
        "parent_id": "611247"
      }
    },
    {
      "type": "rel",
      "id": 611250,
      "tags": {
        "admin_level": "8",
        "boundary": "administrative",
        "name": "Ndwedwe Local Municipality",
        "ref": "KZN293",
        "type": "boundary",
        "wikidata": "Q1717872",
        "parent_id": "611247"
      }
    },
    {
      "type": "rel",
      "id": 611251,
      "tags": {
        "admin_level": "8",
        "boundary": "administrative",
        "name": "Mandeni Local Municipality",
        "ref": "KZN291",
        "type": "boundary",
        "wikidata": "Q1889000",
        "parent_id": "611247"
      }
    },
    {
      "type": "rel",
      "id": 599228,
      "tags": {
        "admin_level": "8",
        "boundary": "administrative",
        "name": "Mogale City Local Municipality",
        "ref": "GT481",
        "surface": "asphalt",
        "type": "boundary",
        "wikidata": "Q127787",
        "wikipedia": "en:Mogale City Local Municipality",
        "parent_id": "594516"
      }
    },
    {
      "type": "rel",
      "id": 599235,
      "tags": {
        "admin_level": "8",
        "boundary": "administrative",
        "name": "Randfontein Local Municipality",
        "ref": "GT482",
        "surface": "asphalt",
        "type": "boundary",
        "wikidata": "Q2086957",
        "parent_id": "594516"
      }
    },
    {
      "type": "rel",
      "id": 599242,
      "tags": {
        "admin_level": "8",
        "boundary": "administrative",
        "name": "Merafong City Local Municipality",
        "ref": "GT484",
        "type": "boundary",
        "wikidata": "Q1921092",
        "parent_id": "594516"
      }
    },
    {
      "type": "rel",
      "id": 599253,
      "tags": {
        "admin_level": "8",
        "boundary": "administrative",
        "name": "Westonaria Local Municipality",
        "ref": "GT483",
        "type": "boundary",
        "wikidata": "Q2026410",
        "parent_id": "594516"
      }
    },
    {
      "type": "rel",
      "id": 599214,
      "tags": {
        "admin_level": "8",
        "boundary": "administrative",
        "name": "Lesedi Local Municipality",
        "ref": "GT423",
        "type": "boundary",
        "wikidata": "Q1820684",
        "wikipedia": "en:Lesedi Local Municipality",
        "parent_id": "594496"
      }
    },
    {
      "type": "rel",
      "id": 599232,
      "tags": {
        "admin_level": "8",
        "boundary": "administrative",
        "name": "Midvaal Local Municipality",
        "name:zh": "\u7c73\u5fb7\u74e6\u5730\u65b9\u81ea\u6cbb\u5e02",
        "name:zh-Hans": "\u7c73\u5fb7\u74e6\u5730\u65b9\u81ea\u6cbb\u5e02",
        "name:zh-Hant": "\u7c73\u5fb7\u74e6\u5730\u65b9\u81ea\u6cbb\u5e02",
        "ref": "GT422",
        "type": "boundary",
        "website": "https://www.midvaal.gov.za/",
        "wikidata": "Q1531415",
        "parent_id": "594496"
      }
    },
    {
      "type": "rel",
      "id": 599257,
      "tags": {
        "admin_level": "8",
        "boundary": "administrative",
        "name": "Emfuleni Local Municipality",
        "ref": "GT421",
        "type": "boundary",
        "wikidata": "Q1335678",
        "parent_id": "594496"
      }
    },
    {
      "type": "rel",
      "id": 611423,
      "tags": {
        "admin_level": "8",
        "boundary": "administrative",
        "name": "Greater Letaba Local Municipality",
        "ref": "LIM332",
        "type": "boundary",
        "wikidata": "Q1544434",
        "parent_id": "611425"
      }
    },
    {
      "type": "rel",
      "id": 611424,
      "tags": {
        "admin_level": "8",
        "boundary": "administrative",
        "name": "Greater Tzaneen Local Municipality",
        "ref": "LIM333",
        "type": "boundary",
        "wikidata": "Q1544454",
        "parent_id": "611425"
      }
    },
    {
      "type": "rel",
      "id": 611426,
      "tags": {
        "admin_level": "8",
        "boundary": "administrative",
        "name": "Greater Giyani Local Municipality",
        "ref": "LIM331",
        "type": "boundary",
        "wikidata": "Q1544427",
        "parent_id": "611425"
      }
    },
    {
      "type": "rel",
      "id": 611427,
      "tags": {
        "admin_level": "8",
        "boundary": "administrative",
        "name": "Maruleng Local Municipality",
        "ref": "LIM335",
        "type": "boundary",
        "wikidata": "Q582629",
        "parent_id": "611425"
      }
    },
    {
      "type": "rel",
      "id": 611428,
      "tags": {
        "admin_level": "8",
        "boundary": "administrative",
        "name": "Ba-Phalaborwa Local Municipality",
        "ref": "LIM334",
        "type": "boundary",
        "wikidata": "Q797426",
        "parent_id": "611425"
      }
    },
    {
      "type": "rel",
      "id": 114783,
      "tags": {
        "admin_level": "8",
        "boundary": "administrative",
        "name": "Aganang Local Municipality",
        "ref": "LIM352",
        "type": "boundary",
        "wikidata": "Q390436",
        "parent_id": "611509"
      }
    },
    {
      "type": "rel",
      "id": 611505,
      "tags": {
        "admin_level": "8",
        "boundary": "administrative",
        "name": "Polokwane Local Municipality",
        "ref": "LIM354",
        "type": "boundary",
        "wikidata": "Q1660415",
        "parent_id": "611509"
      }
    },
    {
      "type": "rel",
      "id": 611506,
      "tags": {
        "admin_level": "8",
        "boundary": "administrative",
        "name": "Molemole Local Municipality",
        "ref": "LIM353",
        "type": "boundary",
        "wikidata": "Q1943437",
        "parent_id": "611509"
      }
    },
    {
      "type": "rel",
      "id": 611507,
      "tags": {
        "admin_level": "8",
        "boundary": "administrative",
        "name": "Blouberg Local Municipality",
        "ref": "LIM351",
        "type": "boundary",
        "wikidata": "Q885465",
        "parent_id": "611509"
      }
    },
    {
      "type": "rel",
      "id": 611508,
      "tags": {
        "admin_level": "8",
        "boundary": "administrative",
        "name": "Lepelle-Nkumpi Local Municipality",
        "ref": "LIM355",
        "type": "boundary",
        "wikidata": "Q1820064",
        "parent_id": "611509"
      }
    },
    {
      "type": "rel",
      "id": 611573,
      "tags": {
        "admin_level": "8",
        "boundary": "administrative",
        "name": "Greater Tubatse Local Municipality",
        "ref": "LIM475",
        "type": "boundary",
        "wikidata": "Q2671208",
        "parent_id": "611577"
      }
    },
    {
      "type": "rel",
      "id": 611574,
      "tags": {
        "admin_level": "8",
        "boundary": "administrative",
        "name": "Fetakgomo Local Municipality",
        "ref": "LIM474",
        "type": "boundary",
        "wikidata": "Q267665",
        "parent_id": "611577"
      }
    },
    {
      "type": "rel",
      "id": 611575,
      "tags": {
        "admin_level": "8",
        "boundary": "administrative",
        "name": "Makhuduthamaga Local Municipality",
        "ref": "LIM473",
        "type": "boundary",
        "wikidata": "Q2486320",
        "parent_id": "611577"
      }
    },
    {
      "type": "rel",
      "id": 611576,
      "tags": {
        "admin_level": "8",
        "boundary": "administrative",
        "name": "Elias Motsoaledi Local Municipality",
        "name:de": "Elias Motsoaledi",
        "name:en": "Elias Motsoaledi Local Municipality",
        "name:nl": "Elias Motsoaledi",
        "name:pl": "Elias Motsoaledi",
        "name:ru": "\u042d\u043b\u0438\u0430\u0441 \u041c\u043e\u0442\u0441\u043e\u0430\u043b\u0435\u0434\u0438",
        "ref": "LIM472",
        "type": "boundary",
        "wikidata": "Q962633",
        "parent_id": "611577"
      }
    },
    {
      "type": "rel",
      "id": 611578,
      "tags": {
        "admin_level": "8",
        "boundary": "administrative",
        "name": "Ephraim Mogale Local Municipality",
        "old_name": "Greater Marble Hall Local Municipality",
        "ref": "LIM471",
        "type": "boundary",
        "wikidata": "Q2634207",
        "parent_id": "611577"
      }
    },
    {
      "type": "rel",
      "id": 611615,
      "tags": {
        "admin_level": "8",
        "boundary": "administrative",
        "name": "Mbombela",
        "ref": "MP322",
        "type": "boundary",
        "wikidata": "Q2286969",
        "parent_id": "611620"
      }
    },
    {
      "type": "rel",
      "id": 611621,
      "tags": {
        "admin_level": "8",
        "boundary": "administrative",
        "fixme": "Umjindi Local Municipality was disestablished and merged into the Mbombela Local Municipality",
        "name": "Umjindi Local Municipality",
        "ref": "MP323",
        "type": "boundary",
        "wikidata": "Q1894966",
        "parent_id": "611620"
      }
    },
    {
      "type": "rel",
      "id": 611623,
      "tags": {
        "admin_level": "8",
        "boundary": "administrative",
        "name": "Thaba Chweu Local Municipality",
        "ref": "MP321",
        "type": "boundary",
        "wikidata": "Q2655391",
        "parent_id": "611620"
      }
    },
    {
      "type": "rel",
      "id": 611625,
      "tags": {
        "admin_level": "8",
        "boundary": "administrative",
        "name": "Nkomazi",
        "ref": "MP324",
        "type": "boundary",
        "wikidata": "Q1922799",
        "parent_id": "611620"
      }
    },
    {
      "type": "rel",
      "id": 611631,
      "tags": {
        "admin_level": "8",
        "boundary": "administrative",
        "name": "Bushbuckridge",
        "ref": "MP325",
        "type": "boundary",
        "wikidata": "Q670226",
        "parent_id": "611620"
      }
    },
    {
      "type": "rel",
      "id": 611624,
      "tags": {
        "admin_level": "8",
        "boundary": "administrative",
        "name": "Victor Khanye Local Municipality",
        "old_name": "Delmas Local Municipality",
        "ref": "MP311",
        "type": "boundary",
        "wikidata": "Q617500",
        "parent_id": "611627"
      }
    },
    {
      "type": "rel",
      "id": 611626,
      "tags": {
        "admin_level": "8",
        "boundary": "administrative",
        "name": "Emakhazeni Local Municipality",
        "old_name": "Highlands Local Municipality",
        "ref": "MP314",
        "type": "boundary",
        "wikidata": "Q2317194",
        "parent_id": "611627"
      }
    },
    {
      "type": "rel",
      "id": 611629,
      "tags": {
        "admin_level": "8",
        "boundary": "administrative",
        "name": "Emalahleni Local Municipality",
        "ref": "MP312",
        "type": "boundary",
        "wikidata": "Q2347801",
        "parent_id": "611627"
      }
    },
    {
      "type": "rel",
      "id": 611633,
      "tags": {
        "admin_level": "8",
        "boundary": "administrative",
        "name": "Steve Tshwete",
        "name:de": "Steve Tshwete",
        "name:en": "Steve Tshwete Local Municipality",
        "name:it": "Municipalit\u00e0 locale di Steve Tshwete",
        "name:nl": "Steve Tshwete",
        "name:pl": "Steve Tshwete",
        "name:ru": "\u0421\u0442\u0438\u0432 \u0422\u0448\u0432\u0435\u0442\u0435",
        "ref": "MP313",
        "type": "boundary",
        "wikidata": "Q2292410",
        "parent_id": "611627"
      }
    },
    {
      "type": "rel",
      "id": 611634,
      "tags": {
        "admin_level": "8",
        "boundary": "administrative",
        "name": "Dr JS Moroka Local Municipality",
        "ref": "MP316",
        "type": "boundary",
        "wikidata": "Q1254147",
        "parent_id": "611627"
      }
    },
    {
      "type": "rel",
      "id": 611635,
      "tags": {
        "admin_level": "8",
        "boundary": "administrative",
        "name": "Thembisile Hani Local Municipality",
        "name:de": "Thembisile Hani",
        "name:en": "Thembisile Hani Local Municipality",
        "name:it": "Municipalit\u00e0 locale di Thembisile",
        "name:nl": "Thembisile",
        "name:pl": "Thembisile",
        "name:ru": "\u0422\u0445\u0435\u043c\u0431\u0438\u0441\u0438\u043b\u0435 \u0425\u0430\u043d\u0438",
        "ref": "MP315",
        "type": "boundary",
        "wikidata": "Q2226422",
        "parent_id": "611627"
      }
    },
    {
      "type": "rel",
      "id": 611436,
      "tags": {
        "admin_level": "8",
        "boundary": "administrative",
        "name": "Mutale Local Municipality",
        "ref": "LIM342",
        "type": "boundary",
        "wikidata": "Q737965",
        "parent_id": "611438"
      }
    },
    {
      "type": "rel",
      "id": 611437,
      "tags": {
        "admin_level": "8",
        "boundary": "administrative",
        "name": "Thulamela Local Municipality",
        "ref": "LIM343",
        "type": "boundary",
        "wikidata": "Q2006792",
        "parent_id": "611438"
      }
    },
    {
      "type": "rel",
      "id": 611439,
      "tags": {
        "admin_level": "8",
        "boundary": "administrative",
        "comment": "This is a example for adress Search in Garmin \"OSM Transport Card\"",
        "name": "Musina Local Municipality",
        "population": "42678",
        "ref": "LIM341",
        "type": "boundary",
        "wikidata": "Q739997",
        "parent_id": "611438"
      }
    },
    {
      "type": "rel",
      "id": 611440,
      "tags": {
        "admin_level": "8",
        "boundary": "administrative",
        "name": "Makhado Local Municipality",
        "ref": "LIM344",
        "type": "boundary",
        "wikidata": "Q1537865",
        "parent_id": "611438"
      }
    }
  ]
}