{
  "version": 0.6,
  "generator": "Overpass API 0.7.62.8 e802775f",
  "osm3s": {
    "timestamp_osm_base": "2025-10-03T18:01:02Z",
    "timestamp_areas_base": "2025-10-03T13:36:01Z",
    "copyright": "The data included in this document is from www.openstreetmap.org. The data is made available under ODbL."
  },
  "elements": [
    {
      "type": "relation",
      "id": 171496,
      "tags": {
        "ISO3166-1": "RW",
        "ISO3166-1:alpha2": "RW",
        "ISO3166-1:alpha3": "RWA",
        "ISO3166-1:numeric": "646",
        "admin_level": "2",
        "boundary": "administrative",
        "currency": "RWF",
        "flag": "https://upload.wikimedia.org/wikipedia/commons/1/17/Flag_of_Rwanda.svg",
        "name": "Rwanda",
        "name:ace": "Rwanda",
        "name:af": "Rwanda",
        "name:als": "Ruanda",
        "name:am": "\u1229\u12cb\u1295\u12f3",
        "name:an": "Ruanda",
        "name:ang": "Rwanda",
        "name:ar": "\u0631\u0648\u0627\u0646\u062f\u0627",
        "name:arz": "\u0631\u0648\u0627\u0646\u062f\u0627",
        "name:ast": "Ruanda",
        "name:az": "Ruanda",
        "name:ba": "\u0420\u0443\u0430\u043d\u0434\u0430",
        "name:bat-smg": "Ruanda",
        "name:bcl": "Ruanda",
        "name:be": "\u0420\u0443\u0430\u043d\u0434\u0430",
        "name:be-tarask": "\u0420\u0443\u0430\u043d\u0434\u0430",
        "name:bg": "\u0420\u0443\u0430\u043d\u0434\u0430",
        "name:bjn": "Rwanda",
        "name:bm": "Rwanda",
        "name:bn": "\u09b0\u09c1\u09af\u09bc\u09be\u09a8\u09cd\u09a1\u09be",
        "name:bo": "\u0f62\u0f74\u0f0b\u0f5d\u0f53\u0f0b\u0f4c\u0f0d",
        "name:bpy": "\u09b0\u09c1\u09af\u09bc\u09be\u09a8\u09cd\u09a1\u09be",
        "name:br": "Rwanda",
        "name:bs": "Ruanda",
        "name:bxr": "\u0420\u0443\u0430\u043d\u0434\u0430",
        "name:ca": "Rwanda",
        "name:ce": "\u0420\u0443\u0430\u043d\u0434\u0430",
        "name:ceb": "Rwanda",
        "name:ckb": "\u0695\u0648\u0627\u0646\u062f\u0627",
        "name:crh": "Ruanda",
        "name:cs": "Rwanda",
        "name:cv": "\u0420\u0443\u0430\u043d\u0434\u0430",
        "name:cy": "Rwanda",
        "name:da": "Rwanda",
        "name:de": "Ruanda",
        "name:din": "Ruanda",
        "name:diq": "Rwanda",
        "name:dsb": "Ruanda",
        "name:dv": "\u0783\u07aa\u0788\u07a7\u0782\u07b0\u0791\u07a7",
        "name:ee": "Rwanda",
        "name:el": "\u03a1\u03bf\u03c5\u03ac\u03bd\u03c4\u03b1",
        "name:en": "Rwanda",
        "name:eo": "Ruando",
        "name:es": "Ruanda",
        "name:et": "Rwanda",
        "name:eu": "Ruanda",
        "name:ext": "Ruanda",
        "name:fa": "\u0631\u0648\u0627\u0646\u062f\u0627",
        "name:fi": "Ruanda",
        "name:fo": "Ruanda",
        "name:fr": "Rwanda",
        "name:frp": "Rouanda",
        "name:fy": "R\u00fbanda",
        "name:ga": "Ruanda",
        "name:gag": "Ruanda",
        "name:gd": "Rubhanda",
        "name:gl": "Ruanda",
        "name:gn": "Rru\u00e1nda",
        "name:gv": "Rooandey",
        "name:he": "\u05e8\u05d5\u05d0\u05e0\u05d3\u05d4",
        "name:hi": "\u0930\u0935\u093e\u0923\u094d\u0921\u093e",
        "name:hif": "Rwanda",
        "name:hr": "Ruanda",
        "name:hsb": "Ruanda",
        "name:ht": "Rwanda",
        "name:hu": "Ruanda",
        "name:hy": "\u054c\u0578\u0582\u0561\u0576\u0564\u0561",
        "name:ia": "Ruanda",
        "name:id": "Rwanda",
        "name:ie": "Rwanda",
        "name:ilo": "Rwanda",
        "name:io": "Ruanda",
        "name:is": "R\u00faanda",
        "name:it": "Ruanda",
        "name:ja": "\u30eb\u30ef\u30f3\u30c0",
        "name:jbo": "ruandas",
        "name:jv": "Rwanda",
        "name:ka": "\u10e0\u10e3\u10d0\u10dc\u10d3\u10d0",
        "name:kaa": "Ruanda",
        "name:kg": "Rwanda",
        "name:ki": "Rwanda",
        "name:kk": "\u0420\u0443\u0430\u043d\u0434\u0430",
        "name:kn": "\u0cb0\u0ccd\u0cb5\u0cbe\u0c82\u0ca1",
        "name:ko": "\ub974\uc644\ub2e4",
        "name:koi": "\u0420\u0443\u0430\u043d\u0434\u0430",
        "name:ku": "Rwanda",
        "name:kw": "Rwanda",
        "name:la": "Ruanda",
        "name:lb": "Ruanda",
        "name:li": "Rwanda",
        "name:lij": "Ruanda",
        "name:lmo": "Ruanda",
        "name:ln": "Rwanda",
        "name:lt": "Ruanda",
        "name:lv": "Ruanda",
        "name:mhr": "\u0420\u0443\u0430\u043d\u0434\u0435",
        "name:mk": "\u0420\u0443\u0430\u043d\u0434\u0430",
        "name:ml": "\u0d31\u0d41\u0d35\u0d3e\u0d23\u0d4d\u0d1f",
        "name:mn": "\u0420\u0443\u0430\u043d\u0434\u0430",
        "name:mr": "\u0931\u094d\u0935\u093e\u0928\u094d\u0921\u093e",
        "name:mrj": "\u0420\u0443\u0430\u043d\u0434\u0430",
        "name:ms": "Rwanda",
        "name:mt": "Rwanda",
        "name:my": "\u101b\u101d\u1019\u103a\u1012\u102b\u1014\u102d\u102f\u1004\u103a\u1004\u1036",
        "name:nah": "Ruanda",
        "name:nan": "Rwanda",
        "name:nds": "Ruanda",
        "name:ne": "\u0930\u0941\u0935\u093e\u0923\u094d\u0921\u093e",
        "name:nl": "Rwanda",
        "name:nn": "Rwanda",
        "name:no": "Rwanda",
        "name:nov": "Rwanda",
        "name:nso": "Rwanda",
        "name:nv": "W\u00e1nda Dine\u02bc\u00e9 Bik\u00e9yah",
        "name:oc": "Rwanda",
        "name:or": "\u0b30\u0b35\u0b3e\u0b23\u0b4d\u0b21\u0b3e",
        "name:os": "\u0420\u0443\u0430\u043d\u0434\u00e6",
        "name:pa": "\u0a30\u0a35\u0a3e\u0a02\u0a21\u0a3e",
        "name:pam": "Rwanda",
        "name:pih": "R'wanda",
        "name:pl": "Rwanda",
        "name:pms": "Ruanda",
        "name:pnb": "\u0631\u0648\u0627\u0646\u0688\u0627",
        "name:ps": "\u0631\u0627\u0648\u0646\u0689\u0627",
        "name:pt": "Ruanda",
        "name:qu": "Rwanda",
        "name:rn": "Rwanda",
        "name:ro": "Rwanda",
        "name:ru": "\u0420\u0443\u0430\u043d\u0434\u0430",
        "name:rue": "\u0420\u0432\u0430\u043d\u0434\u0430",
        "name:rw": "Rwanda",
        "name:sa": "\u0930\u0935\u093e\u0923\u094d\u0921\u093e",
        "name:sah": "\u0420\u0443\u0430\u043d\u0434\u0430",
        "name:sc": "Ruanda",
        "name:scn": "Ruanna",
        "name:sco": "Rwanda",
        "name:se": "Rwanda",
        "name:sg": "Ruand\u00e4a",
        "name:sh": "Ruanda",
        "name:si": "\u0dbb\u0dd4\u0dc0\u0db1\u0dca\u0da9\u0dcf \u0da2\u0db1\u0dbb\u0da2\u0dba",
        "name:sk": "Rwanda",
        "name:sl": "Ruanda",
        "name:smn": "Ruanda",
        "name:sms": "Ruanda",
        "name:sn": "Rwanda",
        "name:so": "Ruwanda",
        "name:sq": "Ruanda",
        "name:sr": "\u0420\u0443\u0430\u043d\u0434\u0430",
        "name:ss": "IRuwanda",
        "name:stq": "Ruanda",
        "name:su": "Rwanda",
        "name:sv": "Rwanda",
        "name:sw": "Rwanda",
        "name:szl": "Rwanda",
        "name:ta": "\u0bb0\u0bc1\u0bb5\u0bbe\u0ba3\u0bcd\u0b9f\u0bbe",
        "name:te": "\u0c30\u0c41\u0c35\u0c3e\u0c02\u0c21\u0c3e",
        "name:tg": "\u0420\u0443\u0430\u043d\u0434\u0430",
        "name:th": "\u0e1b\u0e23\u0e30\u0e40\u0e17\u0e28\u0e23\u0e27\u0e31\u0e19\u0e14\u0e32",
        "name:ti": "\u1229\u12cb\u1295\u12f3",
        "name:tk": "Ruanda",
        "name:tl": "Ruwanda",
        "name:tr": "Ruanda",
        "name:ts": "Rwanda",
        "name:tt": "\u0420\u0443\u0430\u043d\u0434\u0430",
        "name:tzl": "Aruanda",
        "name:udm": "\u0420\u0443\u0430\u043d\u0434\u0430",
        "name:ug": "\u0631\u06cb\u0627\u0646\u062f\u0627",
        "name:uk": "\u0420\u0443\u0430\u043d\u0434\u0430",
        "name:ur": "\u0631\u0648\u0627\u0646\u0688\u0627",
        "name:uz": "Ruanda",
        "name:vec": "Ruanda",
        "name:vi": "Rwanda",
        "name:vo": "Ruand\u00e4n",
        "name:vro": "Rwanda",
        "name:war": "Rwanda",
        "name:wo": "Ruwandaa",
        "name:xal": "\u0420\u0443\u04bb\u0430\u043d\u0434\u0438\u043d \u041e\u0440\u043d",
        "name:yi": "\u05e8\u05d5\u05d5\u05d0\u05e0\u05d3\u05e2",
        "name:yo": "R\u00f9w\u00e1nd\u00e0",
        "name:yue": "\u76e7\u65fa\u9054",
        "name:zh": "\u5362\u65fa\u8fbe / \u76e7\u5b89\u9054",
        "name:zh-Hans": "\u5362\u65fa\u8fbe",
        "name:zh-Hant": "\u76e7\u5b89\u9054",
        "name:zu": "IRuwanda",
        "official_name:cs": "Rwandsk\u00e1 republika",
        "official_name:gn": "Tavakuairet\u00e3 Rru\u00e1nda",
        "official_name:pt": "Rep\u00fablica de Ruanda",
        "timezone": "Africa/Kigali",
        "type": "boundary",
        "wikidata": "Q1037",
        "wikipedia": "en:Rwanda"
      }
    },
    {
      "type": "relation",
      "id": 171591,
      "tags": {
        "ISO3166-2": "RW-02",
        "admin_level": "4",
        "boundary": "administrative",
        "name": "Iburasirasuba",
        "name:bg": "\u0418\u0437\u0442\u043e\u0447\u043d\u0430 \u043f\u0440\u043e\u0432\u0438\u043d\u0446\u0438\u044f",
        "name:ca": "Prov\u00edncia de l'Est",
        "name:ceb": "Eastern Province",
        "name:cs": "V\u00fdchodn\u00ed provincie",
        "name:de": "Ostprovinz",
        "name:el": "\u0391\u03bd\u03b1\u03c4\u03bf\u03bb\u03b9\u03ba\u03ae \u03a1\u03bf\u03c5\u03ac\u03bd\u03c4\u03b1",
        "name:en": "Eastern Province",
        "name:es": "Provincia Oriental",
        "name:et": "Idaprovints",
        "name:eu": "Ekialdeko probintzia",
        "name:fa": "\u0627\u0633\u062a\u0627\u0646 \u0634\u0631\u0642\u06cc",
        "name:fi": "It\u00e4",
        "name:fr": "Province de l'Est",
        "name:frr": "Uast",
        "name:hy": "\u0531\u0580\u0587\u0565\u056c\u0575\u0561\u0576 \u0576\u0561\u0570\u0561\u0576\u0563",
        "name:id": "Provinsi Timur",
        "name:it": "Provincia Orientale",
        "name:ja": "\u6771\u90e8\u5dde",
        "name:ka": "\u10d0\u10e6\u10db\u10dd\u10e1\u10d0\u10d5\u10da\u10d4\u10d7\u10d8 \u10de\u10e0\u10dd\u10d5\u10d8\u10dc\u10ea\u10d8\u10d0",
        "name:ko": "\ub3d9\ubd80\uc8fc",
        "name:lt": "Ryt\u0173 provincija",
        "name:mk": "\u0418\u0441\u0442\u043e\u0447\u043d\u0430 \u043f\u043e\u043a\u0440\u0430\u0438\u043d\u0430",
        "name:mrj": "\u0418\u0440\u0432\u0435\u043b \u043f\u0440\u043e\u0432\u0438\u043d\u0446\u0438",
        "name:nan": "Tang-p\u014d\u0358 S\u00e9ng",
        "name:nl": "Oost",
        "name:no": "\u00d8stprovinsen",
        "name:pl": "Prowincja Wschodnia",
        "name:pt": "Prov\u00edncia Oriental",
        "name:ro": "Provincia de Est",
        "name:ru": "\u0412\u043e\u0441\u0442\u043e\u0447\u043d\u0430\u044f \u043f\u0440\u043e\u0432\u0438\u043d\u0446\u0438\u044f",
        "name:rw": "Intara y\u2019Iburasirazuba",
        "name:sk": "Intara y\u2019Iburasirazuba",
        "name:sw": "Mkoa wa Mashariki",
        "name:tr": "Do\u011fu",
        "name:uk": "\u0421\u0445\u0456\u0434\u043d\u0430 \u043f\u0440\u043e\u0432\u0456\u043d\u0446\u0456\u044f",
        "name:ur": "\u0645\u0634\u0631\u0642\u06cc \u0635\u0648\u0628\u06c1\u060c \u0631\u0648\u0627\u0646\u0688\u0627",
        "name:wuu": "\u4e1c\u90e8\u7701",
        "name:zh": "\u4e1c\u90e8\u7701",
        "name:zu": "Eastern Province",
        "type": "boundary",
        "wikidata": "Q853152",
        "wikimedia_commons": "Category:East Province, Rwanda",
        "wikipedia": "en:Eastern Province, Rwanda"
      }
    },
    {
      "type": "relation",
      "id": 1707122,
      "tags": {
        "ISO3166-2": "RW-05",
        "admin_level": "4",
        "alt_name:de": "S\u00fcd Provinz",
        "boundary": "administrative",
        "name": "Amajvepfo",
        "name:bg": "\u042e\u0436\u043d\u0430 \u043f\u0440\u043e\u0432\u0438\u043d\u0446\u0438\u044f",
        "name:ca": "Prov\u00edncia del Sud",
        "name:ceb": "Southern Province",
        "name:cs": "Ji\u017en\u00ed provincie",
        "name:de": "S\u00fcdprovinz",
        "name:el": "\u039d\u03cc\u03c4\u03b9\u03b1 \u03a1\u03bf\u03c5\u03ac\u03bd\u03c4\u03b1",
        "name:en": "Southern Province",
        "name:es": "Provincia Sur",
        "name:et": "L\u00f5unaprovints",
        "name:eu": "Hegoaldeko probintzia",
        "name:fa": "\u0627\u0633\u062a\u0627\u0646 \u062c\u0646\u0648\u0628\u06cc",
        "name:fi": "Etel\u00e4",
        "name:fr": "Province du Sud",
        "name:frr": "S\u00fc\u00fcd",
        "name:hy": "\u0540\u0561\u0580\u0561\u057e\u0561\u0575\u056b\u0576 \u0576\u0561\u0570\u0561\u0576\u0563",
        "name:id": "Provinsi Selatan",
        "name:it": "Provincia Meridionale",
        "name:ja": "\u5357\u90e8\u5dde",
        "name:ka": "\u10e1\u10d0\u10db\u10ee\u10e0\u10d4\u10d7\u10d8 \u10de\u10e0\u10dd\u10d5\u10d8\u10dc\u10ea\u10d8\u10d0",
        "name:ko": "\ub0a8\ubd80\uc8fc",
        "name:lt": "Piet\u0173 provincija",
        "name:mk": "\u0408\u0443\u0436\u043d\u0430 \u043f\u043e\u043a\u0440\u0430\u0438\u043d\u0430",
        "name:mrj": "\u041a\u0435\u0447\u04f9\u0432\u04d3\u043b\u0432\u0435\u043b \u043f\u0440\u043e\u0432\u0438\u043d\u0446\u0438",
        "name:nan": "L\u00e2m-p\u014d\u0358 S\u00e9ng",
        "name:nl": "Zuid",
        "name:no": "S\u00f8rprovinsen",
        "name:pl": "Prowincja Po\u0142udniowa",
        "name:pt": "Prov\u00edncia do Sul",
        "name:ro": "Provincia de Sud",
        "name:ru": "\u042e\u0436\u043d\u0430\u044f \u043f\u0440\u043e\u0432\u0438\u043d\u0446\u0438\u044f",
        "name:rw": "Intara y'amajyepfo",
        "name:sk": "Intara y\u2019Amajyepfo",
        "name:sw": "Mkoa wa Kusini",
        "name:tr": "G\u00fcney",
        "name:uk": "\u041f\u0456\u0432\u0434\u0435\u043d\u043d\u0430 \u043f\u0440\u043e\u0432\u0456\u043d\u0446\u0456\u044f",
        "name:ur": "\u062c\u0646\u0648\u0628\u06cc \u0635\u0648\u0628\u06c1\u060c \u0631\u0648\u0627\u0646\u0688\u0627",
        "name:wuu": "\u5357\u90e8\u7701",
        "name:zh": "\u5357\u90e8\u7701",
        "name:zu": "Southern Province",
        "type": "boundary",
        "wikidata": "Q853162",
        "wikimedia_commons": "Category:South Province, Rwanda",
        "wikipedia": "en:Southern Province, Rwanda"
      }
    },
    {
      "type": "relation",
      "id": 1708131,
      "tags": {
        "ISO3166-2": "RW-04",
        "admin_level": "4",
        "boundary": "administrative",
        "name": "Iburengerazuba",
        "name:bg": "\u0417\u0430\u043f\u0430\u0434\u043d\u0430 \u043f\u0440\u043e\u0432\u0438\u043d\u0446\u0438\u044f",
        "name:ca": "Prov\u00edncia de l'Oest",
        "name:ceb": "Western Province",
        "name:cs": "Z\u00e1padn\u00ed provincie",
        "name:de": "Westprovinz",
        "name:el": "\u0394\u03c5\u03c4\u03b9\u03ba\u03ae \u03a1\u03bf\u03c5\u03ac\u03bd\u03c4\u03b1",
        "name:en": "Western Province",
        "name:es": "Provincia Occidental",
        "name:et": "L\u00e4\u00e4neprovints",
        "name:eu": "Mendebaldeko probintzia",
        "name:fa": "\u0627\u0633\u062a\u0627\u0646 \u063a\u0631\u0628\u06cc",
        "name:fi": "L\u00e4nsi",
        "name:fr": "Province de l'Ouest",
        "name:frr": "Waast",
        "name:id": "Provinsi Barat",
        "name:it": "Provincia Occidentale",
        "name:ja": "\u897f\u90e8\u5dde",
        "name:ka": "\u10d3\u10d0\u10e1\u10d0\u10d5\u10da\u10d4\u10d7\u10d8 \u10de\u10e0\u10dd\u10d5\u10d8\u10dc\u10ea\u10d8\u10d0",
        "name:ko": "\uc11c\ubd80\uc8fc",
        "name:lt": "Vakar\u0173 provincija",
        "name:mk": "\u0417\u0430\u043f\u0430\u0434\u043d\u0430 \u043f\u043e\u043a\u0440\u0430\u0438\u043d\u0430",
        "name:mrj": "\u0412\u0430\u0434\u044b\u0432\u0435\u043b \u043f\u0440\u043e\u0432\u0438\u043d\u0446\u0438",
        "name:nan": "Sai-p\u014d\u0358 S\u00e9ng",
        "name:nl": "West",
        "name:no": "Vestprovinsen",
        "name:pl": "Prowincja Zachodnia",
        "name:pt": "Oeste",
        "name:ro": "Provincia de Vest",
        "name:ru": "\u0417\u0430\u043f\u0430\u0434\u043d\u0430\u044f \u043f\u0440\u043e\u0432\u0438\u043d\u0446\u0438\u044f",
        "name:rw": "Intara y'Uburengerazuba",
        "name:sk": "Intara y\u2019Iburengerazuba",
        "name:sw": "Mkoa wa Magharibi",
        "name:tr": "Bat\u0131",
        "name:uk": "\u0417\u0430\u0445\u0456\u0434\u043d\u0430 \u043f\u0440\u043e\u0432\u0456\u043d\u0446\u0456\u044f",
        "name:ur": "\u0645\u063a\u0631\u0628\u06cc \u0635\u0648\u0628\u06c1\u060c \u0631\u0648\u0627\u0646\u0688\u0627",
        "name:wuu": "\u897f\u90e8\u7701",
        "name:zh": "\u897f\u90e8\u7701",
        "name:zu": "Western Province",
        "source": "see http://forum.openstreetmap.org/viewtopic.php?id=13106",
        "type": "boundary",
        "wikidata": "Q737354",
        "wikimedia_commons": "Category:West Province, Rwanda",
        "wikipedia": "en:Western Province, Rwanda"
      }
    },
    {
      "type": "relation",
      "id": 1708283,
      "tags": {
        "ISO3166-2": "RW-01",
        "admin_level": "4",
        "boundary": "administrative",
        "name": "Umujyi wa Kigali",
        "name:af": "Kigali",
        "name:am": "\u12aa\u130b\u120a",
        "name:an": "Kigali",
        "name:ar": "\u0643\u064a\u063a\u0627\u0644\u064a",
        "name:ast": "Kigali",
        "name:avk": "Kigali",
        "name:az": "Kiqali",
        "name:azb": "\u06a9\u06cc\u0642\u0627\u0644\u06cc",
        "name:be": "\u041a\u0456\u0433\u0430\u043b\u0456",
        "name:be-tarask": "\u041a\u0456\u0433\u0430\u043b\u0456",
        "name:bg": "\u041a\u0438\u0433\u0430\u043b\u0438",
        "name:bn": "\u0995\u09bf\u0997\u09be\u09b2\u09bf",
        "name:bo": "\u0f40\u0f72\u0f0b\u0f42\u0f0b\u0f63\u0f72\u0f0d",
        "name:br": "Kigali",
        "name:bs": "Kigali",
        "name:ca": "Kigali",
        "name:cdo": "Kigali",
        "name:ce": "\u041a\u0438\u0433\u0430\u043b\u0438",
        "name:ceb": "Kigali",
        "name:ckb": "\u06a9\u06cc\u06af\u0627\u0644\u06cc",
        "name:cs": "Kigali",
        "name:cv": "\u041a\u0438\u0433\u0430\u043b\u0438",
        "name:cy": "Kigali",
        "name:da": "Kigali",
        "name:de": "Kigali",
        "name:diq": "Kigali",
        "name:el": "\u039a\u03b9\u03b3\u03ba\u03ac\u03bb\u03b9",
        "name:en": "Kigali City",
        "name:es": "Kigali",
        "name:et": "Kigali",
        "name:eu": "Kigali",
        "name:fa": "\u06a9\u06cc\u06af\u0627\u0644\u06cc",
        "name:fi": "Kigali",
        "name:fo": "Kigali",
        "name:fr": "Kigali",
        "name:frr": "Kigali",
        "name:fy": "Kigali",
        "name:ga": "Kigali",
        "name:gd": "Kigali",
        "name:gl": "Kigali",
        "name:gn": "Kigali",
        "name:ha": "Kigali",
        "name:he": "\u05e7\u05d9\u05d2\u05d0\u05dc\u05d9",
        "name:hi": "\u0915\u093f\u0917\u093e\u0932\u0940",
        "name:hif": "Kigali",
        "name:hr": "Kigali",
        "name:hsb": "Kigali",
        "name:ht": "Kigali",
        "name:hu": "Kigali",
        "name:hy": "\u053f\u056b\u0563\u0561\u056c\u056b",
        "name:ia": "Kigali",
        "name:id": "Kigali",
        "name:ie": "Kigali",
        "name:ilo": "Kigali",
        "name:io": "Kigali",
        "name:is": "K\u00edgal\u00ed",
        "name:it": "Kigali",
        "name:ja": "\u30ad\u30ac\u30ea",
        "name:jv": "Kigali",
        "name:ka": "\u10d9\u10d8\u10d2\u10d0\u10da\u10d8",
        "name:kab": "Kigali",
        "name:kg": "Kigali",
        "name:ko": "\ud0a4\uac08\ub9ac",
        "name:ky": "\u041a\u0438\u0433\u0430\u043b\u0438",
        "name:la": "Kigali",
        "name:lb": "Kigali",
        "name:lg": "Kigali",
        "name:lt": "Kigalis",
        "name:lv": "Kigali",
        "name:mg": "Kigali",
        "name:mk": "\u041a\u0438\u0433\u0430\u043b\u0438",
        "name:ml": "\u0d15\u0d3f\u0d17\u0d3e\u0d32\u0d3f",
        "name:mr": "\u0915\u093f\u0917\u093e\u0932\u0940",
        "name:mrj": "\u041a\u0438\u0433\u0430\u043b\u0438",
        "name:ms": "Kigali",
        "name:nan": "Kigali",
        "name:nds": "Kigali",
        "name:nl": "Kigali (stad)",
        "name:nn": "Kigali",
        "name:no": "Kigali",
        "name:oc": "Kigali",
        "name:os": "\u041a\u0438\u0433\u0430\u043b\u0438",
        "name:pa": "\u0a15\u0a3f\u0a17\u0a3e\u0a32\u0a40",
        "name:pap": "Kigali",
        "name:pl": "Kigali",
        "name:pms": "Kigali",
        "name:pnb": "\u06a9\u06cc\u06af\u0627\u0644\u06cc",
        "name:ps": "\u06a9\u06cc\u06ab\u0627\u0644\u06cc",
        "name:pt": "Quigali",
        "name:qu": "Kigali",
        "name:ro": "Kigali",
        "name:ru": "\u041a\u0438\u0433\u0430\u043b\u0438",
        "name:rw": "Kigali",
        "name:sc": "Kigali",
        "name:sco": "Kigali",
        "name:sh": "Kigali",
        "name:si": "\u0d9a\u0dd2\u0d9c\u0dcf\u0dbd\u0dd2",
        "name:sk": "Kigali",
        "name:sl": "Kigali",
        "name:smn": "Kigali",
        "name:sn": "Kigali",
        "name:so": "Kigali",
        "name:sq": "Kigali",
        "name:sr": "\u041a\u0438\u0433\u0430\u043b\u0438",
        "name:sv": "Kigali",
        "name:sw": "Kigali",
        "name:szl": "Kigali",
        "name:ta": "\u0b95\u0bbf\u0b95\u0bbe\u0bb2\u0bbf",
        "name:tg": "\u041a\u0438\u0433\u0430\u043b\u04e3",
        "name:th": "\u0e04\u0e34\u0e01\u0e32\u0e25\u0e35",
        "name:tl": "Kigali",
        "name:tr": "Kigali",
        "name:udm": "\u041a\u0438\u0433\u0430\u043b\u0438",
        "name:uk": "\u041a\u0456\u0433\u0430\u043b\u0456",
        "name:ur": "\u06a9\u06cc\u06af\u0627\u0644\u06cc",
        "name:uz": "Kigali",
        "name:vec": "Kigali",
        "name:vi": "Kigali",
        "name:war": "Kigali",
        "name:wo": "Kigali",
        "name:wuu": "\u57fa\u52a0\u5229",
        "name:xmf": "\u10d9\u10d8\u10d2\u10d0\u10da\u10d8",
        "name:yi": "\u05e7\u05d9\u05d2\u05d0\u05dc\u05d9",
        "name:yo": "Kigali",
        "name:yue": "\u57fa\u52a0\u5229",
        "name:zh": "\u5409\u4f73\u5229",
        "name:zu": "Kigali",
        "type": "boundary",
        "wikidata": "Q3859",
        "wikimedia_commons": "Category:Kigali Province, Rwanda",
        "wikipedia": "en:Kigali"
      }
    },
    {
      "type": "relation",
      "id": 1708298,
      "tags": {
        "ISO3166-2": "RW-03",
        "admin_level": "4",
        "alt_name:de": "Nordprovinz",
        "boundary": "administrative",
        "name": "Majyaruguru",
        "name:bg": "\u0421\u0435\u0432\u0435\u0440\u043d\u0430 \u043f\u0440\u043e\u0432\u0438\u043d\u0446\u0438\u044f",
        "name:ca": "Prov\u00edncia del Nord",
        "name:ceb": "Northern Province",
        "name:cs": "Severn\u00ed provincie",
        "name:de": "Nordprovinz",
        "name:el": "\u0392\u03cc\u03c1\u03b5\u03b9\u03b1 \u03a1\u03bf\u03c5\u03ac\u03bd\u03c4\u03b1",
        "name:en": "Northern Province",
        "name:es": "Provincia Norte",
        "name:et": "P\u00f5hjaprovints",
        "name:eu": "Iparraldeko probintzia",
        "name:fa": "\u0627\u0633\u062a\u0627\u0646 \u0634\u0645\u0627\u0644\u06cc",
        "name:fi": "Pohjois",
        "name:fr": "Province du Nord",
        "name:frr": "Nuurd",
        "name:id": "Provinsi Utara",
        "name:it": "Provincia Settentrionale",
        "name:ja": "\u5317\u90e8\u5dde",
        "name:ka": "\u10e9\u10e0\u10d3\u10d8\u10da\u10dd\u10d4\u10d7\u10d8 \u10de\u10e0\u10dd\u10d5\u10d8\u10dc\u10ea\u10d8\u10d0",
        "name:ko": "\ubd81\ubd80\uc8fc",
        "name:lt": "\u0160iaur\u0117s provincija",
        "name:mk": "\u0421\u0435\u0432\u0435\u0440\u043d\u0430 \u043f\u043e\u043a\u0440\u0430\u0438\u043d\u0430",
        "name:mrj": "\u0419\u044b\u0434\u0432\u0435\u043b \u043f\u0440\u043e\u0432\u0438\u043d\u0446\u0438",
        "name:nan": "Pak-p\u014d\u0358 S\u00e9ng",
        "name:nl": "Noord",
        "name:no": "Nordprovinsen",
        "name:pl": "Prowincja P\u00f3\u0142nocna",
        "name:pt": "Prov\u00edncia do Norte",
        "name:ro": "Provincia de Nord",
        "name:ru": "\u0421\u0435\u0432\u0435\u0440\u043d\u0430\u044f \u043f\u0440\u043e\u0432\u0438\u043d\u0446\u0438\u044f",
        "name:rw": "Intara y\u2019Amajyaruguru",
        "name:sk": "Intara y\u2019Amajyaruguru",
        "name:sw": "Mkoa wa Kaskazini",
        "name:tr": "Kuzey",
        "name:uk": "\u041f\u0456\u0432\u043d\u0456\u0447\u043d\u0430 \u043f\u0440\u043e\u0432\u0456\u043d\u0446\u0456\u044f",
        "name:ur": "\u0634\u0645\u0627\u0644\u06cc \u0635\u0648\u0628\u06c1\u060c \u0631\u0648\u0627\u0646\u0688\u0627",
        "name:wuu": "\u5317\u90e8\u7701",
        "name:zh": "\u5317\u90e8\u7701",
        "name:zu": "Northern Province",
        "type": "boundary",
        "wikidata": "Q845807",
        "wikimedia_commons": "Category:North Province, Rwanda",
        "wikipedia": "en:Northern Province, Rwanda"
      }
    },
    {
      "type": "rel",
      "id": 171655,
      "tags": {
        "admin_level": "6",
        "boundary": "administrative",
        "name": "Kirehe District",
        "name:de": "Distrikt Kirehe",
        "name:fr": "District de Kirehe",
        "type": "boundary",
        "wikidata": "Q596210",
        "wikipedia": "fr:District de Kirehe",
        "wikipedia:en": "Kirehe District",
        "parent_id": "171591"
      }
    },
    {
      "type": "rel",
      "id": 171663,
      "tags": {
        "admin_level": "6",
        "boundary": "administrative",
        "name": "Bugesera District",
        "name:de": "Distrikt Bugesera",
        "name:fr": "District de Bugesera",
        "name:zh": "\u5e03\u683c\u585e\u62c9\u53bf",
        "type": "boundary",
        "wikidata": "Q2724056",
        "wikimedia_commons": "Category:Bugesera District",
        "wikipedia": "fr:District de Bugesera",
        "parent_id": "171591"
      }
    },
    {
      "type": "rel",
      "id": 1711124,
      "tags": {
        "admin_level": "6",
        "boundary": "administrative",
        "name": "Nyagatare District",
        "name:de": "Distrikt Nyagatare",
        "name:fr": "District de Nyagatare",
        "name:rw": "Akarere ka Nyagatare",
        "name:sw": "Wilaya ya Nyagatare",
        "type": "boundary",
        "wikidata": "Q2632814",
        "wikimedia_commons": "Category:Nyagatare District",
        "wikipedia": "en:Nyagatare District",
        "wikipedia:fr": "District de Nyagatare",
        "parent_id": "171591"
      }
    },
    {
      "type": "rel",
      "id": 1711131,
      "tags": {
        "admin_level": "6",
        "boundary": "administrative",
        "name": "Gatsibo District",
        "name:de": "Distrikt Gatsibo",
        "name:fa": "\u0634\u0647\u0631\u0633\u062a\u0627\u0646 \u06af\u062a\u0633\u06cc\u0628\u0648",
        "name:fr": "District de Gatsibo",
        "type": "boundary",
        "wikidata": "Q2724046",
        "wikimedia_commons": "Category:Gatsibo District",
        "wikipedia": "en:Gatsibo District",
        "wikipedia:fr": "District de Gatsibo",
        "parent_id": "171591"
      }
    },
    {
      "type": "rel",
      "id": 1711142,
      "tags": {
        "admin_level": "6",
        "boundary": "administrative",
        "name": "Rwamagana District",
        "type": "boundary",
        "wikidata": "Q921255",
        "wikipedia": "en:Rwamagana District",
        "parent_id": "171591"
      }
    },
    {
      "type": "rel",
      "id": 1711163,
      "tags": {
        "admin_level": "6",
        "boundary": "administrative",
        "name": "Kayonza District",
        "name:de": "Distrikt Kayonza",
        "name:fr": "District de Kayonza",
        "type": "boundary",
        "wikidata": "Q426211",
        "wikimedia_commons": "Category:Kayonza District",
        "wikipedia": "en:Kayonza District",
        "wikipedia:fr": "District de Kayonza",
        "parent_id": "171591"
      }
    },
    {
      "type": "rel",
      "id": 1711167,
      "tags": {
        "admin_level": "6",
        "boundary": "administrative",
        "name": "Ngoma District",
        "name:de": "Distrikt Ngoma",
        "name:fr": "District de Ngoma",
        "name:zh": "\u6069\u6208\u9a6c\u53bf",
        "type": "boundary",
        "wikidata": "Q2724035",
        "wikipedia": "fr:District de Ngoma",
        "wikipedia:en": "Ngoma District",
        "parent_id": "171591"
      }
    },
    {
      "type": "rel",
      "id": 1707123,
      "tags": {
        "admin_level": "6",
        "boundary": "administrative",
        "name": "Gisagara",
        "type": "boundary",
        "wikidata": "Q2424716",
        "wikipedia": "en:Gisagara District",
        "parent_id": "1707122"
      }
    },
    {
      "type": "rel",
      "id": 1707124,
      "tags": {
        "admin_level": "6",
        "boundary": "administrative",
        "name": "Huye",
        "type": "boundary",
        "wikidata": "Q2632827",
        "wikipedia": "en:Huye District",
        "parent_id": "1707122"
      }
    },
    {
      "type": "rel",
      "id": 1707125,
      "tags": {
        "admin_level": "6",
        "boundary": "administrative",
        "name": "Nyamagabe",
        "type": "boundary",
        "wikidata": "Q2632783",
        "wikimedia_commons": "Category:Nyamagabe District",
        "wikipedia": "en:Nyamagabe District",
        "parent_id": "1707122"
      }
    },
    {
      "type": "rel",
      "id": 1707126,
      "tags": {
        "admin_level": "6",
        "boundary": "administrative",
        "name": "Nyanza",
        "type": "boundary",
        "wikidata": "Q2632821",
        "wikipedia": "en:Nyanza District",
        "parent_id": "1707122"
      }
    },
    {
      "type": "rel",
      "id": 1707127,
      "tags": {
        "admin_level": "6",
        "boundary": "administrative",
        "name": "Akarere ka Nyaruguru",
        "name:de": "Distrikt Nyaruguru",
        "name:en": "Nyaruguru District",
        "name:fr": "District de Nyaruguru",
        "type": "boundary",
        "website": "https://www.nyaruguru.gov.rw/index.php?id=39",
        "wikidata": "Q2632798",
        "wikipedia": "fr:District de Nyaruguru",
        "parent_id": "1707122"
      }
    },
    {
      "type": "rel",
      "id": 1730903,
      "tags": {
        "admin_level": "6",
        "boundary": "administrative",
        "name": "Akarere ka Muhanga",
        "name:en": "Muhanga District",
        "type": "boundary",
        "website": "https://muhanga.gov.rw/index.php?id=147",
        "wikidata": "Q2632789",
        "wikimedia_commons": "Category:Muhanga District",
        "wikipedia": "en:Muhanga District",
        "parent_id": "1707122"
      }
    },
    {
      "type": "rel",
      "id": 1730905,
      "tags": {
        "admin_level": "6",
        "boundary": "administrative",
        "name": "Kamonyi",
        "type": "boundary",
        "wikidata": "Q2424592",
        "wikipedia": "en:Kamonyi District",
        "parent_id": "1707122"
      }
    },
    {
      "type": "rel",
      "id": 1730914,
      "tags": {
        "admin_level": "6",
        "boundary": "administrative",
        "name": "Ruhango",
        "type": "boundary",
        "wikidata": "Q2632806",
        "wikimedia_commons": "Category:Ruhango District",
        "wikipedia": "en:Ruhango District",
        "parent_id": "1707122"
      }
    },
    {
      "type": "rel",
      "id": 1708895,
      "tags": {
        "admin_level": "6",
        "border_type": "district",
        "boundary": "administrative",
        "name": "Rusizi",
        "source": "\u00dcbersichtskarte Ruanda 1:300000, Ministerium des Innern und f\u00fcr Sport Rheinland-Pfalz, Mainz 2009 (use allowed)",
        "type": "boundary",
        "wikidata": "Q781590",
        "wikipedia": "en:Rusizi District",
        "parent_id": "1708131"
      }
    },
    {
      "type": "rel",
      "id": 1709854,
      "tags": {
        "admin_level": "6",
        "boundary": "administrative",
        "name": "Nyamasheke",
        "type": "boundary",
        "wikidata": "Q2005905",
        "wikipedia": "en:Nyamasheke District",
        "parent_id": "1708131"
      }
    },
    {
      "type": "rel",
      "id": 1709867,
      "tags": {
        "admin_level": "6",
        "boundary": "administrative",
        "name": "Karongi",
        "type": "boundary",
        "wikidata": "Q429825",
        "wikipedia": "en:Karongi District",
        "parent_id": "1708131"
      }
    },
    {
      "type": "rel",
      "id": 1711322,
      "tags": {
        "admin_level": "6",
        "boundary": "administrative",
        "name": "Nyabihu",
        "type": "boundary",
        "wikidata": "Q2424699",
        "wikipedia": "en:Nyabihu District",
        "parent_id": "1708131"
      }
    },
    {
      "type": "rel",
      "id": 1711383,
      "tags": {
        "admin_level": "6",
        "boundary": "administrative",
        "name": "Rubavu",
        "type": "boundary",
        "wikidata": "Q2424738",
        "wikipedia": "en:Rubavu District",
        "parent_id": "1708131"
      }
    },
    {
      "type": "rel",
      "id": 1711391,
      "tags": {
        "admin_level": "6",
        "boundary": "administrative",
        "name": "Rutsiro",
        "type": "boundary",
        "wikidata": "Q2724023",
        "wikimedia_commons": "Category:Rutsiro District",
        "wikipedia": "en:Rutsiro District",
        "parent_id": "1708131"
      }
    },
    {
      "type": "rel",
      "id": 1711949,
      "tags": {
        "admin_level": "6",
        "boundary": "administrative",
        "name": "Ngororero",
        "type": "boundary",
        "wikidata": "Q2424675",
        "wikipedia": "en:Ngororero District",
        "parent_id": "1708131"
      }
    },
    {
      "type": "rel",
      "id": 3963721,
      "tags": {
        "admin_level": "6",
        "boundary": "administrative",
        "name": "Akarere ka Kicukiro",
        "name:en": "Kicukiro District",
        "name:fr": "District de Kicukiro",
        "type": "boundary",
        "website": "https://www.kicukiro.gov.rw/index.php?id=39",
        "wikidata": "Q2424726",
        "wikimedia_commons": "Category:Kicukiro District",
        "wikipedia": "en:Kicukiro District",
        "parent_id": "1708283"
      }
    },
    {
      "type": "rel",
      "id": 3963733,
      "tags": {
        "admin_level": "6",
        "boundary": "administrative",
        "name": "Akarere ka Gasabo",
        "name:en": "Gasabo District",
        "name:fr": "District de Gasabo",
        "type": "boundary",
        "website": "https://www.gasabo.gov.rw/index.php?id=140",
        "wikidata": "Q2424659",
        "wikipedia": "en:Gasabo District",
        "parent_id": "1708283"
      }
    },
    {
      "type": "rel",
      "id": 3963734,
      "tags": {
        "admin_level": "6",
        "boundary": "administrative",
        "name": "Akarere ka Nyarugenge",
        "name:en": "Nyarugenge District",
        "name:fr": "District de Nyarugenge",
        "type": "boundary",
        "website": "https://www.nyarugenge.gov.rw/index.php?id=39",
        "wikidata": "Q2424641",
        "wikipedia": "en:Nyarugenge District",
        "parent_id": "1708283"
      }
    },
    {
      "type": "rel",
      "id": 1711187,
      "tags": {
        "admin_level": "6",
        "boundary": "administrative",
        "name": "Musanze",
        "type": "boundary",
        "wikidata": "Q2360921",
        "wikipedia": "en:Musanze District",
        "parent_id": "1708298"
      }
    },
    {
      "type": "rel",
      "id": 1711192,
      "tags": {
        "admin_level": "6",
        "boundary": "administrative",
        "name": "Gakenke",
        "type": "boundary",
        "wikidata": "Q781985",
        "wikipedia": "en:Gakenke District",
        "parent_id": "1708298"
      }
    },
    {
      "type": "rel",
      "id": 1711194,
      "tags": {
        "admin_level": "6",
        "boundary": "administrative",
        "name": "Akarere ka Burera",
        "name:en": "Burera District",
        "type": "boundary",
        "website": "https://burera.gov.rw/index.php?id=177",
        "wikidata": "Q2724063",
        "wikipedia": "en:Burera District",
        "parent_id": "1708298"
      }
    },
    {
      "type": "rel",
      "id": 1711195,
      "tags": {
        "admin_level": "6",
        "boundary": "administrative",
        "name": "Rulindo",
        "type": "boundary",
        "wikidata": "Q2424625",
        "wikipedia": "en:Rulindo District",
        "parent_id": "1708298"
      }
    },
    {
      "type": "rel",
      "id": 1711209,
      "tags": {
        "admin_level": "6",
        "boundary": "administrative",
        "name": "Gicumbi",
        "type": "boundary",
        "wikidata": "Q2424750",
        "wikimedia_commons": "Category:Gicumbi District",
        "wikipedia": "en:Gicumbi District",
        "parent_id": "1708298"
      }
    },
    {
      "type": "rel",
      "id": 1718810,
      "tags": {
        "admin_level": "8",
        "boundary": "administrative",
        "name": "Gatunda",
        "type": "boundary",
        "wikidata": "Q389663",
        "wikimedia_commons": "Category:Gatunda Sector",
        "wikipedia:en": "Gatunda",
        "parent_id": "1711124"
      }
    },
    {
      "type": "rel",
      "id": 1718811,
      "tags": {
        "admin_level": "8",
        "boundary": "administrative",
        "name": "Karama",
        "type": "boundary",
        "wikidata": "Q21469135",
        "parent_id": "1711124"
      }
    },
    {
      "type": "rel",
      "id": 1718812,
      "tags": {
        "admin_level": "8",
        "boundary": "administrative",
        "name": "Karangazi",
        "type": "boundary",
        "wikidata": "Q21469192",
        "parent_id": "1711124"
      }
    },
    {
      "type": "rel",
      "id": 1718814,
      "tags": {
        "admin_level": "8",
        "boundary": "administrative",
        "name": "Katabagemu",
        "type": "boundary",
        "wikidata": "Q21469247",
        "parent_id": "1711124"
      }
    },
    {
      "type": "rel",
      "id": 1718817,
      "tags": {
        "admin_level": "8",
        "boundary": "administrative",
        "name": "Kiyombe",
        "type": "boundary",
        "wikidata": "Q21469253",
        "parent_id": "1711124"
      }
    },
    {
      "type": "rel",
      "id": 1718823,
      "tags": {
        "admin_level": "8",
        "boundary": "administrative",
        "name": "Matimba",
        "type": "boundary",
        "wikidata": "Q21473953",
        "wikimedia_commons": "Category:Matimba Sector",
        "parent_id": "1711124"
      }
    },
    {
      "type": "rel",
      "id": 1718826,
      "tags": {
        "admin_level": "8",
        "boundary": "administrative",
        "name": "Mimuli",
        "type": "boundary",
        "wikidata": "Q21473961",
        "parent_id": "1711124"
      }
    },
    {
      "type": "rel",
      "id": 1718829,
      "tags": {
        "admin_level": "8",
        "boundary": "administrative",
        "name": "Mukama",
        "type": "boundary",
        "wikidata": "Q21473962",
        "parent_id": "1711124"
      }
    },
    {
      "type": "rel",
      "id": 1718833,
      "tags": {
        "admin_level": "8",
        "boundary": "administrative",
        "name": "Musheli",
        "type": "boundary",
        "wikidata": "Q21473979",
        "parent_id": "1711124"
      }
    },
    {
      "type": "rel",
      "id": 1718836,
      "tags": {
        "admin_level": "8",
        "boundary": "administrative",
        "name": "Nyagatare",
        "type": "boundary",
        "wikidata": "Q91766607",
        "wikimedia_commons": "Category:Nyagatare Sector",
        "parent_id": "1711124"
      }
    },
    {
      "type": "rel",
      "id": 1718840,
      "tags": {
        "admin_level": "8",
        "boundary": "administrative",
        "name": "Rukomo",
        "type": "boundary",
        "wikidata": "Q21473995",
        "parent_id": "1711124"
      }
    },
    {
      "type": "rel",
      "id": 1718844,
      "tags": {
        "admin_level": "8",
        "boundary": "administrative",
        "name": "Rwempasha",
        "type": "boundary",
        "wikidata": "Q21474007",
        "parent_id": "1711124"
      }
    },
    {
      "type": "rel",
      "id": 1718847,
      "tags": {
        "admin_level": "8",
        "boundary": "administrative",
        "name": "Rwimiyaga",
        "type": "boundary",
        "wikidata": "Q91870855",
        "wikimedia_commons": "Category:Rwimiyaga Sector",
        "parent_id": "1711124"
      }
    },
    {
      "type": "rel",
      "id": 1718848,
      "tags": {
        "admin_level": "8",
        "boundary": "administrative",
        "name": "Tabagwe",
        "type": "boundary",
        "wikidata": "Q21474048",
        "wikimedia_commons": "Category:Tabagwe Sector",
        "parent_id": "1711124"
      }
    },
    {
      "type": "rel",
      "id": 1729832,
      "tags": {
        "admin_level": "8",
        "boundary": "administrative",
        "name": "Nyagihanga",
        "type": "boundary",
        "wikidata": "Q21406559",
        "wikipedia": "de:Nyagihanga",
        "parent_id": "1711131"
      }
    },
    {
      "type": "rel",
      "id": 1729834,
      "tags": {
        "admin_level": "8",
        "boundary": "administrative",
        "name": "Ngarama",
        "type": "boundary",
        "wikidata": "Q21406451",
        "parent_id": "1711131"
      }
    },
    {
      "type": "rel",
      "id": 1730280,
      "tags": {
        "admin_level": "8",
        "boundary": "administrative",
        "name": "Gasange",
        "type": "boundary",
        "wikidata": "Q21406304",
        "parent_id": "1711131"
      }
    },
    {
      "type": "rel",
      "id": 1730283,
      "tags": {
        "admin_level": "8",
        "boundary": "administrative",
        "name": "Murambi",
        "type": "boundary",
        "wikidata": "Q21406426",
        "parent_id": "1711131"
      }
    },
    {
      "type": "rel",
      "id": 1730284,
      "tags": {
        "admin_level": "8",
        "boundary": "administrative",
        "name": "Kiramuruzi",
        "type": "boundary",
        "wikidata": "Q21406374",
        "parent_id": "1711131"
      }
    },
    {
      "type": "rel",
      "id": 1730290,
      "tags": {
        "admin_level": "8",
        "boundary": "administrative",
        "name": "Kiziguro",
        "type": "boundary",
        "wikidata": "Q21406382",
        "wikimedia_commons": "Category:Kiziguro Sector",
        "parent_id": "1711131"
      }
    },
    {
      "type": "rel",
      "id": 1730291,
      "tags": {
        "admin_level": "8",
        "boundary": "administrative",
        "name": "Rugarama",
        "type": "boundary",
        "wikidata": "Q21406599",
        "wikipedia": "de:Rugarama (Gatsibo)",
        "parent_id": "1711131"
      }
    },
    {
      "type": "rel",
      "id": 1730295,
      "tags": {
        "admin_level": "8",
        "boundary": "administrative",
        "name": "Muhura",
        "type": "boundary",
        "wikidata": "Q21406409",
        "parent_id": "1711131"
      }
    },
    {
      "type": "rel",
      "id": 1730296,
      "tags": {
        "admin_level": "8",
        "boundary": "administrative",
        "name": "Remera",
        "type": "boundary",
        "wikidata": "Q21406586",
        "parent_id": "1711131"
      }
    },
    {
      "type": "rel",
      "id": 1730302,
      "tags": {
        "admin_level": "8",
        "boundary": "administrative",
        "name": "Gatsibo",
        "type": "boundary",
        "wikidata": "Q21406308",
        "parent_id": "1711131"
      }
    },
    {
      "type": "rel",
      "id": 1730303,
      "tags": {
        "admin_level": "8",
        "boundary": "administrative",
        "name": "Kageyo",
        "type": "boundary",
        "wikidata": "Q21406335",
        "parent_id": "1711131"
      }
    },
    {
      "type": "rel",
      "id": 1730309,
      "tags": {
        "admin_level": "8",
        "boundary": "administrative",
        "name": "Gitoki",
        "type": "boundary",
        "wikidata": "Q21406314",
        "parent_id": "1711131"
      }
    },
    {
      "type": "rel",
      "id": 1730310,
      "tags": {
        "admin_level": "8",
        "boundary": "administrative",
        "name": "Kabarore",
        "type": "boundary",
        "wikidata": "Q130298614",
        "wikipedia:en": "Kabarore",
        "parent_id": "1711131"
      }
    },
    {
      "type": "rel",
      "id": 10311009,
      "tags": {
        "admin_level": "8",
        "boundary": "administrative",
        "name": "Rwimbogo",
        "type": "boundary",
        "wikidata": "Q21406600",
        "wikimedia_commons": "Category:Rwimbogo Sector",
        "parent_id": "1711131"
      }
    },
    {
      "type": "rel",
      "id": 1727317,
      "tags": {
        "admin_level": "8",
        "boundary": "administrative",
        "name": "Kitabi",
        "type": "boundary",
        "wikidata": "Q21140560",
        "wikimedia_commons": "Category:Kitabi Sector",
        "parent_id": "1707125"
      }
    },
    {
      "type": "rel",
      "id": 3963894,
      "tags": {
        "admin_level": "8",
        "boundary": "administrative",
        "name": "Kameregi",
        "type": "boundary",
        "parent_id": "1707125"
      }
    },
    {
      "type": "rel",
      "id": 3963895,
      "tags": {
        "admin_level": "8",
        "boundary": "administrative",
        "name": "Tare",
        "type": "boundary",
        "wikidata": "Q21140762",
        "parent_id": "1707125"
      }
    },
    {
      "type": "rel",
      "id": 3963896,
      "tags": {
        "admin_level": "8",
        "boundary": "administrative",
        "name": "Uwinkingi",
        "type": "boundary",
        "wikidata": "Q21140831",
        "parent_id": "1707125"
      }
    },
    {
      "type": "rel",
      "id": 3966062,
      "tags": {
        "admin_level": "8",
        "boundary": "administrative",
        "name": "Cyanika",
        "type": "boundary",
        "wikipedia": "ceb:Cyanika",
        "parent_id": "1707125"
      }
    },
    {
      "type": "rel",
      "id": 3966063,
      "tags": {
        "admin_level": "8",
        "boundary": "administrative",
        "name": "Gasaka",
        "type": "boundary",
        "wikidata": "Q21140334",
        "wikimedia_commons": "Category:Gasaka Sector",
        "parent_id": "1707125"
      }
    },
    {
      "type": "rel",
      "id": 3966064,
      "tags": {
        "admin_level": "8",
        "boundary": "administrative",
        "name": "Musange",
        "type": "boundary",
        "wikidata": "Q21140668",
        "parent_id": "1707125"
      }
    },
    {
      "type": "rel",
      "id": 3966119,
      "tags": {
        "admin_level": "8",
        "boundary": "administrative",
        "name": "Mugano",
        "type": "boundary",
        "parent_id": "1707125"
      }
    },
    {
      "type": "rel",
      "id": 3966120,
      "tags": {
        "admin_level": "8",
        "boundary": "administrative",
        "name": "Mushubi",
        "type": "boundary",
        "wikidata": "Q21140708",
        "parent_id": "1707125"
      }
    },
    {
      "type": "rel",
      "id": 3966121,
      "tags": {
        "admin_level": "8",
        "boundary": "administrative",
        "name": "Nkomane",
        "type": "boundary",
        "wikidata": "Q21328825",
        "parent_id": "1707125"
      }
    },
    {
      "type": "rel",
      "id": 3966131,
      "tags": {
        "admin_level": "8",
        "boundary": "administrative",
        "name": "Buruhukiro",
        "type": "boundary",
        "wikidata": "Q21139527",
        "parent_id": "1707125"
      }
    },
    {
      "type": "rel",
      "id": 3966132,
      "tags": {
        "admin_level": "8",
        "boundary": "administrative",
        "name": "Gatare",
        "type": "boundary",
        "wikidata": "Q3758829",
        "parent_id": "1707125"
      }
    },
    {
      "type": "rel",
      "id": 3966133,
      "tags": {
        "admin_level": "8",
        "boundary": "administrative",
        "name": "Musebeya",
        "type": "boundary",
        "wikidata": "Q21140690",
        "parent_id": "1707125"
      }
    },
    {
      "type": "rel",
      "id": 3966161,
      "tags": {
        "admin_level": "8",
        "boundary": "administrative",
        "name": "Kaduha",
        "type": "boundary",
        "wikidata": "Q21140412",
        "parent_id": "1707125"
      }
    },
    {
      "type": "rel",
      "id": 3966162,
      "tags": {
        "admin_level": "8",
        "boundary": "administrative",
        "name": "Kibirizi",
        "type": "boundary",
        "parent_id": "1707125"
      }
    },
    {
      "type": "rel",
      "id": 3966163,
      "tags": {
        "admin_level": "8",
        "boundary": "administrative",
        "name": "Kibumbwe",
        "type": "boundary",
        "wikidata": "Q21140519",
        "parent_id": "1707125"
      }
    },
    {
      "type": "rel",
      "id": 3966164,
      "tags": {
        "admin_level": "8",
        "boundary": "administrative",
        "name": "Mbazi",
        "type": "boundary",
        "wikidata": "Q21124900",
        "parent_id": "1707125"
      }
    },
    {
      "type": "rel",
      "id": 3963650,
      "tags": {
        "admin_level": "8",
        "boundary": "administrative",
        "name": "Busanze",
        "type": "boundary",
        "wikidata": "Q21152192",
        "parent_id": "1707127"
      }
    },
    {
      "type": "rel",
      "id": 3963651,
      "tags": {
        "admin_level": "8",
        "boundary": "administrative",
        "name": "Cyahinda",
        "name:fr": "Cyahinda",
        "type": "boundary",
        "wikidata": "Q21169962",
        "parent_id": "1707127"
      }
    },
    {
      "type": "rel",
      "id": 3963652,
      "tags": {
        "admin_level": "8",
        "boundary": "administrative",
        "name": "Ruheru",
        "type": "boundary",
        "wikidata": "Q21171457",
        "parent_id": "1707127"
      }
    },
    {
      "type": "rel",
      "id": 3963659,
      "tags": {
        "admin_level": "8",
        "boundary": "administrative",
        "name": "Kibeho",
        "type": "boundary",
        "wikidata": "Q92206118",
        "parent_id": "1707127"
      }
    },
    {
      "type": "rel",
      "id": 3963660,
      "tags": {
        "admin_level": "8",
        "boundary": "administrative",
        "name": "Ngoma",
        "type": "boundary",
        "wikidata": "Q21171146",
        "parent_id": "1707127"
      }
    },
    {
      "type": "rel",
      "id": 3963661,
      "tags": {
        "admin_level": "8",
        "boundary": "administrative",
        "name": "Nyagisozi",
        "type": "boundary",
        "wikidata": "Q21171399",
        "parent_id": "1707127"
      }
    },
    {
      "type": "rel",
      "id": 3963675,
      "tags": {
        "admin_level": "8",
        "boundary": "administrative",
        "name": "Mata",
        "type": "boundary",
        "wikidata": "Q21170096",
        "parent_id": "1707127"
      }
    },
    {
      "type": "rel",
      "id": 3963676,
      "tags": {
        "admin_level": "8",
        "boundary": "administrative",
        "name": "Ngera",
        "type": "boundary",
        "wikidata": "Q21170169",
        "parent_id": "1707127"
      }
    },
    {
      "type": "rel",
      "id": 3963677,
      "tags": {
        "admin_level": "8",
        "boundary": "administrative",
        "name": "Ruramba",
        "type": "boundary",
        "wikidata": "Q21171509",
        "parent_id": "1707127"
      }
    },
    {
      "type": "rel",
      "id": 3963678,
      "tags": {
        "admin_level": "8",
        "boundary": "administrative",
        "name": "Rusenge",
        "type": "boundary",
        "wikidata": "Q21171558",
        "parent_id": "1707127"
      }
    },
    {
      "type": "rel",
      "id": 3963699,
      "tags": {
        "admin_level": "8",
        "boundary": "administrative",
        "name": "Kivu",
        "type": "boundary",
        "parent_id": "1707127"
      }
    },
    {
      "type": "rel",
      "id": 3963700,
      "tags": {
        "admin_level": "8",
        "boundary": "administrative",
        "name": "Muganza",
        "type": "boundary",
        "parent_id": "1707127"
      }
    },
    {
      "type": "rel",
      "id": 3963701,
      "tags": {
        "admin_level": "8",
        "boundary": "administrative",
        "name": "Nyabimata",
        "type": "boundary",
        "wikidata": "Q21171335",
        "parent_id": "1707127"
      }
    },
    {
      "type": "rel",
      "id": 3963705,
      "tags": {
        "admin_level": "8",
        "boundary": "administrative",
        "name": "Munini",
        "type": "boundary",
        "wikidata": "Q21170135",
        "parent_id": "1707127"
      }
    },
    {
      "type": "rel",
      "id": 1708673,
      "tags": {
        "admin_level": "8",
        "border_type": "sector",
        "boundary": "administrative",
        "name": "Nzahaha",
        "source": "\u00dcbersichtskarte Ruanda 1:300000, Ministerium des Innern und f\u00fcr Sport Rheinland-Pfalz, Mainz 2009 (use allowed)",
        "type": "boundary",
        "wikidata": "Q21369347",
        "parent_id": "1708895"
      }
    },
    {
      "type": "rel",
      "id": 1708679,
      "tags": {
        "admin_level": "8",
        "border_type": "sector",
        "boundary": "administrative",
        "name": "Bugarama",
        "source": "\u00dcbersichtskarte Ruanda 1:300000, Ministerium des Innern und f\u00fcr Sport Rheinland-Pfalz, Mainz 2009 (use allowed)",
        "type": "boundary",
        "wikidata": "Q4986134",
        "wikipedia": "en:Bugarama",
        "parent_id": "1708895"
      }
    },
    {
      "type": "rel",
      "id": 1708680,
      "tags": {
        "admin_level": "8",
        "border_type": "sector",
        "boundary": "administrative",
        "name": "Rwimbogo",
        "source": "\u00dcbersichtskarte Ruanda 1:300000, Ministerium des Innern und f\u00fcr Sport Rheinland-Pfalz, Mainz 2009 (use allowed)",
        "type": "boundary",
        "parent_id": "1708895"
      }
    },
    {
      "type": "rel",
      "id": 1708775,
      "tags": {
        "admin_level": "8",
        "border_type": "sector",
        "boundary": "administrative",
        "name": "Muganza",
        "source": "\u00dcbersichtskarte Ruanda 1:300000, Ministerium des Innern und f\u00fcr Sport Rheinland-Pfalz, Mainz 2009 (use allowed)",
        "type": "boundary",
        "wikidata": "Q21369254",
        "parent_id": "1708895"
      }
    },
    {
      "type": "rel",
      "id": 1708813,
      "tags": {
        "admin_level": "8",
        "border_type": "sector",
        "boundary": "administrative",
        "name": "Gikundamvura",
        "source": "\u00dcbersichtskarte Ruanda 1:300000, Ministerium des Innern und f\u00fcr Sport Rheinland-Pfalz, Mainz 2009 (use allowed)",
        "type": "boundary",
        "wikidata": "Q21369233",
        "parent_id": "1708895"
      }
    },
    {
      "type": "rel",
      "id": 1708814,
      "tags": {
        "admin_level": "8",
        "border_type": "sector",
        "boundary": "administrative",
        "name": "Gitambi",
        "source": "\u00dcbersichtskarte Ruanda 1:300000, Ministerium des Innern und f\u00fcr Sport Rheinland-Pfalz, Mainz 2009 (use allowed)",
        "type": "boundary",
        "wikidata": "Q21369242",
        "parent_id": "1708895"
      }
    },
    {
      "type": "rel",
      "id": 1708827,
      "tags": {
        "admin_level": "8",
        "border_type": "sector",
        "boundary": "administrative",
        "name": "Gashonga",
        "source": "\u00dcbersichtskarte Ruanda 1:300000, Ministerium des Innern und f\u00fcr Sport Rheinland-Pfalz, Mainz 2009 (use allowed)",
        "type": "boundary",
        "wikidata": "Q21369174",
        "parent_id": "1708895"
      }
    },
    {
      "type": "rel",
      "id": 1744248,
      "tags": {
        "admin_level": "8",
        "border_type": "sector",
        "boundary": "administrative",
        "name": "Giheke",
        "source": "\u00dcbersichtskarte Ruanda 1:300000, Ministerium des Innern und f\u00fcr Sport Rheinland-Pfalz, Mainz 2009 (use allowed)",
        "type": "boundary",
        "wikidata": "Q21369212",
        "parent_id": "1708895"
      }
    },
    {
      "type": "rel",
      "id": 1744249,
      "tags": {
        "admin_level": "8",
        "border_type": "sector",
        "boundary": "administrative",
        "name": "Gihundwe",
        "source": "\u00dcbersichtskarte Ruanda 1:300000, Ministerium des Innern und f\u00fcr Sport Rheinland-Pfalz, Mainz 2009 (use allowed)",
        "type": "boundary",
        "wikidata": "Q21369217",
        "wikimedia_commons": "Category:Gihundwe Sector",
        "parent_id": "1708895"
      }
    },
    {
      "type": "rel",
      "id": 1744250,
      "tags": {
        "admin_level": "8",
        "border_type": "sector",
        "boundary": "administrative",
        "name": "Nkanka",
        "source": "\u00dcbersichtskarte Ruanda 1:300000, Ministerium des Innern und f\u00fcr Sport Rheinland-Pfalz, Mainz 2009 (use allowed)",
        "type": "boundary",
        "wikidata": "Q21369262",
        "parent_id": "1708895"
      }
    },
    {
      "type": "rel",
      "id": 1744251,
      "tags": {
        "admin_level": "8",
        "border_type": "sector",
        "boundary": "administrative",
        "name": "Nkombo",
        "source": "\u00dcbersichtskarte Ruanda 1:300000, Ministerium des Innern und f\u00fcr Sport Rheinland-Pfalz, Mainz 2009 (use allowed)",
        "type": "boundary",
        "wikidata": "Q21369264",
        "parent_id": "1708895"
      }
    },
    {
      "type": "rel",
      "id": 1744268,
      "tags": {
        "admin_level": "8",
        "border_type": "sector",
        "boundary": "administrative",
        "name": "Kamembe",
        "source": "\u00dcbersichtskarte Ruanda 1:300000, Ministerium des Innern und f\u00fcr Sport Rheinland-Pfalz, Mainz 2009 (use allowed)",
        "type": "boundary",
        "wikidata": "Q21369248",
        "wikimedia_commons": "Category:Kamembe Sector",
        "parent_id": "1708895"
      }
    },
    {
      "type": "rel",
      "id": 1744269,
      "tags": {
        "admin_level": "8",
        "border_type": "sector",
        "boundary": "administrative",
        "name": "Mururu",
        "source": "\u00dcbersichtskarte Ruanda 1:300000, Ministerium des Innern und f\u00fcr Sport Rheinland-Pfalz, Mainz 2009 (use allowed)",
        "type": "boundary",
        "wikidata": "Q21369258",
        "parent_id": "1708895"
      }
    },
    {
      "type": "rel",
      "id": 1746349,
      "tags": {
        "admin_level": "8",
        "border_type": "sector",
        "boundary": "administrative",
        "name": "Butare",
        "source": "\u00dcbersichtskarte Ruanda 1:300000, Ministerium des Innern und f\u00fcr Sport Rheinland-Pfalz, Mainz 2009 (use allowed)",
        "type": "boundary",
        "wikidata": "Q21369155",
        "wikimedia_commons": "Category:Butare Sector",
        "parent_id": "1708895"
      }
    },
    {
      "type": "rel",
      "id": 1746350,
      "tags": {
        "admin_level": "8",
        "border_type": "sector",
        "boundary": "administrative",
        "name": "Bweyeye",
        "source": "\u00dcbersichtskarte Ruanda 1:300000, Ministerium des Innern und f\u00fcr Sport Rheinland-Pfalz, Mainz 2009 (use allowed)",
        "type": "boundary",
        "wikidata": "Q21369162",
        "wikipedia": "it:Bweyeye",
        "parent_id": "1708895"
      }
    },
    {
      "type": "rel",
      "id": 1746351,
      "tags": {
        "admin_level": "8",
        "border_type": "sector",
        "boundary": "administrative",
        "name": "Nkungu",
        "source": "\u00dcbersichtskarte Ruanda 1:300000, Ministerium des Innern und f\u00fcr Sport Rheinland-Pfalz, Mainz 2009 (use allowed)",
        "type": "boundary",
        "wikidata": "Q21369274",
        "parent_id": "1708895"
      }
    },
    {
      "type": "rel",
      "id": 1746352,
      "tags": {
        "admin_level": "8",
        "border_type": "sector",
        "boundary": "administrative",
        "name": "Nyakabuye",
        "source": "\u00dcbersichtskarte Ruanda 1:300000, Ministerium des Innern und f\u00fcr Sport Rheinland-Pfalz, Mainz 2009 (use allowed)",
        "type": "boundary",
        "wikidata": "Q21369277",
        "parent_id": "1708895"
      }
    },
    {
      "type": "rel",
      "id": 1746353,
      "tags": {
        "admin_level": "8",
        "border_type": "sector",
        "boundary": "administrative",
        "name": "Nyakarenzo",
        "source": "\u00dcbersichtskarte Ruanda 1:300000, Ministerium des Innern und f\u00fcr Sport Rheinland-Pfalz, Mainz 2009 (use allowed)",
        "type": "boundary",
        "wikidata": "Q21369288",
        "parent_id": "1708895"
      }
    },
    {
      "type": "rel",
      "id": 3972680,
      "tags": {
        "admin_level": "8",
        "boundary": "administrative",
        "name": "Bushekeri",
        "source": "\u00dcbersichtskarte Ruanda 1:300000, Ministerium des Innern und f\u00fcr Sport Rheinland-Pfalz, Mainz 2009 (use allowed)",
        "type": "boundary",
        "wikidata": "Q21286466",
        "parent_id": "1709854"
      }
    },
    {
      "type": "rel",
      "id": 3972681,
      "tags": {
        "admin_level": "8",
        "boundary": "administrative",
        "name": "Bushenge",
        "source": "\u00dcbersichtskarte Ruanda 1:300000, Ministerium des Innern und f\u00fcr Sport Rheinland-Pfalz, Mainz 2009 (use allowed)",
        "type": "boundary",
        "wikidata": "Q21286469",
        "parent_id": "1709854"
      }
    },
    {
      "type": "rel",
      "id": 3972682,
      "tags": {
        "admin_level": "8",
        "boundary": "administrative",
        "name": "Cyato",
        "source": "\u00dcbersichtskarte Ruanda 1:300000, Ministerium des Innern und f\u00fcr Sport Rheinland-Pfalz, Mainz 2009 (use allowed)",
        "type": "boundary",
        "wikidata": "Q21286473",
        "wikipedia": "it:Cyato",
        "parent_id": "1709854"
      }
    },
    {
      "type": "rel",
      "id": 3973069,
      "tags": {
        "admin_level": "8",
        "boundary": "administrative",
        "name": "Gihombo",
        "source": "\u00dcbersichtskarte Ruanda 1:300000, Ministerium des Innern und f\u00fcr Sport Rheinland-Pfalz, Mainz 2009 (use allowed)",
        "type": "boundary",
        "wikidata": "Q21286475",
        "parent_id": "1709854"
      }
    },
    {
      "type": "rel",
      "id": 3973070,
      "tags": {
        "admin_level": "8",
        "boundary": "administrative",
        "name": "Kagano",
        "source": "\u00dcbersichtskarte Ruanda 1:300000, Ministerium des Innern und f\u00fcr Sport Rheinland-Pfalz, Mainz 2009 (use allowed)",
        "type": "boundary",
        "wikidata": "Q21286477",
        "parent_id": "1709854"
      }
    },
    {
      "type": "rel",
      "id": 3973071,
      "tags": {
        "admin_level": "8",
        "boundary": "administrative",
        "name": "Kanjongo",
        "source": "\u00dcbersichtskarte Ruanda 1:300000, Ministerium des Innern und f\u00fcr Sport Rheinland-Pfalz, Mainz 2009 (use allowed)",
        "type": "boundary",
        "wikidata": "Q21286478",
        "parent_id": "1709854"
      }
    },
    {
      "type": "rel",
      "id": 3973094,
      "tags": {
        "admin_level": "8",
        "boundary": "administrative",
        "name": "Karambi",
        "source": "\u00dcbersichtskarte Ruanda 1:300000, Ministerium des Innern und f\u00fcr Sport Rheinland-Pfalz, Mainz 2009 (use allowed)",
        "type": "boundary",
        "wikidata": "Q21314313",
        "parent_id": "1709854"
      }
    },
    {
      "type": "rel",
      "id": 3973095,
      "tags": {
        "admin_level": "8",
        "boundary": "administrative",
        "name": "Karengera",
        "source": "\u00dcbersichtskarte Ruanda 1:300000, Ministerium des Innern und f\u00fcr Sport Rheinland-Pfalz, Mainz 2009 (use allowed)",
        "type": "boundary",
        "wikidata": "Q21314412",
        "parent_id": "1709854"
      }
    },
    {
      "type": "rel",
      "id": 3973096,
      "tags": {
        "admin_level": "8",
        "boundary": "administrative",
        "name": "Kirimbi",
        "source": "\u00dcbersichtskarte Ruanda 1:300000, Ministerium des Innern und f\u00fcr Sport Rheinland-Pfalz, Mainz 2009 (use allowed)",
        "type": "boundary",
        "wikidata": "Q21314664",
        "parent_id": "1709854"
      }
    },
    {
      "type": "rel",
      "id": 3973100,
      "tags": {
        "admin_level": "8",
        "boundary": "administrative",
        "name": "Macuba",
        "source": "\u00dcbersichtskarte Ruanda 1:300000, Ministerium des Innern und f\u00fcr Sport Rheinland-Pfalz, Mainz 2009 (use allowed)",
        "type": "boundary",
        "wikidata": "Q21314903",
        "parent_id": "1709854"
      }
    },
    {
      "type": "rel",
      "id": 3973101,
      "tags": {
        "admin_level": "8",
        "boundary": "administrative",
        "name": "Mahembe",
        "source": "\u00dcbersichtskarte Ruanda 1:300000, Ministerium des Innern und f\u00fcr Sport Rheinland-Pfalz, Mainz 2009 (use allowed)",
        "type": "boundary",
        "wikidata": "Q21315208",
        "parent_id": "1709854"
      }
    },
    {
      "type": "rel",
      "id": 3973102,
      "tags": {
        "admin_level": "8",
        "boundary": "administrative",
        "name": "Nyabitekeri",
        "source": "\u00dcbersichtskarte Ruanda 1:300000, Ministerium des Innern und f\u00fcr Sport Rheinland-Pfalz, Mainz 2009 (use allowed)",
        "type": "boundary",
        "wikidata": "Q1795369",
        "parent_id": "1709854"
      }
    },
    {
      "type": "rel",
      "id": 3973124,
      "tags": {
        "admin_level": "8",
        "boundary": "administrative",
        "name": "Rangiro",
        "source": "\u00dcbersichtskarte Ruanda 1:300000, Ministerium des Innern und f\u00fcr Sport Rheinland-Pfalz, Mainz 2009 (use allowed)",
        "type": "boundary",
        "wikidata": "Q21315737",
        "parent_id": "1709854"
      }
    },
    {
      "type": "rel",
      "id": 3973125,
      "tags": {
        "admin_level": "8",
        "boundary": "administrative",
        "name": "Ruharambuga",
        "source": "\u00dcbersichtskarte Ruanda 1:300000, Ministerium des Innern und f\u00fcr Sport Rheinland-Pfalz, Mainz 2009 (use allowed)",
        "type": "boundary",
        "wikidata": "Q21316248",
        "parent_id": "1709854"
      }
    },
    {
      "type": "rel",
      "id": 3973126,
      "tags": {
        "admin_level": "8",
        "boundary": "administrative",
        "name": "Shangi",
        "source": "\u00dcbersichtskarte Ruanda 1:300000, Ministerium des Innern und f\u00fcr Sport Rheinland-Pfalz, Mainz 2009 (use allowed)",
        "type": "boundary",
        "wikidata": "Q21324589",
        "parent_id": "1709854"
      }
    },
    {
      "type": "rel",
      "id": 1820419,
      "tags": {
        "admin_level": "8",
        "border_type": "sector",
        "boundary": "administrative",
        "name": "Rubengera",
        "source": "\u00dcbersichtskarte Ruanda 1:300000, Ministerium des Innern und f\u00fcr Sport Rheinland-Pfalz, Mainz 2009 (use allowed)",
        "type": "boundary",
        "wikidata": "Q91898548",
        "wikimedia_commons": "Category:Rubengera Sector",
        "parent_id": "1709867"
      }
    },
    {
      "type": "rel",
      "id": 1820429,
      "tags": {
        "admin_level": "8",
        "border_type": "sector",
        "boundary": "administrative",
        "name": "Bwishyura",
        "source": "\u00dcbersichtskarte Ruanda 1:300000, Ministerium des Innern und f\u00fcr Sport Rheinland-Pfalz, Mainz 2009 (use allowed)",
        "type": "boundary",
        "wikidata": "Q21177215",
        "wikimedia_commons": "Category:Bwishyura Sector",
        "parent_id": "1709867"
      }
    },
    {
      "type": "rel",
      "id": 1820430,
      "tags": {
        "admin_level": "8",
        "border_type": "sector",
        "boundary": "administrative",
        "name": "Gishyiata",
        "source": "\u00dcbersichtskarte Ruanda 1:300000, Ministerium des Innern und f\u00fcr Sport Rheinland-Pfalz, Mainz 2009 (use allowed)",
        "type": "boundary",
        "wikidata": "Q21213308",
        "wikimedia_commons": "Category:Gishyita Sector",
        "parent_id": "1709867"
      }
    },
    {
      "type": "rel",
      "id": 1820431,
      "tags": {
        "admin_level": "8",
        "border_type": "sector",
        "boundary": "administrative",
        "name": "Mubuga",
        "source": "\u00dcbersichtskarte Ruanda 1:300000, Ministerium des Innern und f\u00fcr Sport Rheinland-Pfalz, Mainz 2009 (use allowed)",
        "type": "boundary",
        "parent_id": "1709867"
      }
    },
    {
      "type": "rel",
      "id": 1820432,
      "tags": {
        "admin_level": "8",
        "border_type": "sector",
        "boundary": "administrative",
        "name": "Twumba",
        "source": "\u00dcbersichtskarte Ruanda 1:300000, Ministerium des Innern und f\u00fcr Sport Rheinland-Pfalz, Mainz 2009 (use allowed)",
        "type": "boundary",
        "wikidata": "Q21279305",
        "wikimedia_commons": "Category:Twumba Sector",
        "parent_id": "1709867"
      }
    },
    {
      "type": "rel",
      "id": 1820433,
      "tags": {
        "admin_level": "8",
        "border_type": "sector",
        "boundary": "administrative",
        "name": "Mutuntu",
        "source": "\u00dcbersichtskarte Ruanda 1:300000, Ministerium des Innern und f\u00fcr Sport Rheinland-Pfalz, Mainz 2009 (use allowed)",
        "type": "boundary",
        "wikidata": "Q21279277",
        "parent_id": "1709867"
      }
    },
    {
      "type": "rel",
      "id": 1820461,
      "tags": {
        "admin_level": "8",
        "border_type": "sector",
        "boundary": "administrative",
        "name": "Gitesi",
        "source": "\u00dcbersichtskarte Ruanda 1:300000, Ministerium des Innern und f\u00fcr Sport Rheinland-Pfalz, Mainz 2009 (use allowed)",
        "type": "boundary",
        "wikidata": "Q21213501",
        "wikimedia_commons": "Category:Gitesi Sector",
        "wikipedia": "en:Gitesi",
        "parent_id": "1709867"
      }
    },
    {
      "type": "rel",
      "id": 1820462,
      "tags": {
        "admin_level": "8",
        "border_type": "sector",
        "boundary": "administrative",
        "name": "Rwankuba",
        "source": "\u00dcbersichtskarte Ruanda 1:300000, Ministerium des Innern und f\u00fcr Sport Rheinland-Pfalz, Mainz 2009 (use allowed)",
        "type": "boundary",
        "wikidata": "Q21279299",
        "parent_id": "1709867"
      }
    },
    {
      "type": "rel",
      "id": 1820465,
      "tags": {
        "admin_level": "8",
        "border_type": "sector",
        "boundary": "administrative",
        "name": "Gashari",
        "source": "\u00dcbersichtskarte Ruanda 1:300000, Ministerium des Innern und f\u00fcr Sport Rheinland-Pfalz, Mainz 2009 (use allowed)",
        "type": "boundary",
        "parent_id": "1709867"
      }
    },
    {
      "type": "rel",
      "id": 1820466,
      "tags": {
        "admin_level": "8",
        "border_type": "sector",
        "boundary": "administrative",
        "name": "Murambi",
        "source": "\u00dcbersichtskarte Ruanda 1:300000, Ministerium des Innern und f\u00fcr Sport Rheinland-Pfalz, Mainz 2009 (use allowed)",
        "type": "boundary",
        "parent_id": "1709867"
      }
    },
    {
      "type": "rel",
      "id": 1820467,
      "tags": {
        "admin_level": "8",
        "border_type": "sector",
        "boundary": "administrative",
        "name": "Ruganda",
        "source": "\u00dcbersichtskarte Ruanda 1:300000, Ministerium des Innern und f\u00fcr Sport Rheinland-Pfalz, Mainz 2009 (use allowed)",
        "type": "boundary",
        "wikidata": "Q21279290",
        "parent_id": "1709867"
      }
    },
    {
      "type": "rel",
      "id": 1820471,
      "tags": {
        "admin_level": "8",
        "border_type": "sector",
        "boundary": "administrative",
        "name": "Murundi",
        "source": "\u00dcbersichtskarte Ruanda 1:300000, Ministerium des Innern und f\u00fcr Sport Rheinland-Pfalz, Mainz 2009 (use allowed)",
        "type": "boundary",
        "wikidata": "Q21279268",
        "parent_id": "1709867"
      }
    },
    {
      "type": "rel",
      "id": 1820472,
      "tags": {
        "admin_level": "8",
        "border_type": "sector",
        "boundary": "administrative",
        "name": "Rugabano",
        "source": "\u00dcbersichtskarte Ruanda 1:300000, Ministerium des Innern und f\u00fcr Sport Rheinland-Pfalz, Mainz 2009 (use allowed)",
        "type": "boundary",
        "wikidata": "Q18391409",
        "wikipedia:en": "Rugabano",
        "parent_id": "1709867"
      }
    },
    {
      "type": "rel",
      "id": 1727596,
      "tags": {
        "admin_level": "8",
        "boundary": "administrative",
        "name": "Rweru",
        "source": "map_ru3",
        "type": "boundary",
        "wikidata": "Q21406295",
        "parent_id": "171663"
      }
    },
    {
      "type": "rel",
      "id": 1727703,
      "tags": {
        "admin_level": "8",
        "boundary": "administrative",
        "name": "Rilima",
        "source": "map_ru3",
        "type": "boundary",
        "wikidata": "Q21405823",
        "wikimedia_commons": "Category:Rilima Sector",
        "wikipedia": "de:Rilima",
        "wikipedia:en": "Rilima",
        "parent_id": "171663"
      }
    },
    {
      "type": "rel",
      "id": 1727716,
      "tags": {
        "admin_level": "8",
        "boundary": "administrative",
        "name": "Juru",
        "source": "map_ru3",
        "type": "boundary",
        "wikidata": "Q21405762",
        "wikimedia_commons": "Category:Juru Sector",
        "parent_id": "171663"
      }
    },
    {
      "type": "rel",
      "id": 1727935,
      "tags": {
        "admin_level": "8",
        "boundary": "administrative",
        "name": "Ntarama",
        "type": "boundary",
        "wikidata": "Q123165719",
        "wikimedia_commons": "Category:Ntarama Sector",
        "parent_id": "171663"
      }
    },
    {
      "type": "rel",
      "id": 1727938,
      "tags": {
        "admin_level": "8",
        "boundary": "administrative",
        "name": "Mwogo",
        "type": "boundary",
        "wikidata": "Q21405777",
        "parent_id": "171663"
      }
    },
    {
      "type": "rel",
      "id": 1727940,
      "tags": {
        "admin_level": "8",
        "boundary": "administrative",
        "name": "Gashora",
        "source": "map_ru3",
        "type": "boundary",
        "wikidata": "Q21405756",
        "wikimedia_commons": "Category:Gashora Sector",
        "parent_id": "171663"
      }
    },
    {
      "type": "rel",
      "id": 1727980,
      "tags": {
        "admin_level": "8",
        "boundary": "administrative",
        "name": "Nyarungenge",
        "type": "boundary",
        "wikidata": "Q92070338",
        "parent_id": "171663"
      }
    },
    {
      "type": "rel",
      "id": 1728583,
      "tags": {
        "admin_level": "8",
        "boundary": "administrative",
        "name": "Shyara",
        "type": "boundary",
        "wikidata": "Q21406300",
        "parent_id": "171663"
      }
    },
    {
      "type": "rel",
      "id": 1728610,
      "tags": {
        "admin_level": "8",
        "boundary": "administrative",
        "name": "Mareba",
        "type": "boundary",
        "wikidata": "Q21405772",
        "parent_id": "171663"
      }
    },
    {
      "type": "rel",
      "id": 1728614,
      "tags": {
        "admin_level": "8",
        "boundary": "administrative",
        "name": "Ruhuha",
        "type": "boundary",
        "wikidata": "Q21405828",
        "parent_id": "171663"
      }
    },
    {
      "type": "rel",
      "id": 1728616,
      "tags": {
        "admin_level": "8",
        "boundary": "administrative",
        "name": "Kamabuye",
        "type": "boundary",
        "wikidata": "Q21405769",
        "wikipedia": "de:Kamabuye",
        "parent_id": "171663"
      }
    },
    {
      "type": "rel",
      "id": 1728617,
      "tags": {
        "admin_level": "8",
        "boundary": "administrative",
        "name": "Ngeruka",
        "type": "boundary",
        "wikidata": "Q21405780",
        "parent_id": "171663"
      }
    },
    {
      "type": "rel",
      "id": 1728624,
      "tags": {
        "admin_level": "8",
        "boundary": "administrative",
        "name": "Mayange",
        "type": "boundary",
        "wikidata": "Q21405774",
        "parent_id": "171663"
      }
    },
    {
      "type": "rel",
      "id": 1728625,
      "tags": {
        "admin_level": "8",
        "boundary": "administrative",
        "name": "Musenyi",
        "type": "boundary",
        "wikidata": "Q21405775",
        "parent_id": "171663"
      }
    },
    {
      "type": "rel",
      "id": 3952506,
      "tags": {
        "admin_level": "8",
        "boundary": "administrative",
        "name": "Nyamata",
        "type": "boundary",
        "wikidata": "Q91799497",
        "wikimedia_commons": "Category:Nyamata Sector",
        "parent_id": "171663"
      }
    },
    {
      "type": "rel",
      "id": 1729864,
      "tags": {
        "admin_level": "8",
        "boundary": "administrative",
        "name": "Kigembe",
        "source": "map_RU3",
        "type": "boundary",
        "wikipedia": "ceb:Kigembe",
        "parent_id": "1707123"
      }
    },
    {
      "type": "rel",
      "id": 1729865,
      "tags": {
        "admin_level": "8",
        "boundary": "administrative",
        "name": "Nyanza",
        "source": "map_RU3",
        "type": "boundary",
        "wikidata": "Q18822119",
        "parent_id": "1707123"
      }
    },
    {
      "type": "rel",
      "id": 1729923,
      "tags": {
        "admin_level": "8",
        "boundary": "administrative",
        "name": "Kansi",
        "source": "map_RU3",
        "type": "boundary",
        "wikidata": "Q18819068",
        "parent_id": "1707123"
      }
    },
    {
      "type": "rel",
      "id": 1729924,
      "tags": {
        "admin_level": "8",
        "boundary": "administrative",
        "name": "Mugombwa",
        "source": "map_RU3",
        "type": "boundary",
        "wikidata": "Q18819134",
        "parent_id": "1707123"
      }
    },
    {
      "type": "rel",
      "id": 1729927,
      "tags": {
        "admin_level": "8",
        "boundary": "administrative",
        "name": "Muganza",
        "source": "map_RU3",
        "type": "boundary",
        "parent_id": "1707123"
      }
    },
    {
      "type": "rel",
      "id": 1729928,
      "tags": {
        "admin_level": "8",
        "boundary": "administrative",
        "name": "Mukindo",
        "source": "map_RU3",
        "type": "boundary",
        "wikipedia": "ceb:Mukindo",
        "parent_id": "1707123"
      }
    },
    {
      "type": "rel",
      "id": 1729958,
      "tags": {
        "admin_level": "8",
        "boundary": "administrative",
        "name": "Gishubi",
        "source": "map_RU3",
        "type": "boundary",
        "parent_id": "1707123"
      }
    },
    {
      "type": "rel",
      "id": 1729959,
      "tags": {
        "admin_level": "8",
        "boundary": "administrative",
        "name": "Kibilizi",
        "source": "map_RU3",
        "type": "boundary",
        "wikipedia": "ceb:Kibilizi",
        "parent_id": "1707123"
      }
    },
    {
      "type": "rel",
      "id": 1729974,
      "tags": {
        "admin_level": "8",
        "boundary": "administrative",
        "name": "Ndora",
        "source": "map_RU3",
        "type": "boundary",
        "wikidata": "Q6983800",
        "wikipedia:en": "Ndora",
        "parent_id": "1707123"
      }
    },
    {
      "type": "rel",
      "id": 1729985,
      "tags": {
        "admin_level": "8",
        "boundary": "administrative",
        "name": "Save",
        "name:fr": "Save",
        "name:ru": "\u0421\u0430\u0432\u0435",
        "source": "map_RU3",
        "type": "boundary",
        "wikidata": "Q21123062",
        "wikimedia_commons": "Category:Save Sector",
        "parent_id": "1707123"
      }
    },
    {
      "type": "rel",
      "id": 1729993,
      "tags": {
        "admin_level": "8",
        "boundary": "administrative",
        "name": "Musha",
        "source": "map_RU3",
        "type": "boundary",
        "wikidata": "Q18822095",
        "parent_id": "1707123"
      }
    },
    {
      "type": "rel",
      "id": 1729997,
      "tags": {
        "admin_level": "8",
        "boundary": "administrative",
        "name": "Gikonko",
        "source": "map_RU3",
        "type": "boundary",
        "wikidata": "Q18815125",
        "wikipedia": "de:Gikonko",
        "parent_id": "1707123"
      }
    },
    {
      "type": "rel",
      "id": 1729998,
      "tags": {
        "admin_level": "8",
        "boundary": "administrative",
        "name": "Mamba",
        "source": "map_RU3",
        "type": "boundary",
        "wikidata": "Q18819106",
        "parent_id": "1707123"
      }
    },
    {
      "type": "rel",
      "id": 1730872,
      "tags": {
        "admin_level": "8",
        "boundary": "administrative",
        "name": "Busasamana",
        "source": "map_RU3",
        "type": "boundary",
        "wikidata": "Q21140867",
        "parent_id": "1707126"
      }
    },
    {
      "type": "rel",
      "id": 1730873,
      "tags": {
        "admin_level": "8",
        "boundary": "administrative",
        "name": "Cyabakamyi",
        "source": "map_RU3",
        "type": "boundary",
        "wikidata": "Q21150512",
        "parent_id": "1707126"
      }
    },
    {
      "type": "rel",
      "id": 1730874,
      "tags": {
        "admin_level": "8",
        "boundary": "administrative",
        "name": "Mekingo",
        "type": "boundary",
        "wikidata": "Q21151957",
        "parent_id": "1707126"
      }
    },
    {
      "type": "rel",
      "id": 1730875,
      "tags": {
        "admin_level": "8",
        "boundary": "administrative",
        "name": "Rwabicuma",
        "source": "map_RU3",
        "type": "boundary",
        "wikidata": "Q21152134",
        "parent_id": "1707126"
      }
    },
    {
      "type": "rel",
      "id": 1730891,
      "tags": {
        "admin_level": "8",
        "boundary": "administrative",
        "name": "Busoro",
        "source": "map_RU3",
        "type": "boundary",
        "wikidata": "Q21140883",
        "wikimedia_commons": "Category:Busoro Sector",
        "parent_id": "1707126"
      }
    },
    {
      "type": "rel",
      "id": 1730892,
      "tags": {
        "admin_level": "8",
        "boundary": "administrative",
        "name": "Kibirizi",
        "source": "map_RU3",
        "type": "boundary",
        "parent_id": "1707126"
      }
    },
    {
      "type": "rel",
      "id": 1730893,
      "tags": {
        "admin_level": "8",
        "boundary": "administrative",
        "name": "Kigoma",
        "source": "map_RU3",
        "type": "boundary",
        "wikidata": "Q21151928",
        "parent_id": "1707126"
      }
    },
    {
      "type": "rel",
      "id": 1730894,
      "tags": {
        "admin_level": "8",
        "boundary": "administrative",
        "name": "Muyira",
        "source": "map_RU3",
        "type": "boundary",
        "wikidata": "Q21151972",
        "parent_id": "1707126"
      }
    },
    {
      "type": "rel",
      "id": 1730895,
      "tags": {
        "admin_level": "8",
        "boundary": "administrative",
        "name": "Ntyazo",
        "source": "map_RU3",
        "type": "boundary",
        "wikidata": "Q21151995",
        "parent_id": "1707126"
      }
    },
    {
      "type": "rel",
      "id": 1741178,
      "tags": {
        "admin_level": "8",
        "boundary": "administrative",
        "name": "Nyagisozi",
        "source": "map_RU3",
        "type": "boundary",
        "wikidata": "Q21152126",
        "parent_id": "1707126"
      }
    },
    {
      "type": "rel",
      "id": 2852670,
      "tags": {
        "admin_level": "8",
        "border_type": "sector",
        "boundary": "administrative",
        "name": "Gatumba",
        "source": "\u00dcbersichtskarte Ruanda 1:300000, Ministerium des Innern und f\u00fcr Sport Rheinland-Pfalz, Mainz 2009 (use allowed)",
        "type": "boundary",
        "wikidata": "Q21279315",
        "wikimedia_commons": "Category:Gatumba Sector",
        "parent_id": "1711949"
      }
    },
    {
      "type": "rel",
      "id": 2852671,
      "tags": {
        "admin_level": "8",
        "border_type": "sector",
        "boundary": "administrative",
        "name": "Nyange",
        "source": "\u00dcbersichtskarte Ruanda 1:300000, Ministerium des Innern und f\u00fcr Sport Rheinland-Pfalz, Mainz 2009 (use allowed)",
        "type": "boundary",
        "wikidata": "Q21282785",
        "wikimedia_commons": "Category:Nyange Sector",
        "parent_id": "1711949"
      }
    },
    {
      "type": "rel",
      "id": 2852702,
      "tags": {
        "admin_level": "8",
        "border_type": "sector",
        "boundary": "administrative",
        "name": "Bwira",
        "source": "\u00dcbersichtskarte Ruanda 1:300000, Ministerium des Innern und f\u00fcr Sport Rheinland-Pfalz, Mainz 2009 (use allowed)",
        "type": "boundary",
        "wikidata": "Q21279311",
        "parent_id": "1711949"
      }
    },
    {
      "type": "rel",
      "id": 2852703,
      "tags": {
        "admin_level": "8",
        "border_type": "sector",
        "boundary": "administrative",
        "name": "Ndaro",
        "source": "\u00dcbersichtskarte Ruanda 1:300000, Ministerium des Innern und f\u00fcr Sport Rheinland-Pfalz, Mainz 2009 (use allowed)",
        "type": "boundary",
        "wikidata": "Q21282764",
        "parent_id": "1711949"
      }
    },
    {
      "type": "rel",
      "id": 2852704,
      "tags": {
        "admin_level": "8",
        "border_type": "sector",
        "boundary": "administrative",
        "name": "Suvo",
        "source": "\u00dcbersichtskarte Ruanda 1:300000, Ministerium des Innern und f\u00fcr Sport Rheinland-Pfalz, Mainz 2009 (use allowed)",
        "type": "boundary",
        "parent_id": "1711949"
      }
    },
    {
      "type": "rel",
      "id": 2852712,
      "tags": {
        "admin_level": "8",
        "border_type": "sector",
        "boundary": "administrative",
        "name": "Muhororo",
        "source": "\u00dcbersichtskarte Ruanda 1:300000, Ministerium des Innern und f\u00fcr Sport Rheinland-Pfalz, Mainz 2009 (use allowed)",
        "type": "boundary",
        "wikidata": "Q21282674",
        "parent_id": "1711949"
      }
    },
    {
      "type": "rel",
      "id": 2853860,
      "tags": {
        "admin_level": "8",
        "border_type": "sector",
        "boundary": "administrative",
        "name": "Hindiro",
        "source": "\u00dcbersichtskarte Ruanda 1:300000, Ministerium des Innern und f\u00fcr Sport Rheinland-Pfalz, Mainz 2009 (use allowed)",
        "type": "boundary",
        "wikidata": "Q21281584",
        "parent_id": "1711949"
      }
    },
    {
      "type": "rel",
      "id": 2853861,
      "tags": {
        "admin_level": "8",
        "border_type": "sector",
        "boundary": "administrative",
        "name": "Kabaya",
        "source": "\u00dcbersichtskarte Ruanda 1:300000, Ministerium des Innern und f\u00fcr Sport Rheinland-Pfalz, Mainz 2009 (use allowed)",
        "type": "boundary",
        "wikidata": "Q21281592",
        "parent_id": "1711949"
      }
    },
    {
      "type": "rel",
      "id": 2853862,
      "tags": {
        "admin_level": "8",
        "border_type": "sector",
        "boundary": "administrative",
        "name": "Kageyo",
        "source": "\u00dcbersichtskarte Ruanda 1:300000, Ministerium des Innern und f\u00fcr Sport Rheinland-Pfalz, Mainz 2009 (use allowed)",
        "type": "boundary",
        "parent_id": "1711949"
      }
    },
    {
      "type": "rel",
      "id": 2853863,
      "tags": {
        "admin_level": "8",
        "border_type": "sector",
        "boundary": "administrative",
        "name": "Kavumu",
        "source": "\u00dcbersichtskarte Ruanda 1:300000, Ministerium des Innern und f\u00fcr Sport Rheinland-Pfalz, Mainz 2009 (use allowed)",
        "type": "boundary",
        "wikidata": "Q21281693",
        "parent_id": "1711949"
      }
    },
    {
      "type": "rel",
      "id": 2853864,
      "tags": {
        "admin_level": "8",
        "border_type": "sector",
        "boundary": "administrative",
        "name": "Matyazo",
        "source": "\u00dcbersichtskarte Ruanda 1:300000, Ministerium des Innern und f\u00fcr Sport Rheinland-Pfalz, Mainz 2009 (use allowed)",
        "type": "boundary",
        "wikidata": "Q21281702",
        "parent_id": "1711949"
      }
    },
    {
      "type": "rel",
      "id": 2853865,
      "tags": {
        "admin_level": "8",
        "border_type": "sector",
        "boundary": "administrative",
        "name": "Muhanda",
        "source": "\u00dcbersichtskarte Ruanda 1:300000, Ministerium des Innern und f\u00fcr Sport Rheinland-Pfalz, Mainz 2009 (use allowed)",
        "type": "boundary",
        "wikidata": "Q21281710",
        "parent_id": "1711949"
      }
    },
    {
      "type": "rel",
      "id": 2853866,
      "tags": {
        "admin_level": "8",
        "border_type": "sector",
        "boundary": "administrative",
        "name": "Ngororero",
        "source": "\u00dcbersichtskarte Ruanda 1:300000, Ministerium des Innern und f\u00fcr Sport Rheinland-Pfalz, Mainz 2009 (use allowed)",
        "type": "boundary",
        "parent_id": "1711949"
      }
    },
    {
      "type": "rel",
      "id": 1714304,
      "tags": {
        "admin_level": "8",
        "boundary": "administrative",
        "name": "Kibangu",
        "type": "boundary",
        "parent_id": "1730903"
      }
    },
    {
      "type": "rel",
      "id": 3952170,
      "tags": {
        "admin_level": "8",
        "boundary": "administrative",
        "name": "Rugendabari",
        "type": "boundary",
        "wikidata": "Q21139430",
        "parent_id": "1730903"
      }
    },
    {
      "type": "rel",
      "id": 3952178,
      "tags": {
        "admin_level": "8",
        "boundary": "administrative",
        "name": "Nyabinoni",
        "type": "boundary",
        "parent_id": "1730903"
      }
    },
    {
      "type": "rel",
      "id": 3952179,
      "tags": {
        "admin_level": "8",
        "boundary": "administrative",
        "name": "Rongi",
        "type": "boundary",
        "wikidata": "Q21137954",
        "parent_id": "1730903"
      }
    },
    {
      "type": "rel",
      "id": 3952342,
      "tags": {
        "admin_level": "8",
        "boundary": "administrative",
        "name": "Kiyumba",
        "type": "boundary",
        "wikidata": "Q21132075",
        "parent_id": "1730903"
      }
    },
    {
      "type": "rel",
      "id": 3952364,
      "tags": {
        "admin_level": "8",
        "boundary": "administrative",
        "name": "Cyeza",
        "type": "boundary",
        "wikidata": "Q21129712",
        "parent_id": "1730903"
      }
    },
    {
      "type": "rel",
      "id": 3952365,
      "tags": {
        "admin_level": "8",
        "boundary": "administrative",
        "name": "Kabacuzi",
        "type": "boundary",
        "wikidata": "Q21131850",
        "parent_id": "1730903"
      }
    },
    {
      "type": "rel",
      "id": 3952366,
      "tags": {
        "admin_level": "8",
        "boundary": "administrative",
        "name": "Muhanga",
        "type": "boundary",
        "wikidata": "Q668180",
        "wikipedia": "en:Muhanga",
        "parent_id": "1730903"
      }
    },
    {
      "type": "rel",
      "id": 3952367,
      "tags": {
        "admin_level": "8",
        "boundary": "administrative",
        "name": "Mushishiro",
        "type": "boundary",
        "wikidata": "Q21137436",
        "parent_id": "1730903"
      }
    },
    {
      "type": "rel",
      "id": 3952383,
      "tags": {
        "admin_level": "8",
        "boundary": "administrative",
        "name": "Shyogwe",
        "type": "boundary",
        "wikidata": "Q21139448",
        "parent_id": "1730903"
      }
    },
    {
      "type": "rel",
      "id": 3952384,
      "tags": {
        "admin_level": "8",
        "boundary": "administrative",
        "name": "Nyarusange",
        "type": "boundary",
        "wikidata": "Q21137848",
        "parent_id": "1730903"
      }
    },
    {
      "type": "rel",
      "id": 3975165,
      "tags": {
        "admin_level": "8",
        "boundary": "administrative",
        "name": "Nyamabuye",
        "type": "boundary",
        "wikidata": "Q21137521",
        "parent_id": "1730903"
      }
    },
    {
      "type": "rel",
      "id": 3952434,
      "tags": {
        "admin_level": "8",
        "boundary": "administrative",
        "name": "Mugina",
        "type": "boundary",
        "parent_id": "1730905"
      }
    },
    {
      "type": "rel",
      "id": 3953742,
      "tags": {
        "admin_level": "8",
        "boundary": "administrative",
        "name": "Musambira",
        "type": "boundary",
        "wikidata": "Q21127647",
        "parent_id": "1730905"
      }
    },
    {
      "type": "rel",
      "id": 3953743,
      "tags": {
        "admin_level": "8",
        "boundary": "administrative",
        "name": "Nyamiyaga",
        "type": "boundary",
        "wikidata": "Q21127700",
        "parent_id": "1730905"
      }
    },
    {
      "type": "rel",
      "id": 3953744,
      "tags": {
        "admin_level": "8",
        "boundary": "administrative",
        "name": "Nyarubaka",
        "type": "boundary",
        "wikidata": "Q21129696",
        "parent_id": "1730905"
      }
    },
    {
      "type": "rel",
      "id": 3954861,
      "tags": {
        "admin_level": "8",
        "boundary": "administrative",
        "name": "Karama",
        "type": "boundary",
        "parent_id": "1730905"
      }
    },
    {
      "type": "rel",
      "id": 3954862,
      "tags": {
        "admin_level": "8",
        "boundary": "administrative",
        "name": "Kayemzi",
        "type": "boundary",
        "parent_id": "1730905"
      }
    },
    {
      "type": "rel",
      "id": 3954863,
      "tags": {
        "admin_level": "8",
        "boundary": "administrative",
        "name": "Kayumbu",
        "type": "boundary",
        "parent_id": "1730905"
      }
    },
    {
      "type": "rel",
      "id": 3954921,
      "tags": {
        "admin_level": "8",
        "boundary": "administrative",
        "name": "Ngamba",
        "type": "boundary",
        "wikidata": "Q21127653",
        "parent_id": "1730905"
      }
    },
    {
      "type": "rel",
      "id": 3954975,
      "tags": {
        "admin_level": "8",
        "boundary": "administrative",
        "name": "Rukoma",
        "type": "boundary",
        "parent_id": "1730905"
      }
    },
    {
      "type": "rel",
      "id": 3954976,
      "tags": {
        "admin_level": "8",
        "boundary": "administrative",
        "name": "Runda",
        "type": "boundary",
        "wikidata": "Q91807082",
        "wikimedia_commons": "Category:Runda Sector",
        "parent_id": "1730905"
      }
    },
    {
      "type": "rel",
      "id": 3954985,
      "tags": {
        "admin_level": "8",
        "boundary": "administrative",
        "name": "Gacurabwenge",
        "type": "boundary",
        "wikidata": "Q21127602",
        "wikimedia_commons": "Category:Gacurabwenge Sector",
        "parent_id": "1730905"
      }
    },
    {
      "type": "rel",
      "id": 3954986,
      "tags": {
        "admin_level": "8",
        "boundary": "administrative",
        "name": "Rugalika",
        "type": "boundary",
        "wikidata": "Q21129698",
        "parent_id": "1730905"
      }
    },
    {
      "type": "rel",
      "id": 1741189,
      "tags": {
        "admin_level": "8",
        "boundary": "administrative",
        "name": "Kabagali",
        "source": "map_RU3",
        "type": "boundary",
        "parent_id": "1730914"
      }
    },
    {
      "type": "rel",
      "id": 1741190,
      "tags": {
        "admin_level": "8",
        "boundary": "administrative",
        "name": "Kinihira",
        "source": "map_RU3",
        "type": "boundary",
        "parent_id": "1730914"
      }
    },
    {
      "type": "rel",
      "id": 3952399,
      "tags": {
        "admin_level": "8",
        "boundary": "administrative",
        "name": "Mwendo",
        "source": "map_RU3",
        "type": "boundary",
        "parent_id": "1730914"
      }
    },
    {
      "type": "rel",
      "id": 3952400,
      "tags": {
        "admin_level": "8",
        "boundary": "administrative",
        "name": "Ruhango",
        "source": "map_RU3",
        "type": "boundary",
        "wikidata": "Q12884189",
        "wikipedia": "en:Ruhango",
        "parent_id": "1730914"
      }
    },
    {
      "type": "rel",
      "id": 3952403,
      "tags": {
        "admin_level": "8",
        "boundary": "administrative",
        "name": "Kinazi",
        "source": "map_RU3",
        "type": "boundary",
        "parent_id": "1730914"
      }
    },
    {
      "type": "rel",
      "id": 3952404,
      "tags": {
        "admin_level": "8",
        "boundary": "administrative",
        "name": "Ntongwe",
        "source": "map_RU3",
        "type": "boundary",
        "wikidata": "Q21177123",
        "parent_id": "1730914"
      }
    },
    {
      "type": "rel",
      "id": 3952422,
      "tags": {
        "admin_level": "8",
        "boundary": "administrative",
        "name": "Byimana",
        "source": "map_RU3",
        "type": "boundary",
        "wikidata": "Q21171688",
        "parent_id": "1730914"
      }
    },
    {
      "type": "rel",
      "id": 3952423,
      "tags": {
        "admin_level": "8",
        "boundary": "administrative",
        "name": "Mbuye",
        "source": "map_RU3",
        "type": "boundary",
        "wikidata": "Q21171804",
        "parent_id": "1730914"
      }
    },
    {
      "type": "rel",
      "id": 3952424,
      "tags": {
        "admin_level": "8",
        "boundary": "administrative",
        "name": "Bwerama",
        "source": "map_RU3",
        "type": "boundary",
        "wikidata": "Q21171681",
        "parent_id": "1730914"
      }
    },
    {
      "type": "rel",
      "id": 3952118,
      "tags": {
        "admin_level": "8",
        "boundary": "administrative",
        "name": "Gishamvu",
        "source": "\u00dcbersichtskarte Ruanda 1:300000, Ministerium des Innern und f\u00fcr Sport Rheinland-Pfalz, Mainz 2009 (use allowed)",
        "type": "boundary",
        "wikidata": "Q21123207",
        "parent_id": "1707124"
      }
    },
    {
      "type": "rel",
      "id": 3952119,
      "tags": {
        "admin_level": "8",
        "boundary": "administrative",
        "name": "Mukura",
        "source": "\u00dcbersichtskarte Ruanda 1:300000, Ministerium des Innern und f\u00fcr Sport Rheinland-Pfalz, Mainz 2009 (use allowed)",
        "type": "boundary",
        "wikipedia": "ceb:Mukura (suba sa Rwanda, Southern Province, lat -2,66, long 29,75)",
        "parent_id": "1707124"
      }
    },
    {
      "type": "rel",
      "id": 3952120,
      "tags": {
        "admin_level": "8",
        "boundary": "administrative",
        "name": "Tumba",
        "source": "\u00dcbersichtskarte Ruanda 1:300000, Ministerium des Innern und f\u00fcr Sport Rheinland-Pfalz, Mainz 2009 (use allowed)",
        "type": "boundary",
        "wikidata": "Q21127596",
        "parent_id": "1707124"
      }
    },
    {
      "type": "rel",
      "id": 3952122,
      "tags": {
        "admin_level": "8",
        "boundary": "administrative",
        "name": "Karama",
        "source": "\u00dcbersichtskarte Ruanda 1:300000, Ministerium des Innern und f\u00fcr Sport Rheinland-Pfalz, Mainz 2009 (use allowed)",
        "type": "boundary",
        "wikidata": "Q21124334",
        "parent_id": "1707124"
      }
    },
    {
      "type": "rel",
      "id": 3952123,
      "tags": {
        "admin_level": "8",
        "boundary": "administrative",
        "name": "Ngoma",
        "source": "\u00dcbersichtskarte Ruanda 1:300000, Ministerium des Innern und f\u00fcr Sport Rheinland-Pfalz, Mainz 2009 (use allowed)",
        "type": "boundary",
        "wikidata": "Q21127064",
        "wikimedia_commons": "Category:Ngoma Sector",
        "parent_id": "1707124"
      }
    },
    {
      "type": "rel",
      "id": 3952124,
      "tags": {
        "admin_level": "8",
        "boundary": "administrative",
        "name": "Huye",
        "source": "\u00dcbersichtskarte Ruanda 1:300000, Ministerium des Innern und f\u00fcr Sport Rheinland-Pfalz, Mainz 2009 (use allowed)",
        "type": "boundary",
        "wikidata": "Q21123275",
        "parent_id": "1707124"
      }
    },
    {
      "type": "rel",
      "id": 3952126,
      "tags": {
        "admin_level": "8",
        "boundary": "administrative",
        "name": "Maraba",
        "source": "\u00dcbersichtskarte Ruanda 1:300000, Ministerium des Innern und f\u00fcr Sport Rheinland-Pfalz, Mainz 2009 (use allowed)",
        "type": "boundary",
        "wikidata": "Q925801",
        "parent_id": "1707124"
      }
    },
    {
      "type": "rel",
      "id": 3952147,
      "tags": {
        "admin_level": "8",
        "boundary": "administrative",
        "name": "Kigoma",
        "source": "\u00dcbersichtskarte Ruanda 1:300000, Ministerium des Innern und f\u00fcr Sport Rheinland-Pfalz, Mainz 2009 (use allowed)",
        "type": "boundary",
        "wikipedia": "ceb:Kigoma (suba nga anhianhi)",
        "parent_id": "1707124"
      }
    },
    {
      "type": "rel",
      "id": 3952148,
      "tags": {
        "admin_level": "8",
        "boundary": "administrative",
        "name": "Mbazi",
        "source": "\u00dcbersichtskarte Ruanda 1:300000, Ministerium des Innern und f\u00fcr Sport Rheinland-Pfalz, Mainz 2009 (use allowed)",
        "type": "boundary",
        "wikidata": "Q21124900",
        "parent_id": "1707124"
      }
    },
    {
      "type": "rel",
      "id": 3952156,
      "tags": {
        "admin_level": "8",
        "boundary": "administrative",
        "name": "Ruhashya",
        "source": "\u00dcbersichtskarte Ruanda 1:300000, Ministerium des Innern und f\u00fcr Sport Rheinland-Pfalz, Mainz 2009 (use allowed)",
        "type": "boundary",
        "parent_id": "1707124"
      }
    },
    {
      "type": "rel",
      "id": 3952157,
      "tags": {
        "admin_level": "8",
        "boundary": "administrative",
        "name": "Rwaniro",
        "source": "\u00dcbersichtskarte Ruanda 1:300000, Ministerium des Innern und f\u00fcr Sport Rheinland-Pfalz, Mainz 2009 (use allowed)",
        "type": "boundary",
        "wikidata": "Q21127204",
        "parent_id": "1707124"
      }
    },
    {
      "type": "rel",
      "id": 3952158,
      "tags": {
        "admin_level": "8",
        "boundary": "administrative",
        "name": "Simbi",
        "source": "\u00dcbersichtskarte Ruanda 1:300000, Ministerium des Innern und f\u00fcr Sport Rheinland-Pfalz, Mainz 2009 (use allowed)",
        "type": "boundary",
        "wikidata": "Q21127209",
        "parent_id": "1707124"
      }
    },
    {
      "type": "rel",
      "id": 3952162,
      "tags": {
        "admin_level": "8",
        "boundary": "administrative",
        "name": "Kinazi",
        "source": "\u00dcbersichtskarte Ruanda 1:300000, Ministerium des Innern und f\u00fcr Sport Rheinland-Pfalz, Mainz 2009 (use allowed)",
        "type": "boundary",
        "wikidata": "Q21124777",
        "wikimedia_commons": "Category:Kinazi Sector",
        "parent_id": "1707124"
      }
    },
    {
      "type": "rel",
      "id": 3952163,
      "tags": {
        "admin_level": "8",
        "boundary": "administrative",
        "name": "Rusatira",
        "source": "\u00dcbersichtskarte Ruanda 1:300000, Ministerium des Innern und f\u00fcr Sport Rheinland-Pfalz, Mainz 2009 (use allowed)",
        "type": "boundary",
        "wikidata": "Q21127146",
        "parent_id": "1707124"
      }
    },
    {
      "type": "rel",
      "id": 3966208,
      "tags": {
        "admin_level": "8",
        "boundary": "administrative",
        "name": "Kigeyo",
        "type": "boundary",
        "wikidata": "Q21386770",
        "parent_id": "1711391"
      }
    },
    {
      "type": "rel",
      "id": 3966209,
      "tags": {
        "admin_level": "8",
        "boundary": "administrative",
        "name": "Kivumu",
        "type": "boundary",
        "parent_id": "1711391"
      }
    },
    {
      "type": "rel",
      "id": 3966210,
      "tags": {
        "admin_level": "8",
        "boundary": "administrative",
        "name": "Mushonyi",
        "type": "boundary",
        "wikidata": "Q21405696",
        "parent_id": "1711391"
      }
    },
    {
      "type": "rel",
      "id": 3969631,
      "tags": {
        "admin_level": "8",
        "boundary": "administrative",
        "name": "Boneza",
        "type": "boundary",
        "wikidata": "Q21369690",
        "parent_id": "1711391"
      }
    },
    {
      "type": "rel",
      "id": 3969632,
      "tags": {
        "admin_level": "8",
        "boundary": "administrative",
        "name": "Musasa",
        "type": "boundary",
        "wikidata": "Q21387386",
        "parent_id": "1711391"
      }
    },
    {
      "type": "rel",
      "id": 3969633,
      "tags": {
        "admin_level": "8",
        "boundary": "administrative",
        "name": "Nyabirasi",
        "type": "boundary",
        "wikidata": "Q21405704",
        "parent_id": "1711391"
      }
    },
    {
      "type": "rel",
      "id": 3969634,
      "tags": {
        "admin_level": "8",
        "boundary": "administrative",
        "name": "Ruhango",
        "type": "boundary",
        "parent_id": "1711391"
      }
    },
    {
      "type": "rel",
      "id": 3969655,
      "tags": {
        "admin_level": "8",
        "boundary": "administrative",
        "name": "Gihango",
        "type": "boundary",
        "wikidata": "Q21386415",
        "parent_id": "1711391"
      }
    },
    {
      "type": "rel",
      "id": 3969656,
      "tags": {
        "admin_level": "8",
        "boundary": "administrative",
        "name": "Manihira",
        "type": "boundary",
        "wikidata": "Q21387354",
        "parent_id": "1711391"
      }
    },
    {
      "type": "rel",
      "id": 3969657,
      "tags": {
        "admin_level": "8",
        "boundary": "administrative",
        "name": "Mushubati",
        "type": "boundary",
        "wikidata": "Q21405703",
        "wikipedia": "de:Mushubati",
        "parent_id": "1711391"
      }
    },
    {
      "type": "rel",
      "id": 3969669,
      "tags": {
        "admin_level": "8",
        "boundary": "administrative",
        "name": "Mukura",
        "type": "boundary",
        "wikidata": "Q21387373",
        "parent_id": "1711391"
      }
    },
    {
      "type": "rel",
      "id": 3969670,
      "tags": {
        "admin_level": "8",
        "boundary": "administrative",
        "name": "Murunda",
        "type": "boundary",
        "wikidata": "Q21387377",
        "parent_id": "1711391"
      }
    },
    {
      "type": "rel",
      "id": 3969671,
      "tags": {
        "admin_level": "8",
        "boundary": "administrative",
        "name": "Rusebeya",
        "type": "boundary",
        "wikidata": "Q21405735",
        "parent_id": "1711391"
      }
    },
    {
      "type": "rel",
      "id": 2281152,
      "tags": {
        "admin_level": "8",
        "boundary": "administrative",
        "name": "Cyanyarwe",
        "type": "boundary",
        "wikidata": "Q21325600",
        "wikipedia": "de:Cyanzarwe",
        "parent_id": "1711383"
      }
    },
    {
      "type": "rel",
      "id": 2281154,
      "tags": {
        "admin_level": "8",
        "boundary": "administrative",
        "name": "Nyundo",
        "type": "boundary",
        "wikidata": "Q132487458",
        "wikipedia": "de:Nyundo (Sektor)",
        "parent_id": "1711383"
      }
    },
    {
      "type": "rel",
      "id": 2281155,
      "tags": {
        "admin_level": "8",
        "boundary": "administrative",
        "name": "Rubavu",
        "type": "boundary",
        "wikidata": "Q21334792",
        "parent_id": "1711383"
      }
    },
    {
      "type": "rel",
      "id": 2281156,
      "tags": {
        "admin_level": "8",
        "boundary": "administrative",
        "name": "Rugerero",
        "type": "boundary",
        "wikidata": "Q21334858",
        "wikipedia": "de:Rugerero (Sektor)",
        "parent_id": "1711383"
      }
    },
    {
      "type": "rel",
      "id": 2281187,
      "tags": {
        "admin_level": "8",
        "boundary": "administrative",
        "name": "Bugushi",
        "type": "boundary",
        "wikidata": "Q21325200",
        "wikipedia": "de:Bugeshi",
        "parent_id": "1711383"
      }
    },
    {
      "type": "rel",
      "id": 2281188,
      "tags": {
        "admin_level": "8",
        "boundary": "administrative",
        "name": "Busamana",
        "type": "boundary",
        "wikidata": "Q21325385",
        "wikipedia": "de:Busasamana",
        "parent_id": "1711383"
      }
    },
    {
      "type": "rel",
      "id": 2281189,
      "tags": {
        "admin_level": "8",
        "boundary": "administrative",
        "name": "Kanama",
        "type": "boundary",
        "wikidata": "Q21326331",
        "wikimedia_commons": "Category:Kanama Sector",
        "parent_id": "1711383"
      }
    },
    {
      "type": "rel",
      "id": 2281190,
      "tags": {
        "admin_level": "8",
        "boundary": "administrative",
        "name": "Kanzenze",
        "type": "boundary",
        "wikidata": "Q21326556",
        "wikimedia_commons": "Category:Kanzenze Sector",
        "parent_id": "1711383"
      }
    },
    {
      "type": "rel",
      "id": 2281191,
      "tags": {
        "admin_level": "8",
        "boundary": "administrative",
        "name": "Mudende",
        "type": "boundary",
        "wikidata": "Q21326803",
        "parent_id": "1711383"
      }
    },
    {
      "type": "rel",
      "id": 2281192,
      "tags": {
        "admin_level": "8",
        "boundary": "administrative",
        "name": "Nyakiliba",
        "type": "boundary",
        "wikidata": "Q21327045",
        "parent_id": "1711383"
      }
    },
    {
      "type": "rel",
      "id": 2281193,
      "tags": {
        "admin_level": "8",
        "boundary": "administrative",
        "name": "Nyayumba",
        "type": "boundary",
        "wikidata": "Q21327277",
        "parent_id": "1711383"
      }
    },
    {
      "type": "rel",
      "id": 16361593,
      "tags": {
        "admin_level": "8",
        "boundary": "administrative",
        "name": "Gisenyi",
        "type": "boundary",
        "wikidata": "Q92206346",
        "parent_id": "1711383"
      }
    },
    {
      "type": "rel",
      "id": 1756034,
      "tags": {
        "admin_level": "8",
        "boundary": "administrative",
        "name": "Busogo",
        "type": "boundary",
        "wikidata": "Q91875301",
        "wikimedia_commons": "Category:Busogo Sector",
        "wikipedia": "de:Busogo (Sektor)",
        "parent_id": "1711187"
      }
    },
    {
      "type": "rel",
      "id": 1756035,
      "tags": {
        "admin_level": "8",
        "boundary": "administrative",
        "name": "Cyuve",
        "type": "boundary",
        "wikidata": "Q5201419",
        "wikipedia": "en:Cyuve",
        "parent_id": "1711187"
      }
    },
    {
      "type": "rel",
      "id": 1756036,
      "tags": {
        "admin_level": "8",
        "boundary": "administrative",
        "name": "Gataraga",
        "type": "boundary",
        "wikidata": "Q21509598",
        "parent_id": "1711187"
      }
    },
    {
      "type": "rel",
      "id": 1756037,
      "tags": {
        "admin_level": "8",
        "boundary": "administrative",
        "name": "Kinigi",
        "type": "boundary",
        "wikidata": "Q91886351",
        "parent_id": "1711187"
      }
    },
    {
      "type": "rel",
      "id": 1756038,
      "tags": {
        "admin_level": "8",
        "boundary": "administrative",
        "name": "Nyange",
        "type": "boundary",
        "wikidata": "Q21521858",
        "parent_id": "1711187"
      }
    },
    {
      "type": "rel",
      "id": 1756039,
      "tags": {
        "admin_level": "8",
        "boundary": "administrative",
        "name": "Shingiro",
        "type": "boundary",
        "wikidata": "Q21521907",
        "parent_id": "1711187"
      }
    },
    {
      "type": "rel",
      "id": 1756500,
      "tags": {
        "admin_level": "8",
        "boundary": "administrative",
        "name": "Gagaca",
        "type": "boundary",
        "wikidata": "Q21509535",
        "wikipedia": "de:Gacaca (Sektor)",
        "parent_id": "1711187"
      }
    },
    {
      "type": "rel",
      "id": 1756501,
      "tags": {
        "admin_level": "8",
        "boundary": "administrative",
        "name": "Gashaki",
        "type": "boundary",
        "wikidata": "Q5526428",
        "wikipedia": "en:Gashaki",
        "parent_id": "1711187"
      }
    },
    {
      "type": "rel",
      "id": 1756502,
      "tags": {
        "admin_level": "8",
        "boundary": "administrative",
        "name": "Muko",
        "type": "boundary",
        "wikidata": "Q21521759",
        "parent_id": "1711187"
      }
    },
    {
      "type": "rel",
      "id": 1756503,
      "tags": {
        "admin_level": "8",
        "boundary": "administrative",
        "name": "Nkotsi",
        "type": "boundary",
        "wikidata": "Q21521821",
        "parent_id": "1711187"
      }
    },
    {
      "type": "rel",
      "id": 1756504,
      "tags": {
        "admin_level": "8",
        "boundary": "administrative",
        "name": "Remera",
        "type": "boundary",
        "wikidata": "Q21521874",
        "wikipedia": "de:Remera (Musanze)",
        "parent_id": "1711187"
      }
    },
    {
      "type": "rel",
      "id": 1756505,
      "tags": {
        "admin_level": "8",
        "boundary": "administrative",
        "name": "Rwaza",
        "type": "boundary",
        "wikidata": "Q21521893",
        "wikipedia": "de:Rwaza",
        "parent_id": "1711187"
      }
    },
    {
      "type": "rel",
      "id": 1756509,
      "tags": {
        "admin_level": "8",
        "boundary": "administrative",
        "name": "Kimonyi",
        "type": "boundary",
        "wikidata": "Q21509640",
        "parent_id": "1711187"
      }
    },
    {
      "type": "rel",
      "id": 1756510,
      "tags": {
        "admin_level": "8",
        "boundary": "administrative",
        "name": "Muhoza",
        "type": "boundary",
        "wikidata": "Q21521743",
        "parent_id": "1711187"
      }
    },
    {
      "type": "rel",
      "id": 1756511,
      "tags": {
        "admin_level": "8",
        "boundary": "administrative",
        "name": "Musanze",
        "type": "boundary",
        "wikidata": "Q92205265",
        "wikipedia": "de:Musanze",
        "parent_id": "1711187"
      }
    },
    {
      "type": "rel",
      "id": 1751828,
      "tags": {
        "admin_level": "8",
        "boundary": "administrative",
        "name": "Muhondo",
        "type": "boundary",
        "wikidata": "Q21484421",
        "wikipedia": "de:Muhondo (Sektor)",
        "parent_id": "1711192"
      }
    },
    {
      "type": "rel",
      "id": 1755733,
      "tags": {
        "admin_level": "8",
        "boundary": "administrative",
        "name": "Coko",
        "type": "boundary",
        "wikidata": "Q21484363",
        "wikipedia": "de:Coko (Gakenke)",
        "parent_id": "1711192"
      }
    },
    {
      "type": "rel",
      "id": 1755734,
      "tags": {
        "admin_level": "8",
        "boundary": "administrative",
        "name": "Minazi",
        "type": "boundary",
        "wikidata": "Q21484402",
        "parent_id": "1711192"
      }
    },
    {
      "type": "rel",
      "id": 1755735,
      "tags": {
        "admin_level": "8",
        "boundary": "administrative",
        "name": "Ruli",
        "type": "boundary",
        "wikidata": "Q19610766",
        "parent_id": "1711192"
      }
    },
    {
      "type": "rel",
      "id": 1755741,
      "tags": {
        "admin_level": "8",
        "boundary": "administrative",
        "name": "Mataba",
        "type": "boundary",
        "wikidata": "Q21484398",
        "parent_id": "1711192"
      }
    },
    {
      "type": "rel",
      "id": 1755762,
      "tags": {
        "admin_level": "8",
        "boundary": "administrative",
        "name": "Gatonde",
        "type": "boundary",
        "wikidata": "Q21484412",
        "parent_id": "1711192"
      }
    },
    {
      "type": "rel",
      "id": 1755763,
      "tags": {
        "admin_level": "8",
        "boundary": "administrative",
        "name": "Janja",
        "type": "boundary",
        "wikidata": "Q21484381",
        "parent_id": "1711192"
      }
    },
    {
      "type": "rel",
      "id": 1755764,
      "tags": {
        "admin_level": "8",
        "boundary": "administrative",
        "name": "Muzo",
        "type": "boundary",
        "wikidata": "Q21484427",
        "parent_id": "1711192"
      }
    },
    {
      "type": "rel",
      "id": 1755765,
      "tags": {
        "admin_level": "8",
        "boundary": "administrative",
        "name": "Rusasa",
        "type": "boundary",
        "wikidata": "Q21484439",
        "parent_id": "1711192"
      }
    },
    {
      "type": "rel",
      "id": 1755774,
      "tags": {
        "admin_level": "8",
        "boundary": "administrative",
        "name": "Busengo",
        "type": "boundary",
        "wikidata": "Q21481836",
        "parent_id": "1711192"
      }
    },
    {
      "type": "rel",
      "id": 1755775,
      "tags": {
        "admin_level": "8",
        "boundary": "administrative",
        "name": "Cyabingo",
        "type": "boundary",
        "wikidata": "Q21484365",
        "parent_id": "1711192"
      }
    },
    {
      "type": "rel",
      "id": 1755776,
      "tags": {
        "admin_level": "8",
        "boundary": "administrative",
        "name": "Kivuruga",
        "type": "boundary",
        "wikidata": "Q14206943",
        "parent_id": "1711192"
      }
    },
    {
      "type": "rel",
      "id": 1755869,
      "tags": {
        "admin_level": "8",
        "boundary": "administrative",
        "name": "Gakenke",
        "type": "boundary",
        "parent_id": "1711192"
      }
    },
    {
      "type": "rel",
      "id": 1755870,
      "tags": {
        "admin_level": "8",
        "boundary": "administrative",
        "name": "Gashenyi",
        "type": "boundary",
        "wikidata": "Q21484372",
        "parent_id": "1711192"
      }
    },
    {
      "type": "rel",
      "id": 1755871,
      "tags": {
        "admin_level": "8",
        "boundary": "administrative",
        "name": "Kamubuga",
        "type": "boundary",
        "wikidata": "Q21484387",
        "parent_id": "1711192"
      }
    },
    {
      "type": "rel",
      "id": 1755872,
      "tags": {
        "admin_level": "8",
        "boundary": "administrative",
        "name": "Karambo",
        "type": "boundary",
        "wikidata": "Q21484388",
        "parent_id": "1711192"
      }
    },
    {
      "type": "rel",
      "id": 1755873,
      "tags": {
        "admin_level": "8",
        "boundary": "administrative",
        "name": "Muyongwe",
        "type": "boundary",
        "wikidata": "Q21484424",
        "parent_id": "1711192"
      }
    },
    {
      "type": "rel",
      "id": 1755874,
      "tags": {
        "admin_level": "8",
        "boundary": "administrative",
        "name": "Nemba",
        "type": "boundary",
        "wikidata": "Q21484429",
        "wikipedia": "de:Nemba (Gakenke)",
        "parent_id": "1711192"
      }
    },
    {
      "type": "rel",
      "id": 1755875,
      "tags": {
        "admin_level": "8",
        "boundary": "administrative",
        "name": "Rushashi",
        "type": "boundary",
        "wikidata": "Q21484443",
        "parent_id": "1711192"
      }
    },
    {
      "type": "rel",
      "id": 1714332,
      "tags": {
        "admin_level": "8",
        "boundary": "administrative",
        "name": "Cyanika",
        "type": "boundary",
        "wikidata": "Q21481055",
        "parent_id": "1711194"
      }
    },
    {
      "type": "rel",
      "id": 1736838,
      "tags": {
        "admin_level": "8",
        "boundary": "administrative",
        "name": "Butaro",
        "type": "boundary",
        "wikidata": "Q21481049",
        "parent_id": "1711194"
      }
    },
    {
      "type": "rel",
      "id": 1736839,
      "tags": {
        "admin_level": "8",
        "boundary": "administrative",
        "name": "Kagogo",
        "type": "boundary",
        "wikidata": "Q21481135",
        "parent_id": "1711194"
      }
    },
    {
      "type": "rel",
      "id": 1736840,
      "tags": {
        "admin_level": "8",
        "boundary": "administrative",
        "name": "Kinyaba",
        "type": "boundary",
        "wikidata": "Q21481256",
        "wikipedia": "de:Kinyababa",
        "parent_id": "1711194"
      }
    },
    {
      "type": "rel",
      "id": 1736854,
      "tags": {
        "admin_level": "8",
        "boundary": "administrative",
        "name": "Rusarabuye",
        "type": "boundary",
        "parent_id": "1711194"
      }
    },
    {
      "type": "rel",
      "id": 1737412,
      "tags": {
        "admin_level": "8",
        "boundary": "administrative",
        "name": "Gahunga",
        "type": "boundary",
        "wikidata": "Q21481071",
        "parent_id": "1711194"
      }
    },
    {
      "type": "rel",
      "id": 1737413,
      "tags": {
        "admin_level": "8",
        "boundary": "administrative",
        "name": "Kinoni",
        "type": "boundary",
        "wikidata": "Q21481251",
        "parent_id": "1711194"
      }
    },
    {
      "type": "rel",
      "id": 1737414,
      "tags": {
        "admin_level": "8",
        "boundary": "administrative",
        "name": "Rugarama",
        "type": "boundary",
        "wikidata": "Q21481792",
        "parent_id": "1711194"
      }
    },
    {
      "type": "rel",
      "id": 1738766,
      "tags": {
        "admin_level": "8",
        "boundary": "administrative",
        "name": "Rugengabari",
        "type": "boundary",
        "wikidata": "Q21481800",
        "parent_id": "1711194"
      }
    },
    {
      "type": "rel",
      "id": 1738770,
      "tags": {
        "admin_level": "8",
        "boundary": "administrative",
        "name": "Bungwe",
        "type": "boundary",
        "wikidata": "Q21481030",
        "parent_id": "1711194"
      }
    },
    {
      "type": "rel",
      "id": 1738771,
      "tags": {
        "admin_level": "8",
        "boundary": "administrative",
        "name": "Gatabe",
        "type": "boundary",
        "wikidata": "Q21481076",
        "parent_id": "1711194"
      }
    },
    {
      "type": "rel",
      "id": 1738772,
      "tags": {
        "admin_level": "8",
        "boundary": "administrative",
        "name": "Gitovu",
        "type": "boundary",
        "wikidata": "Q21481078",
        "parent_id": "1711194"
      }
    },
    {
      "type": "rel",
      "id": 1738773,
      "tags": {
        "admin_level": "8",
        "boundary": "administrative",
        "name": "Nemba",
        "type": "boundary",
        "wikidata": "Q124760191",
        "parent_id": "1711194"
      }
    },
    {
      "type": "rel",
      "id": 1738774,
      "tags": {
        "admin_level": "8",
        "boundary": "administrative",
        "name": "Kivuye",
        "type": "boundary",
        "wikidata": "Q21481777",
        "parent_id": "1711194"
      }
    },
    {
      "type": "rel",
      "id": 1738781,
      "tags": {
        "admin_level": "8",
        "boundary": "administrative",
        "name": "Ruhunde",
        "type": "boundary",
        "wikidata": "Q21481804",
        "parent_id": "1711194"
      }
    },
    {
      "type": "rel",
      "id": 1738782,
      "tags": {
        "admin_level": "8",
        "boundary": "administrative",
        "name": "Rwerere",
        "type": "boundary",
        "wikidata": "Q21481822",
        "wikipedia": "de:Rwerere",
        "parent_id": "1711194"
      }
    },
    {
      "type": "rel",
      "id": 19570897,
      "tags": {
        "admin_level": "8",
        "boundary": "administrative",
        "name": "Cyeru",
        "type": "boundary",
        "parent_id": "1711194"
      }
    },
    {
      "type": "rel",
      "id": 1792251,
      "tags": {
        "admin_level": "8",
        "boundary": "administrative",
        "name": "Rusiga",
        "type": "boundary",
        "wikidata": "Q7380907",
        "wikimedia_commons": "Category:Rusiga Sector",
        "wikipedia:en": "Rusiga",
        "parent_id": "1711195"
      }
    },
    {
      "type": "rel",
      "id": 1792252,
      "tags": {
        "admin_level": "8",
        "boundary": "administrative",
        "name": "Shyorongi",
        "type": "boundary",
        "wikidata": "Q125739582",
        "wikipedia": "de:Shyorongi",
        "parent_id": "1711195"
      }
    },
    {
      "type": "rel",
      "id": 1792996,
      "tags": {
        "admin_level": "8",
        "boundary": "administrative",
        "name": "Mbogo",
        "type": "boundary",
        "wikidata": "Q125687975",
        "wikipedia": "de:Mbogo (Sektor)",
        "wikipedia:en": "Mbogo",
        "parent_id": "1711195"
      }
    },
    {
      "type": "rel",
      "id": 1792997,
      "tags": {
        "admin_level": "8",
        "boundary": "administrative",
        "name": "Ngoma",
        "type": "boundary",
        "wikidata": "Q21522097",
        "wikipedia": "de:Ngoma (Sektor)",
        "parent_id": "1711195"
      }
    },
    {
      "type": "rel",
      "id": 1793019,
      "tags": {
        "admin_level": "8",
        "boundary": "administrative",
        "name": "Burega",
        "type": "boundary",
        "wikidata": "Q4998447",
        "wikipedia": "de:Burega",
        "parent_id": "1711195"
      }
    },
    {
      "type": "rel",
      "id": 1793020,
      "tags": {
        "admin_level": "8",
        "boundary": "administrative",
        "name": "Cyinzuzi",
        "type": "boundary",
        "wikidata": "Q21522007",
        "parent_id": "1711195"
      }
    },
    {
      "type": "rel",
      "id": 1793021,
      "tags": {
        "admin_level": "8",
        "boundary": "administrative",
        "name": "Masoro",
        "type": "boundary",
        "wikidata": "Q125678696",
        "wikipedia": "de:Masoro (Sektor)",
        "wikipedia:en": "Masoro, Rwanda",
        "parent_id": "1711195"
      }
    },
    {
      "type": "rel",
      "id": 1793022,
      "tags": {
        "admin_level": "8",
        "boundary": "administrative",
        "name": "Murambi",
        "type": "boundary",
        "wikidata": "Q6937304",
        "wikipedia:en": "Murambi",
        "parent_id": "1711195"
      }
    },
    {
      "type": "rel",
      "id": 1793023,
      "tags": {
        "admin_level": "8",
        "boundary": "administrative",
        "name": "Natarabana",
        "type": "boundary",
        "wikidata": "Q125739217",
        "wikipedia": "de:Ntarabana",
        "parent_id": "1711195"
      }
    },
    {
      "type": "rel",
      "id": 1793060,
      "tags": {
        "admin_level": "8",
        "boundary": "administrative",
        "name": "Base",
        "type": "boundary",
        "wikidata": "Q21521944",
        "parent_id": "1711195"
      }
    },
    {
      "type": "rel",
      "id": 1793061,
      "tags": {
        "admin_level": "8",
        "boundary": "administrative",
        "name": "Bushoki",
        "type": "boundary",
        "wikidata": "Q21521931",
        "parent_id": "1711195"
      }
    },
    {
      "type": "rel",
      "id": 1793062,
      "tags": {
        "admin_level": "8",
        "boundary": "administrative",
        "name": "Buyoga",
        "type": "boundary",
        "wikidata": "Q5003385",
        "wikipedia:en": "Buyoga",
        "parent_id": "1711195"
      }
    },
    {
      "type": "rel",
      "id": 1793063,
      "tags": {
        "admin_level": "8",
        "boundary": "administrative",
        "name": "Kisaro",
        "type": "boundary",
        "wikidata": "Q21522043",
        "parent_id": "1711195"
      }
    },
    {
      "type": "rel",
      "id": 1793064,
      "tags": {
        "admin_level": "8",
        "boundary": "administrative",
        "name": "Tumba",
        "type": "boundary",
        "wikidata": "Q21522626",
        "wikipedia": "de:Tumba (Sektor)",
        "wikipedia:en": "Tumba, Rwanda",
        "parent_id": "1711195"
      }
    },
    {
      "type": "rel",
      "id": 1793072,
      "tags": {
        "admin_level": "8",
        "boundary": "administrative",
        "name": "Cyungo",
        "type": "boundary",
        "wikidata": "Q5201418",
        "parent_id": "1711195"
      }
    },
    {
      "type": "rel",
      "id": 1793073,
      "tags": {
        "admin_level": "8",
        "boundary": "administrative",
        "name": "Kinihira",
        "type": "boundary",
        "wikidata": "Q21522032",
        "parent_id": "1711195"
      }
    },
    {
      "type": "rel",
      "id": 1793074,
      "tags": {
        "admin_level": "8",
        "boundary": "administrative",
        "name": "Rukozo",
        "type": "boundary",
        "wikidata": "Q125739410",
        "wikipedia": "de:Rukozo",
        "wikipedia:en": "Rukozo",
        "parent_id": "1711195"
      }
    },
    {
      "type": "rel",
      "id": 1793993,
      "tags": {
        "admin_level": "8",
        "boundary": "administrative",
        "name": "Bukure",
        "type": "boundary",
        "wikidata": "Q21484459",
        "parent_id": "1711209"
      }
    },
    {
      "type": "rel",
      "id": 1793994,
      "tags": {
        "admin_level": "8",
        "boundary": "administrative",
        "name": "Giti",
        "type": "boundary",
        "wikidata": "Q21485075",
        "parent_id": "1711209"
      }
    },
    {
      "type": "rel",
      "id": 1793995,
      "tags": {
        "admin_level": "8",
        "boundary": "administrative",
        "name": "Mutete",
        "type": "boundary",
        "wikidata": "Q21485101",
        "parent_id": "1711209"
      }
    },
    {
      "type": "rel",
      "id": 1793996,
      "tags": {
        "admin_level": "8",
        "boundary": "administrative",
        "name": "Rutare",
        "type": "boundary",
        "wikidata": "Q21500978",
        "parent_id": "1711209"
      }
    },
    {
      "type": "rel",
      "id": 1793997,
      "tags": {
        "admin_level": "8",
        "boundary": "administrative",
        "name": "Rwamiko",
        "type": "boundary",
        "wikidata": "Q21500984",
        "wikipedia": "de:Rwamiko",
        "parent_id": "1711209"
      }
    },
    {
      "type": "rel",
      "id": 1796128,
      "tags": {
        "admin_level": "8",
        "boundary": "administrative",
        "name": "Bwisige",
        "type": "boundary",
        "wikidata": "Q21484464",
        "parent_id": "1711209"
      }
    },
    {
      "type": "rel",
      "id": 1796129,
      "tags": {
        "admin_level": "8",
        "boundary": "administrative",
        "name": "Kageyo",
        "type": "boundary",
        "wikidata": "Q21485082",
        "parent_id": "1711209"
      }
    },
    {
      "type": "rel",
      "id": 1796130,
      "tags": {
        "admin_level": "8",
        "boundary": "administrative",
        "name": "Rukomo",
        "type": "boundary",
        "wikidata": "Q21485121",
        "parent_id": "1711209"
      }
    },
    {
      "type": "rel",
      "id": 1796131,
      "tags": {
        "admin_level": "8",
        "boundary": "administrative",
        "name": "Rushaki",
        "type": "boundary",
        "wikidata": "Q21485124",
        "parent_id": "1711209"
      }
    },
    {
      "type": "rel",
      "id": 1796132,
      "tags": {
        "admin_level": "8",
        "boundary": "administrative",
        "name": "Shangasha",
        "type": "boundary",
        "wikidata": "Q21500986",
        "parent_id": "1711209"
      }
    },
    {
      "type": "rel",
      "id": 1796174,
      "tags": {
        "admin_level": "8",
        "boundary": "administrative",
        "name": "Byumba",
        "name:ru": "\u0411\u044c\u044e\u043c\u0431\u0430",
        "type": "boundary",
        "wikidata": "Q92206813",
        "wikimedia_commons": "Category:Byumba Sector",
        "wikipedia": "de:Byumba (Sektor)",
        "parent_id": "1711209"
      }
    },
    {
      "type": "rel",
      "id": 1796175,
      "tags": {
        "admin_level": "8",
        "boundary": "administrative",
        "name": "Cyumba",
        "type": "boundary",
        "wikidata": "Q21484467",
        "parent_id": "1711209"
      }
    },
    {
      "type": "rel",
      "id": 1796176,
      "tags": {
        "admin_level": "8",
        "boundary": "administrative",
        "name": "Kaniga",
        "type": "boundary",
        "wikidata": "Q21485085",
        "wikimedia_commons": "Category:Kaniga Sector",
        "wikipedia": "de:Kaniga",
        "parent_id": "1711209"
      }
    },
    {
      "type": "rel",
      "id": 1796177,
      "tags": {
        "admin_level": "8",
        "boundary": "administrative",
        "name": "Manyagiro",
        "type": "boundary",
        "wikidata": "Q21485089",
        "parent_id": "1711209"
      }
    },
    {
      "type": "rel",
      "id": 1796178,
      "tags": {
        "admin_level": "8",
        "boundary": "administrative",
        "name": "Miyove",
        "type": "boundary",
        "wikidata": "Q21485094",
        "parent_id": "1711209"
      }
    },
    {
      "type": "rel",
      "id": 1796179,
      "tags": {
        "admin_level": "8",
        "boundary": "administrative",
        "name": "Mukarange",
        "type": "boundary",
        "wikidata": "Q21485098",
        "parent_id": "1711209"
      }
    },
    {
      "type": "rel",
      "id": 1796180,
      "tags": {
        "admin_level": "8",
        "boundary": "administrative",
        "name": "Nyankenke",
        "type": "boundary",
        "wikidata": "Q21485113",
        "parent_id": "1711209"
      }
    },
    {
      "type": "rel",
      "id": 1796181,
      "tags": {
        "admin_level": "8",
        "boundary": "administrative",
        "name": "Rubaya",
        "type": "boundary",
        "wikidata": "Q21485118",
        "parent_id": "1711209"
      }
    },
    {
      "type": "rel",
      "id": 1796184,
      "tags": {
        "admin_level": "8",
        "boundary": "administrative",
        "name": "Muko",
        "type": "boundary",
        "wikidata": "Q21484447",
        "parent_id": "1711209"
      }
    },
    {
      "type": "rel",
      "id": 1796185,
      "tags": {
        "admin_level": "8",
        "boundary": "administrative",
        "name": "Nyamiyaga",
        "type": "boundary",
        "wikidata": "Q21485109",
        "parent_id": "1711209"
      }
    },
    {
      "type": "rel",
      "id": 1796186,
      "tags": {
        "admin_level": "8",
        "boundary": "administrative",
        "name": "Ruvune",
        "type": "boundary",
        "wikidata": "Q21500981",
        "parent_id": "1711209"
      }
    },
    {
      "type": "rel",
      "id": 3972564,
      "tags": {
        "admin_level": "8",
        "boundary": "administrative",
        "name": "Bigogwe",
        "type": "boundary",
        "wikidata": "Q91878284",
        "parent_id": "1711322"
      }
    },
    {
      "type": "rel",
      "id": 3972565,
      "tags": {
        "admin_level": "8",
        "boundary": "administrative",
        "name": "Jenda",
        "type": "boundary",
        "wikidata": "Q21282808",
        "wikimedia_commons": "Category:Jenda Sector",
        "parent_id": "1711322"
      }
    },
    {
      "type": "rel",
      "id": 3972566,
      "tags": {
        "admin_level": "8",
        "boundary": "administrative",
        "name": "Kabatwa",
        "type": "boundary",
        "wikidata": "Q21282860",
        "parent_id": "1711322"
      }
    },
    {
      "type": "rel",
      "id": 3972580,
      "tags": {
        "admin_level": "8",
        "boundary": "administrative",
        "name": "Jomba",
        "type": "boundary",
        "parent_id": "1711322"
      }
    },
    {
      "type": "rel",
      "id": 3972581,
      "tags": {
        "admin_level": "8",
        "boundary": "administrative",
        "name": "Karago",
        "type": "boundary",
        "wikidata": "Q21282862",
        "parent_id": "1711322"
      }
    },
    {
      "type": "rel",
      "id": 3972582,
      "tags": {
        "admin_level": "8",
        "boundary": "administrative",
        "name": "Kintobo",
        "type": "boundary",
        "wikidata": "Q21282868",
        "parent_id": "1711322"
      }
    },
    {
      "type": "rel",
      "id": 3972608,
      "tags": {
        "admin_level": "8",
        "boundary": "administrative",
        "name": "Mukamira",
        "type": "boundary",
        "wikidata": "Q91802801",
        "wikimedia_commons": "Category:Mukamira Sector",
        "parent_id": "1711322"
      }
    },
    {
      "type": "rel",
      "id": 3972609,
      "tags": {
        "admin_level": "8",
        "boundary": "administrative",
        "name": "Muringa",
        "type": "boundary",
        "parent_id": "1711322"
      }
    },
    {
      "type": "rel",
      "id": 3972610,
      "tags": {
        "admin_level": "8",
        "boundary": "administrative",
        "name": "Rambura",
        "type": "boundary",
        "wikidata": "Q21286437",
        "parent_id": "1711322"
      }
    },
    {
      "type": "rel",
      "id": 3972630,
      "tags": {
        "admin_level": "8",
        "boundary": "administrative",
        "name": "Rugera",
        "type": "boundary",
        "wikidata": "Q21286441",
        "parent_id": "1711322"
      }
    },
    {
      "type": "rel",
      "id": 3972631,
      "tags": {
        "admin_level": "8",
        "boundary": "administrative",
        "name": "Rurembo",
        "type": "boundary",
        "wikidata": "Q21286458",
        "parent_id": "1711322"
      }
    },
    {
      "type": "rel",
      "id": 3972632,
      "tags": {
        "admin_level": "8",
        "border_type": "sector",
        "boundary": "administrative",
        "name": "Shyira",
        "type": "boundary",
        "wikidata": "Q21286461",
        "parent_id": "1711322"
      }
    },
    {
      "type": "rel",
      "id": 16068485,
      "tags": {
        "admin_level": "8",
        "boundary": "administrative",
        "name": "Kimisagara",
        "type": "boundary",
        "parent_id": "3963734"
      }
    },
    {
      "type": "rel",
      "id": 1715240,
      "tags": {
        "admin_level": "8",
        "boundary": "administrative",
        "name": "Ndego",
        "type": "boundary",
        "wikidata": "Q21445434",
        "wikipedia": "de:Ndego",
        "parent_id": "1711163"
      }
    },
    {
      "type": "rel",
      "id": 1715255,
      "tags": {
        "admin_level": "8",
        "boundary": "administrative",
        "name": "Kabare",
        "type": "boundary",
        "wikidata": "Q21406611",
        "wikipedia": "de:Kabare",
        "parent_id": "1711163"
      }
    },
    {
      "type": "rel",
      "id": 1715256,
      "tags": {
        "admin_level": "8",
        "boundary": "administrative",
        "name": "Murama",
        "type": "boundary",
        "wikidata": "Q21445420",
        "wikipedia": "de:Murama (Kayonza)",
        "parent_id": "1711163"
      }
    },
    {
      "type": "rel",
      "id": 1715257,
      "tags": {
        "admin_level": "8",
        "boundary": "administrative",
        "name": "Rwinkwavu",
        "type": "boundary",
        "wikidata": "Q21445455",
        "parent_id": "1711163"
      }
    },
    {
      "type": "rel",
      "id": 1715270,
      "tags": {
        "admin_level": "8",
        "boundary": "administrative",
        "name": "Kabarondo",
        "type": "boundary",
        "wikidata": "Q21445270",
        "parent_id": "1711163"
      }
    },
    {
      "type": "rel",
      "id": 1715271,
      "tags": {
        "admin_level": "8",
        "boundary": "administrative",
        "name": "Nyamirama",
        "type": "boundary",
        "wikidata": "Q21445441",
        "parent_id": "1711163"
      }
    },
    {
      "type": "rel",
      "id": 1715272,
      "tags": {
        "admin_level": "8",
        "boundary": "administrative",
        "name": "Ruramira",
        "type": "boundary",
        "wikidata": "Q21445450",
        "parent_id": "1711163"
      }
    },
    {
      "type": "rel",
      "id": 1729790,
      "tags": {
        "admin_level": "8",
        "boundary": "administrative",
        "name": "Mukarange",
        "type": "boundary",
        "wikidata": "Q21445390",
        "wikimedia_commons": "Category:Mukarange Sector",
        "parent_id": "1711163"
      }
    },
    {
      "type": "rel",
      "id": 1729798,
      "tags": {
        "admin_level": "8",
        "boundary": "administrative",
        "name": "Murundi",
        "type": "boundary",
        "wikidata": "Q21445424",
        "parent_id": "1711163"
      }
    },
    {
      "type": "rel",
      "id": 1729800,
      "tags": {
        "admin_level": "8",
        "boundary": "administrative",
        "name": "Mwiri",
        "type": "boundary",
        "wikidata": "Q21445429",
        "wikimedia_commons": "Category:Mwiri Sector",
        "wikipedia": "rw:Umurenge wa Mwiri",
        "parent_id": "1711163"
      }
    },
    {
      "type": "rel",
      "id": 1729805,
      "tags": {
        "admin_level": "8",
        "boundary": "administrative",
        "name": "Gahini",
        "type": "boundary",
        "wikidata": "Q5516919",
        "parent_id": "1711163"
      }
    },
    {
      "type": "rel",
      "id": 4095223,
      "tags": {
        "admin_level": "8",
        "boundary": "administrative",
        "name": "Rukara",
        "type": "boundary",
        "wikidata": "Q21445445",
        "parent_id": "1711163"
      }
    },
    {
      "type": "rel",
      "id": 4095226,
      "tags": {
        "admin_level": "8",
        "boundary": "administrative",
        "name": "Karambi",
        "type": "boundary",
        "parent_id": "1711163"
      }
    },
    {
      "type": "rel",
      "id": 4095232,
      "tags": {
        "admin_level": "8",
        "boundary": "administrative",
        "name": "Murundi",
        "type": "boundary",
        "parent_id": "1711163"
      }
    },
    {
      "type": "rel",
      "id": 4095237,
      "tags": {
        "admin_level": "8",
        "boundary": "administrative",
        "name": "Ryamanyoni",
        "type": "boundary",
        "parent_id": "1711163"
      }
    },
    {
      "type": "rel",
      "id": 4095238,
      "tags": {
        "admin_level": "8",
        "boundary": "administrative",
        "name": "Urugarama",
        "type": "boundary",
        "parent_id": "1711163"
      }
    },
    {
      "type": "rel",
      "id": 1714344,
      "tags": {
        "admin_level": "8",
        "boundary": "administrative",
        "name": "Mahama",
        "source": "map_ru3",
        "type": "boundary",
        "wikidata": "Q21451745",
        "parent_id": "171655"
      }
    },
    {
      "type": "rel",
      "id": 1714350,
      "tags": {
        "admin_level": "8",
        "boundary": "administrative",
        "name": "Mpanga",
        "source": "map_ru3",
        "type": "boundary",
        "wikidata": "Q21451767",
        "parent_id": "171655"
      }
    },
    {
      "type": "rel",
      "id": 1714360,
      "tags": {
        "admin_level": "8",
        "boundary": "administrative",
        "name": "Nyarubuye",
        "source": "map_ru3",
        "type": "boundary",
        "wikidata": "Q7070910",
        "wikipedia": "de:Nyarubuye (Sektor)",
        "parent_id": "171655"
      }
    },
    {
      "type": "rel",
      "id": 1714377,
      "tags": {
        "admin_level": "8",
        "boundary": "administrative",
        "name": "Kigarama",
        "source": "map_ru3",
        "type": "boundary",
        "wikidata": "Q21445485",
        "parent_id": "171655"
      }
    },
    {
      "type": "rel",
      "id": 1714379,
      "tags": {
        "admin_level": "8",
        "boundary": "administrative",
        "name": "Nyamugali",
        "source": "map_ru3",
        "type": "boundary",
        "wikidata": "Q21451813",
        "wikipedia": "de:Nyamugari (Sektor)",
        "parent_id": "171655"
      }
    },
    {
      "type": "rel",
      "id": 1716713,
      "tags": {
        "admin_level": "8",
        "boundary": "administrative",
        "name": "Gahara",
        "type": "boundary",
        "wikidata": "Q21445472",
        "parent_id": "171655"
      }
    },
    {
      "type": "rel",
      "id": 1716714,
      "tags": {
        "admin_level": "8",
        "boundary": "administrative",
        "name": "Gatore",
        "type": "boundary",
        "wikidata": "Q21445481",
        "parent_id": "171655"
      }
    },
    {
      "type": "rel",
      "id": 1716715,
      "tags": {
        "admin_level": "8",
        "boundary": "administrative",
        "name": "Kirehe",
        "type": "boundary",
        "wikidata": "Q21451738",
        "parent_id": "171655"
      }
    },
    {
      "type": "rel",
      "id": 1716781,
      "tags": {
        "admin_level": "8",
        "boundary": "administrative",
        "name": "Kigina",
        "type": "boundary",
        "wikidata": "Q21451722",
        "parent_id": "171655"
      }
    },
    {
      "type": "rel",
      "id": 1727569,
      "tags": {
        "admin_level": "8",
        "boundary": "administrative",
        "name": "Musaza",
        "type": "boundary",
        "wikidata": "Q21451770",
        "parent_id": "171655"
      }
    },
    {
      "type": "rel",
      "id": 1727581,
      "tags": {
        "admin_level": "8",
        "boundary": "administrative",
        "name": "Mushikiri",
        "source": "map_ru3",
        "type": "boundary",
        "wikidata": "Q21451790",
        "parent_id": "171655"
      }
    },
    {
      "type": "rel",
      "id": 1727585,
      "tags": {
        "admin_level": "8",
        "boundary": "administrative",
        "name": "Nasho",
        "source": "map_ru3",
        "type": "boundary",
        "wikidata": "Q21451805",
        "wikipedia": "de:Nasho (Sektor)",
        "parent_id": "171655"
      }
    },
    {
      "type": "rel",
      "id": 1728634,
      "tags": {
        "admin_level": "8",
        "boundary": "administrative",
        "name": "Nykariro",
        "type": "boundary",
        "wikidata": "Q63522056",
        "wikipedia": "de:Nyakaliro",
        "parent_id": "1711142"
      }
    },
    {
      "type": "rel",
      "id": 1728776,
      "tags": {
        "admin_level": "8",
        "boundary": "administrative",
        "name": "Karenge",
        "type": "boundary",
        "wikidata": "Q21474095",
        "parent_id": "1711142"
      }
    },
    {
      "type": "rel",
      "id": 1729117,
      "tags": {
        "admin_level": "8",
        "boundary": "administrative",
        "name": "Munyaga",
        "type": "boundary",
        "wikidata": "Q21480997",
        "parent_id": "1711142"
      }
    },
    {
      "type": "rel",
      "id": 1729118,
      "tags": {
        "admin_level": "8",
        "boundary": "administrative",
        "name": "Rubona",
        "type": "boundary",
        "wikidata": "Q21481020",
        "parent_id": "1711142"
      }
    },
    {
      "type": "rel",
      "id": 1729119,
      "tags": {
        "admin_level": "8",
        "boundary": "administrative",
        "name": "Nzige",
        "type": "boundary",
        "wikidata": "Q21481016",
        "parent_id": "1711142"
      }
    },
    {
      "type": "rel",
      "id": 1729742,
      "tags": {
        "admin_level": "8",
        "boundary": "administrative",
        "name": "Fumbwe",
        "type": "boundary",
        "wikidata": "Q21474073",
        "parent_id": "1711142"
      }
    },
    {
      "type": "rel",
      "id": 1729748,
      "tags": {
        "admin_level": "8",
        "boundary": "administrative",
        "name": "Musha",
        "type": "boundary",
        "wikidata": "Q21481005",
        "wikipedia:en": "Musha, Rwanda",
        "parent_id": "1711142"
      }
    },
    {
      "type": "rel",
      "id": 1729754,
      "tags": {
        "admin_level": "8",
        "boundary": "administrative",
        "name": "Gahengeri",
        "type": "boundary",
        "wikidata": "Q21474080",
        "parent_id": "1711142"
      }
    },
    {
      "type": "rel",
      "id": 1729758,
      "tags": {
        "admin_level": "8",
        "boundary": "administrative",
        "name": "Munyiginya",
        "type": "boundary",
        "wikidata": "Q21480998",
        "parent_id": "1711142"
      }
    },
    {
      "type": "rel",
      "id": 1729765,
      "tags": {
        "admin_level": "8",
        "boundary": "administrative",
        "name": "Gishari",
        "type": "boundary",
        "wikidata": "Q21474089",
        "wikimedia_commons": "Category:Gishali Sector",
        "wikipedia": "rw:Umurenge wa Gishari",
        "parent_id": "1711142"
      }
    },
    {
      "type": "rel",
      "id": 1729768,
      "tags": {
        "admin_level": "8",
        "boundary": "administrative",
        "name": "Muhazi",
        "type": "boundary",
        "wikidata": "Q6933007",
        "wikipedia": "de:Muhazi",
        "parent_id": "1711142"
      }
    },
    {
      "type": "rel",
      "id": 1729773,
      "tags": {
        "admin_level": "8",
        "boundary": "administrative",
        "name": "Kigabiro",
        "type": "boundary",
        "wikidata": "Q21474123",
        "wikimedia_commons": "Category:Kigabiro Sector",
        "wikipedia": "fr:Kigabiro",
        "parent_id": "1711142"
      }
    },
    {
      "type": "rel",
      "id": 1729778,
      "tags": {
        "admin_level": "8",
        "boundary": "administrative",
        "name": "Muyumba",
        "type": "boundary",
        "wikidata": "Q130641492",
        "wikipedia": "de:Muyumbu",
        "parent_id": "1711142"
      }
    },
    {
      "type": "rel",
      "id": 1729785,
      "tags": {
        "admin_level": "8",
        "boundary": "administrative",
        "name": "Mwulire",
        "type": "boundary",
        "wikidata": "Q21481008",
        "wikipedia": "rw:Umurenge wa Mwulire",
        "parent_id": "1711142"
      }
    },
    {
      "type": "rel",
      "id": 1716800,
      "tags": {
        "admin_level": "8",
        "boundary": "administrative",
        "name": "Jarama",
        "type": "boundary",
        "wikidata": "Q21468736",
        "parent_id": "1711167"
      }
    },
    {
      "type": "rel",
      "id": 1716801,
      "tags": {
        "admin_level": "8",
        "boundary": "administrative",
        "name": "Mutender",
        "type": "boundary",
        "wikidata": "Q21468830",
        "parent_id": "1711167"
      }
    },
    {
      "type": "rel",
      "id": 1716820,
      "tags": {
        "admin_level": "8",
        "boundary": "administrative",
        "name": "Sake",
        "type": "boundary",
        "wikidata": "Q21468988",
        "parent_id": "1711167"
      }
    },
    {
      "type": "rel",
      "id": 1717052,
      "tags": {
        "admin_level": "8",
        "boundary": "administrative",
        "name": "Karembo",
        "type": "boundary",
        "wikidata": "Q21468741",
        "parent_id": "1711167"
      }
    },
    {
      "type": "rel",
      "id": 1717053,
      "tags": {
        "admin_level": "8",
        "boundary": "administrative",
        "name": "Mugesera",
        "type": "boundary",
        "wikidata": "Q21468765",
        "parent_id": "1711167"
      }
    },
    {
      "type": "rel",
      "id": 1717054,
      "tags": {
        "admin_level": "8",
        "boundary": "administrative",
        "name": "Rukumberi",
        "type": "boundary",
        "wikidata": "Q21468923",
        "wikimedia_commons": "Category:Rukumberi Sector",
        "parent_id": "1711167"
      }
    },
    {
      "type": "rel",
      "id": 1717055,
      "tags": {
        "admin_level": "8",
        "boundary": "administrative",
        "name": "Zaza",
        "type": "boundary",
        "wikidata": "Q21469015",
        "wikipedia": "de:Zaza (Sektor)",
        "wikipedia:en": "Zaza, Rwanda",
        "parent_id": "1711167"
      }
    },
    {
      "type": "rel",
      "id": 1719024,
      "tags": {
        "admin_level": "8",
        "boundary": "administrative",
        "name": "Remera",
        "type": "boundary",
        "wikidata": "Q21468851",
        "parent_id": "1711167"
      }
    },
    {
      "type": "rel",
      "id": 1719025,
      "tags": {
        "admin_level": "8",
        "boundary": "administrative",
        "name": "Rurenge",
        "type": "boundary",
        "wikidata": "Q21468955",
        "parent_id": "1711167"
      }
    },
    {
      "type": "rel",
      "id": 1719026,
      "tags": {
        "admin_level": "8",
        "boundary": "administrative",
        "name": "Kibungo",
        "type": "boundary",
        "wikidata": "Q92206272",
        "wikimedia_commons": "Category:Kibungo Sector",
        "parent_id": "1711167"
      }
    },
    {
      "type": "rel",
      "id": 1719035,
      "tags": {
        "admin_level": "8",
        "boundary": "administrative",
        "name": "Murama",
        "type": "boundary",
        "wikidata": "Q21468781",
        "parent_id": "1711167"
      }
    },
    {
      "type": "rel",
      "id": 1727478,
      "tags": {
        "admin_level": "8",
        "boundary": "administrative",
        "name": "Kazo",
        "type": "boundary",
        "wikidata": "Q21468749",
        "parent_id": "1711167"
      }
    },
    {
      "type": "rel",
      "id": 1727480,
      "tags": {
        "admin_level": "8",
        "boundary": "administrative",
        "name": "Rukira",
        "type": "boundary",
        "wikidata": "Q21468880",
        "parent_id": "1711167"
      }
    },
    {
      "type": "rel",
      "id": 1727496,
      "tags": {
        "admin_level": "8",
        "boundary": "administrative",
        "name": "Gashanda",
        "type": "boundary",
        "wikidata": "Q21451842",
        "parent_id": "1711167"
      }
    }
  ]
}