{
  "version": 0.6,
  "generator": "Overpass API 0.7.62.8 e802775f",
  "osm3s": {
    "timestamp_osm_base": "2025-10-04T21:26:14Z",
    "timestamp_areas_base": "2025-10-04T15:40:00Z",
    "copyright": "The data included in this document is from www.openstreetmap.org. The data is made available under ODbL."
  },
  "elements": [
    {
      "type": "relation",
      "id": 192758,
      "tags": {
        "ISO3166-1": "LY",
        "ISO3166-1:alpha2": "LY",
        "ISO3166-1:alpha3": "LBY",
        "ISO3166-1:numeric": "434",
        "admin_level": "2",
        "alt_name:grc": "\u039b\u03b9\u03b2\u03cd\u03b7",
        "alt_name:vi": "Libi",
        "boundary": "administrative",
        "default_language": "ar",
        "flag": "https://upload.wikimedia.org/wikipedia/commons/0/05/Flag_of_Libya.svg",
        "name": "\u0644\u064a\u0628\u064a\u0627",
        "name:ace": "Libya",
        "name:af": "Libi\u00eb",
        "name:als": "Libyen",
        "name:am": "\u120a\u1262\u12eb",
        "name:an": "Libia",
        "name:ang": "Libia",
        "name:ar": "\u0644\u064a\u0628\u064a\u0627",
        "name:arc": "\u0720\u0718\u0712\u0710",
        "name:arz": "\u0644\u064a\u0628\u064a\u0627",
        "name:ast": "Libia",
        "name:az": "Liviya",
        "name:azb": "\u0644\u06cc\u0628\u06cc",
        "name:ba": "\u041b\u0438\u0432\u0438\u044f",
        "name:bar": "Libyen",
        "name:bat-smg": "L\u0117b\u0117j\u0117",
        "name:bcl": "Libya",
        "name:be": "\u041b\u0456\u0432\u0456\u044f",
        "name:be-tarask": "\u041b\u0456\u0431\u0456\u044f",
        "name:ber": "\u2d4d\u2d49\u2d31\u2d62\u2d30",
        "name:bg": "\u041b\u0438\u0431\u0438\u044f",
        "name:bjn": "Libya",
        "name:bm": "Libya",
        "name:bn": "\u09b2\u09bf\u09ac\u09bf\u09af\u09bc\u09be",
        "name:bo": "\u0f63\u0f72\u0f0b\u0f54\u0f72\u0f0b\u0f61\u0f0d",
        "name:bpy": "\u09b2\u09bf\u09ac\u09bf\u09af\u09bc\u09be",
        "name:br": "Libia",
        "name:bs": "Libija",
        "name:bug": "Libya",
        "name:bxr": "\u041b\u0438\u0432\u0438",
        "name:ca": "L\u00edbia",
        "name:cbk-zam": "Libya",
        "name:ce": "\u041b\u0438\u0432\u0438",
        "name:ceb": "Libya",
        "name:ckb": "\u0644\u06cc\u0628\u06cc\u0627",
        "name:cop": "\u03ef\u2c96\u2ca9\u2c83\u2c8f",
        "name:crh": "Libiya",
        "name:cs": "Libye",
        "name:cv": "\u041b\u0438\u0432\u0438",
        "name:cy": "Libya",
        "name:da": "Libyen",
        "name:de": "Libyen",
        "name:din": "Libya",
        "name:diq": "Libya",
        "name:dsb": "Libyska",
        "name:dv": "\u078d\u07a9\u0784\u07a8\u0794\u07a7",
        "name:ee": "Libya",
        "name:el": "\u039b\u03b9\u03b2\u03cd\u03b7",
        "name:en": "Libya",
        "name:eo": "Libio",
        "name:es": "Libia",
        "name:et": "Liib\u00fca",
        "name:eu": "Libia",
        "name:ext": "L\u00edbia",
        "name:fa": "\u0644\u06cc\u0628\u06cc",
        "name:fi": "Libya",
        "name:fo": "Libya",
        "name:fr": "Libye",
        "name:frp": "Libie",
        "name:frr": "Libyen",
        "name:fy": "Lybje",
        "name:ga": "An Libia",
        "name:gag": "Liviya",
        "name:gd": "Libia",
        "name:gl": "Libia",
        "name:gn": "Livia",
        "name:grc": "\u039a\u03c5\u03c1\u03b7\u03bd\u03b1\u03ca\u03ba\u03ae",
        "name:gv": "Yn Leeb",
        "name:ha": "Libya",
        "name:hak": "Libya",
        "name:he": "\u05dc\u05d5\u05d1",
        "name:hi": "\u0932\u0940\u092c\u093f\u092f\u093e",
        "name:hif": "Libya",
        "name:hr": "Libija",
        "name:hsb": "Libyska",
        "name:ht": "Libi",
        "name:hu": "L\u00edbia",
        "name:hy": "\u053c\u056b\u0562\u056b\u0561",
        "name:hyw": "\u053c\u056b\u057a\u056b\u0561",
        "name:ia": "Libya",
        "name:id": "Libya",
        "name:ie": "Libya",
        "name:ilo": "Libya",
        "name:io": "Libia",
        "name:is": "L\u00edb\u00fda",
        "name:it": "Libia",
        "name:ja": "\u30ea\u30d3\u30a2",
        "name:jbo": "libgu'e",
        "name:jv": "Libya",
        "name:ka": "\u10da\u10d8\u10d1\u10d8\u10d0",
        "name:kab": "Libya",
        "name:kg": "Libia",
        "name:kk": "\u041b\u0438\u0432\u0438\u044f",
        "name:kl": "Libya",
        "name:kn": "\u0cb2\u0cbf\u0cac\u0cbf\u0caf\u0cbe",
        "name:ko": "\ub9ac\ube44\uc544",
        "name:ks": "\u0644\u0650\u0628\u06cc\u0627",
        "name:ku": "L\u00eebya",
        "name:ku-Arab": "\u0644\u06cc\u0628\u06cc\u0627",
        "name:kw": "Libi",
        "name:ky": "\u041b\u0438\u0432\u0438\u044f",
        "name:la": "Libya",
        "name:lad": "Libya",
        "name:lb": "Libyen",
        "name:li": "Libi\u00eb",
        "name:lij": "Libia",
        "name:lmo": "Libia",
        "name:ln": "Lib\u00eeya",
        "name:lt": "Libija",
        "name:lv": "L\u012bbija",
        "name:lzh": "\u5229\u6bd4\u4e9e",
        "name:map-bms": "Libya",
        "name:mdf": "\u041b\u0438\u0432\u0438\u0435",
        "name:mg": "Libia",
        "name:mi": "R\u012bpia",
        "name:min": "Libya",
        "name:mk": "\u041b\u0438\u0431\u0438\u0458\u0430",
        "name:ml": "\u0d32\u0d3f\u0d2c\u0d3f\u0d2f",
        "name:mn": "\u041b\u0438\u0432\u0438",
        "name:mr": "\u0932\u0940\u092c\u093f\u092f\u093e",
        "name:mrj": "\u041b\u0438\u0432\u0438",
        "name:ms": "Libya",
        "name:mt": "Libja",
        "name:my": "\u101c\u1005\u103a\u1017\u103b\u102c\u1038\u1014\u102d\u102f\u1004\u103a\u1004\u1036",
        "name:mzn": "\u0644\u06cc\u0628\u06cc",
        "name:nah": "Libia",
        "name:nan": "Libya",
        "name:nap": "Libbia",
        "name:nds": "Libyen",
        "name:nds-nl": "Libi\u00eb",
        "name:ne": "\u0932\u093f\u092c\u093f\u092f\u093e",
        "name:new": "\u0932\u093f\u092c\u094d\u092f\u093e",
        "name:nl": "Libi\u00eb",
        "name:nn": "Libya",
        "name:no": "Libya",
        "name:nov": "Libia",
        "name:nso": "Libya",
        "name:nv": "\u0141\u00edbya",
        "name:oc": "Libia",
        "name:or": "\u0b32\u0b3f\u0b2c\u0b3f\u0b06",
        "name:os": "\u041b\u0438\u0432\u0438",
        "name:pa": "\u0a32\u0a40\u0a2c\u0a40\u0a06",
        "name:pag": "Libia",
        "name:pam": "Libya",
        "name:pap": "Libia",
        "name:pfl": "Libye",
        "name:pih": "Libiia",
        "name:pl": "Libia",
        "name:pms": "Libia",
        "name:pnb": "\u0644\u0628\u06cc\u0627",
        "name:ps": "\u0644\u06d0\u0628\u064a\u0627",
        "name:pt": "L\u00edbia",
        "name:qu": "Libya",
        "name:ro": "Libia",
        "name:ru": "\u041b\u0438\u0432\u0438\u044f",
        "name:rue": "\u041b\u0456\u0431\u0456\u044f",
        "name:rw": "Libiya",
        "name:sa": "\u0932\u093f\u092c\u093f\u092f\u093e",
        "name:sah": "\u041b\u0438\u0438\u0431\u0438\u0439\u044d",
        "name:sc": "L\u00ecbia",
        "name:scn": "Libbia",
        "name:sco": "Libie",
        "name:se": "Libya",
        "name:sg": "Lib\u00efi",
        "name:sh": "Libija",
        "name:si": "\u0dbd\u0dd2\u0db6\u0dd2\u0dba\u0dcf\u0dc0",
        "name:simple": "Libya",
        "name:sk": "L\u00edbya",
        "name:sl": "Libija",
        "name:sm": "Libya",
        "name:smn": "Libya",
        "name:sms": "Libya",
        "name:sn": "Libya",
        "name:so": "Libiya",
        "name:sq": "Libia",
        "name:sr": "\u041b\u0438\u0431\u0438\u0458\u0430",
        "name:ss": "ILibhiya",
        "name:stq": "Libyen",
        "name:su": "Libya",
        "name:sv": "Libyen",
        "name:sw": "Libya",
        "name:syc": "\u0720\u0718\u0712\u0710",
        "name:szl": "Libijo",
        "name:ta": "\u0bb2\u0bbf\u0baa\u0bbf\u0baf\u0bbe",
        "name:te": "\u0c32\u0c3f\u0c2c\u0c3f\u0c2f\u0c3e",
        "name:tg": "\u041b\u0438\u0431\u0438\u044f",
        "name:th": "\u0e1b\u0e23\u0e30\u0e40\u0e17\u0e28\u0e25\u0e34\u0e40\u0e1a\u0e35\u0e22",
        "name:ti": "\u120a\u1262\u12eb",
        "name:tk": "Liwi\u00fda",
        "name:tl": "Libya",
        "name:tr": "Libya",
        "name:ts": "Libiya",
        "name:tt": "\u041b\u0438\u0432\u0438\u044f",
        "name:tzl": "Libia",
        "name:ug": "\u0644\u0649\u06cb\u0649\u064a\u06d5",
        "name:uk": "\u041b\u0456\u0432\u0456\u044f",
        "name:ur": "\u0644\u06cc\u0628\u06cc\u0627",
        "name:uz": "Liviya",
        "name:vec": "\u0141ibia",
        "name:vi": "Libya",
        "name:vls": "Libi\u00eb",
        "name:vo": "L\u00fcb\u00e4n",
        "name:vro": "Liib\u00fc\u00e4",
        "name:wa": "Libeye",
        "name:war": "Libya",
        "name:wo": "Libi",
        "name:xal": "\u041b\u0438\u0431\u0443\u0434\u0438\u043d \u0410\u04bb\u0443 \u0421\u043e\u0446\u0438\u0433\u0430\u043b\u0438\u0437\u043c\u0438\u043d \u0410\u0440\u0430\u0431 \u0423\u043b\u0441 \u041e\u0440\u043d",
        "name:xmf": "\u10da\u10d8\u10d1\u10d8\u10d0",
        "name:yi": "\u05dc\u05d9\u05d1\u05d9\u05e2",
        "name:yo": "L\u00edby\u00e0",
        "name:yue": "\u5229\u6bd4\u4e9e",
        "name:zea": "Libi\u00eb",
        "name:zgh": "\u2d4d\u2d49\u2d31\u2d62\u2d30",
        "name:zh": "\u5229\u6bd4\u4e9a",
        "name:zh-Hans": "\u5229\u6bd4\u4e9a",
        "name:zh-Hant": "\u5229\u6bd4\u4e9e",
        "name:zu": "ILibiya",
        "official_name": "\u062f\u0648\u0644\u0629 \u0644\u064a\u0628\u064a\u0627",
        "official_name:af": "Staat Libi\u00eb",
        "official_name:ar": "\u062f\u0648\u0644\u0629 \u0644\u064a\u0628\u064a\u0627",
        "official_name:ca": "Estat de L\u00edbia",
        "official_name:cs": "Libyjsk\u00fd st\u00e1t",
        "official_name:de": "Staat Libyen",
        "official_name:es": "Estado de Libia",
        "official_name:fa": "\u062f\u0648\u0644\u062a \u0644\u06cc\u0628\u06cc",
        "official_name:fr": "\u00c9tat de Libye",
        "official_name:grc": "\u03a0\u03bf\u03bb\u03b9\u03c4\u03b5\u03af\u03b1 \u03c4\u1fc6\u03c2 \u039a\u03c5\u03c1\u03b7\u03bd\u03b1\u03ca\u03ba\u1fc6\u03c2",
        "official_name:nl": "Staat Libi\u00eb",
        "official_name:sr": "\u0414\u0440\u0436\u0430\u0432\u0430 \u041b\u0438\u0431\u0438\u0458\u0430",
        "official_name:ur": "\u0631\u06cc\u0627\u0633\u062a \u0644\u06cc\u0628\u06cc\u0627",
        "timezone": "Africa/Tripoli",
        "type": "boundary",
        "wikidata": "Q1016",
        "wikipedia": "ar:\u0644\u064a\u0628\u064a\u0627"
      }
    },
    {
      "type": "relation",
      "id": 2060169,
      "tags": {
        "ISO3166-2": "LY-WA",
        "admin_level": "4",
        "alt_name:en": "Al Wahat District",
        "alt_name:es": "Distrito de Al Wahat",
        "boundary": "administrative",
        "name": "\u0627\u0644\u0648\u0627\u062d\u0627\u062a",
        "name:ar": "\u0627\u0644\u0648\u0627\u062d\u0627\u062a",
        "name:be": "\u041c\u0443\u043d\u0456\u0446\u044b\u043f\u0430\u043b\u0456\u0442\u044d\u0442 \u042d\u043b\u044c-\u0412\u0430\u0445\u0430\u0442",
        "name:be-tarask": "\u042d\u043b\u044c-\u0412\u0430\u0433\u0430\u0442",
        "name:ca": "Al Wahat",
        "name:ceb": "Sha\u2018b\u012byat al W\u0101\u1e29\u0101t",
        "name:cs": "Al W\u00e1h\u00e1t",
        "name:da": "Al Wahat",
        "name:de": "Al-Wahat",
        "name:en": "Al Wahat",
        "name:es": "Al Wahat",
        "name:eu": "Al Wahat",
        "name:fa": "\u0648\u0627\u062d\u0627\u062a",
        "name:fr": "Al Wahat",
        "name:hu": "V\u00e1h\u00e1t tartom\u00e1ny",
        "name:it": "Al-Wahat",
        "name:ja": "\u30a2\u30eb\u30fb\u30ef\u30fc\u30cf\u30fc\u30c8\u770c",
        "name:ka": "\u10d4\u10da-\u10d5\u10d0\u10ee\u10d0\u10e2\u10d8",
        "name:ko": "\uc54c\uc640\ud558\ud2b8\uc8fc",
        "name:lt": "Vahato savivaldyb\u0117",
        "name:nl": "Al Wahat",
        "name:no": "Al Wahat",
        "name:pl": "Al-Wahat",
        "name:pt": "O\u00e1sis",
        "name:ro": "Districtul Al Wahat",
        "name:ru": "\u042d\u043b\u044c-\u0412\u0430\u0445\u0430\u0442",
        "name:sco": "Al Wahat Destrict",
        "name:sh": "Vahat",
        "name:sv": "Al Wahat",
        "name:tg": "\u0412\u0438\u043b\u043e\u044f\u0442\u0438 \u0410\u043b \u0412\u0430\u04b3\u0430\u0442",
        "name:uk": "\u0415\u043b\u044c-\u0412\u0430\u0445\u0430\u0442",
        "name:ur": "\u0627\u0644\u0648\u0627\u062d\u0627\u062a",
        "name:zh": "\u7eff\u6d32\u7701",
        "name:zu": "Al Wahat District",
        "official_name": "\u0634\u0639\u0628\u064a\u0629 \u0627\u0644\u0648\u0627\u062d\u0627\u062a",
        "official_name:ar": "\u0634\u0639\u0628\u064a\u0629 \u0627\u0644\u0648\u0627\u062d\u0627\u062a",
        "official_name:de": "Munizip al-Wahat",
        "official_name:fa": "\u0627\u0633\u062a\u0627\u0646 \u0648\u0627\u062d\u0627\u062a",
        "official_name:it": "Distretto di Al-Wahat",
        "official_name:ur": "\u0627\u0644\u0648\u0627\u062d\u0627\u062a \u0636\u0644\u0639",
        "type": "boundary",
        "wikidata": "Q26000",
        "wikipedia": "ar:\u0634\u0639\u0628\u064a\u0629 \u0627\u0644\u0648\u0627\u062d\u0627\u062a"
      }
    },
    {
      "type": "relation",
      "id": 2060170,
      "tags": {
        "ISO3166-2": "LY-BA",
        "admin_level": "4",
        "alt_name:ar": "\u0634\u0639\u0628\u064a\u0629 \u0628\u0646\u063a\u0627\u0632\u064a",
        "alt_name:es": "Distrito de Bengasi",
        "boundary": "administrative",
        "int_name": "Benghazi",
        "name": "\u0628\u0646\u063a\u0627\u0632\u064a",
        "name:ar": "\u0628\u0646\u063a\u0627\u0632\u064a",
        "name:be-tarask": "\u0411\u044d\u043d\u0433\u0430\u0437\u0456",
        "name:ca": "Bengasi",
        "name:de": "Munizip Bengasi",
        "name:en": "Benghazi",
        "name:es": "Bengasi",
        "name:fr": "Benghazi",
        "name:hu": "Beng\u00e1zi tartom\u00e1ny",
        "name:hy": "\u0532\u0565\u0576\u0563\u0561\u0566\u056b",
        "name:it": "Distretto di Bengasi",
        "name:ja": "\u30d9\u30f3\u30ac\u30b8\u770c",
        "name:ka": "\u10d1\u10d4\u10dc\u10e6\u10d0\u10d6\u10d8\u10e1 \u10e0\u10d0\u10d8\u10dd\u10dc\u10d8",
        "name:nl": "Benghazi",
        "name:pl": "Bengazi",
        "name:pt": "Bengasi",
        "name:ro": "Districtul Benghazi",
        "name:ru": "\u0411\u0435\u043d\u0433\u0430\u0437\u0438",
        "name:sh": "Bengazi",
        "name:sk": "Beng\u00e1zi",
        "name:sv": "Benghazi",
        "name:uk": "\u0411\u0435\u043d\u0433\u0430\u0437\u0456",
        "type": "boundary",
        "wikidata": "Q33507",
        "wikipedia": "ar:\u0634\u0639\u0628\u064a\u0629 \u0628\u0646\u063a\u0627\u0632\u064a"
      }
    },
    {
      "type": "relation",
      "id": 2060171,
      "tags": {
        "ISO3166-2": "LY-BU",
        "admin_level": "4",
        "alt_name:ar": "\u0634\u0639\u0628\u064a\u0629 \u0627\u0644\u0628\u0637\u0646\u0627\u0646",
        "alt_name:de": "Munizip al-Butnan",
        "alt_name:es": "Distrito de Al Butnan",
        "alt_name:fa": "\u0627\u0633\u062a\u0627\u0646 \u0628\u0637\u0646\u0627\u0646",
        "alt_name:it": "Distretto di al-Butnan",
        "alt_name:ur": "\u0628\u0637\u0646\u0627\u0646 \u0636\u0644\u0639",
        "boundary": "administrative",
        "name": "\u0627\u0644\u0628\u0637\u0646\u0627\u0646",
        "name:ar": "\u0627\u0644\u0628\u0637\u0646\u0627\u0646",
        "name:be-tarask": "\u042d\u043b\u044c-\u0411\u0443\u0442\u043d\u0430\u043d",
        "name:bg": "\u0411\u0443\u0442\u043d\u0430\u043d",
        "name:ca": "Al Butnan",
        "name:ceb": "Sha\u2018b\u012byat al Bu\u0163n\u0101n",
        "name:da": "Al Butnan",
        "name:de": "Al-Butnan",
        "name:en": "Butnan",
        "name:es": "Al Butnan",
        "name:eu": "Al Butnan",
        "name:fa": "\u0628\u0637\u0646\u0627\u0646",
        "name:fr": "Al Boutnan",
        "name:hu": "Butn\u00e1n tartom\u00e1ny",
        "name:hy": "\u0537\u056c-\u0532\u0578\u0582\u057f\u0576\u0561\u0576",
        "name:id": "Butnan",
        "name:it": "Al-Butnan",
        "name:ja": "\u30d6\u30c8\u30ca\u30fc\u30f3\u770c",
        "name:ka": "\u10d4\u10da-\u10d1\u10e3\u10e2\u10dc\u10d0\u10dc\u10d8",
        "name:ko": "\ubd80\ud2b8\ub09c\uc8fc",
        "name:lt": "Butnano savivaldyb\u0117",
        "name:ms": "Butnan",
        "name:nl": "Al Butnan",
        "name:no": "Al Butnan",
        "name:pl": "Al-Butnan",
        "name:pt": "Butnane",
        "name:ro": "Districtul Al Butnan",
        "name:ru": "\u042d\u043b\u044c-\u0411\u0443\u0442\u043d\u0430\u043d",
        "name:sco": "Al Butnan Destrict",
        "name:sh": "Butnan",
        "name:sv": "Al Butnan",
        "name:tg": "\u0412\u0438\u043b\u043e\u044f\u0442\u0438 \u0410\u043b-\u0411\u0443\u0442\u043d\u043e\u043d",
        "name:tr": "El Butnan ili",
        "name:uk": "\u0415\u043b\u044c-\u0411\u0443\u0442\u043d\u0430\u043d",
        "name:ur": "\u0628\u0637\u0646\u0627\u0646",
        "name:zh": "\u5e03\u7279\u5357\u7701",
        "name:zu": "Butnan District",
        "official_name": "\u0634\u0639\u0628\u064a\u0629 \u0627\u0644\u0628\u0637\u0646\u0627\u0646",
        "official_name:ar": "\u0634\u0639\u0628\u064a\u0629 \u0627\u0644\u0628\u0637\u0646\u0627\u0646",
        "official_name:de": "Munizip al-Butnan",
        "official_name:fa": "\u0627\u0633\u062a\u0627\u0646 \u0628\u0637\u0646\u0627\u0646",
        "official_name:it": "Distretto di Al-Butnan",
        "official_name:ur": "\u0628\u0637\u0646\u0627\u0646 \u0636\u0644\u0639",
        "type": "boundary",
        "wikidata": "Q25931",
        "wikipedia": "ar:\u0634\u0639\u0628\u064a\u0629 \u0627\u0644\u0628\u0637\u0646\u0627\u0646"
      }
    },
    {
      "type": "relation",
      "id": 2060172,
      "tags": {
        "ISO3166-2": "LY-DR",
        "admin_level": "4",
        "alt_name:ar": "\u0634\u0639\u0628\u064a\u0629 \u062f\u0631\u0646\u0629",
        "alt_name:es": "Distrito de Derna",
        "alt_name:fa": "\u0627\u0633\u062a\u0627\u0646 \u062f\u0631\u0646\u0647",
        "alt_name:fr": "Derna",
        "alt_name:ur": "\u062f\u0631\u0646\u06c1 \u0636\u0644\u0639",
        "boundary": "administrative",
        "name": "\u062f\u0631\u0646\u0629",
        "name:ar": "\u062f\u0631\u0646\u0629",
        "name:azb": "\u062f\u0631\u0646\u0647",
        "name:be-tarask": "\u0414\u044d\u0440\u043d\u0430",
        "name:bg": "\u0414\u0430\u0440\u043d\u0430",
        "name:ca": "Derna",
        "name:ceb": "Darnah",
        "name:da": "Darnah",
        "name:de": "Munizip Darna",
        "name:en": "Derna",
        "name:es": "Derna",
        "name:eu": "Derna",
        "name:fa": "\u062f\u0631\u0646\u0647",
        "name:fr": "Darnah",
        "name:hu": "Darna tartom\u00e1ny",
        "name:hy": "\u0534\u0565\u0580\u0576\u0561",
        "name:it": "Distretto di Derna",
        "name:ja": "\u30c7\u30eb\u30ca\u770c",
        "name:ka": "\u10d3\u10d0\u10e0\u10dc\u10d8\u10e1 \u10e0\u10d0\u10d8\u10dd\u10dc\u10d8",
        "name:ko": "\ub370\ub974\ub098\uc8fc",
        "name:ks": "\u062f\u0631\u0646\u06c1",
        "name:lt": "Darnos savivaldyb\u0117",
        "name:nl": "Derna",
        "name:no": "Darnah",
        "name:ota": "\u062f\u0631\u0646\u0647",
        "name:pl": "Darna",
        "name:pnb": "\u062f\u0631\u0646\u06c1",
        "name:pt": "Derna",
        "name:ro": "Districtul Darnah",
        "name:ru": "\u0414\u0435\u0440\u043d\u0430",
        "name:sco": "Darnah Destrict",
        "name:sh": "Derna",
        "name:sv": "Darnah",
        "name:tg": "\u0412\u0438\u043b\u043e\u044f\u0442\u0438 \u0414\u0430\u0440\u043d\u0430\u04b3",
        "name:uk": "\u0414\u0435\u0440\u043d\u0430",
        "name:ur": "\u062f\u0631\u0646\u06c1",
        "name:zh": "\u5fb7\u723e\u7d0d\u7701",
        "name:zu": "Derna District",
        "official_name": "\u0628\u0644\u062f\u064a\u0629 \u062f\u0631\u0646\u0629",
        "official_name:ar": "\u0628\u0644\u062f\u064a\u0629 \u062f\u0631\u0646\u0629",
        "type": "boundary",
        "wikidata": "Q26124",
        "wikipedia": "ar:\u0628\u0644\u062f\u064a\u0629 \u062f\u0631\u0646\u0629",
        "wikipedia:ar": "\u0628\u0644\u062f\u064a\u0629 \u062f\u0631\u0646\u0629"
      }
    },
    {
      "type": "relation",
      "id": 2060173,
      "tags": {
        "ISO3166-2": "LY-GT",
        "admin_level": "4",
        "alt_name:ar": "\u0634\u0639\u0628\u064a\u0629 \u063a\u0627\u062a",
        "alt_name:azb": "\u0627\u0633\u062a\u0627\u0646 \u063a\u0627\u062a",
        "alt_name:es": "Distrito de Ghat",
        "alt_name:fa": "\u0627\u0633\u062a\u0627\u0646 \u063a\u0627\u062a",
        "alt_name:ur": "\u063a\u0627\u062a \u0636\u0644\u0639",
        "boundary": "administrative",
        "int_name": "Ghat",
        "name": "\u063a\u0627\u062a",
        "name:ar": "\u063a\u0627\u062a",
        "name:azb": "\u063a\u0627\u062a",
        "name:be-tarask": "\u0413\u0430\u0442",
        "name:ceb": "Sha\u2018b\u012byat Gh\u0101t",
        "name:da": "Ghat",
        "name:de": "Munizip Ghat",
        "name:en": "Ghat",
        "name:es": "Ghat",
        "name:eu": "Ghat",
        "name:fa": "\u063a\u0627\u062a",
        "name:fr": "Ghat",
        "name:hu": "G\u00e1t tartom\u00e1ny",
        "name:it": "Distretto di Gat",
        "name:ja": "\u30ac\u30fc\u30c8\u770c",
        "name:ka": "\u10e6\u10d0\u10d7\u10d8\u10e1 \u10e0\u10d0\u10d8\u10dd\u10dc\u10d8",
        "name:ko": "\uac00\ud2b8\uc8fc",
        "name:lt": "Gato savivaldyb\u0117",
        "name:nl": "Ghat",
        "name:no": "Ghat",
        "name:pl": "Ghat",
        "name:pt": "Gate",
        "name:ro": "Districtul Ghat",
        "name:ru": "\u0413\u0430\u0442",
        "name:sco": "Ghat Destrict",
        "name:sh": "Gat",
        "name:sv": "Ghat",
        "name:tg": "\u0412\u0438\u043b\u043e\u044f\u0442\u0438 \u0492\u0430\u0442",
        "name:uk": "\u0413\u0430\u0442",
        "name:ur": "\u063a\u0627\u062a",
        "name:zh": "\u52a0\u7279\u7701",
        "name:zu": "Ghat District",
        "official_name": "\u0634\u0639\u0628\u064a\u0629 \u063a\u0627\u062a",
        "official_name:ar": "\u0634\u0639\u0628\u064a\u0629 \u063a\u0627\u062a",
        "type": "boundary",
        "wikidata": "Q48236",
        "wikipedia": "ar:\u0634\u0639\u0628\u064a\u0629 \u063a\u0627\u062a"
      }
    },
    {
      "type": "relation",
      "id": 2060174,
      "tags": {
        "ISO3166-2": "LY-JA",
        "admin_level": "4",
        "alt_name:ar": "\u0634\u0639\u0628\u064a\u0629 \u0627\u0644\u062c\u0628\u0644 \u0627\u0644\u0623\u062e\u0636\u0631",
        "alt_name:es": "Distrito de Al Jabal al Akhdar",
        "alt_name:ru": "\u042d\u043b\u044c-\u0414\u0436\u0435\u0431\u0435\u043b\u044c-\u044d\u043b\u044c-\u0410\u0445\u0434\u0430\u0440",
        "boundary": "administrative",
        "int_name": "Jabal al Akhdar",
        "name": "\u0627\u0644\u062c\u0628\u0644 \u0627\u0644\u0623\u062e\u0636\u0631",
        "name:ar": "\u0627\u0644\u062c\u0628\u0644 \u0627\u0644\u0623\u062e\u0636\u0631",
        "name:az": "\u018fl-C\u0259b\u0259l \u0259l-\u018fxdar",
        "name:be-tarask": "\u042d\u043b\u044c-\u0414\u0436\u044d\u0431\u0430\u043b\u044c-\u044d\u043b\u044c-\u0410\u0445\u0434\u0430\u0440",
        "name:ca": "Al Jabal al Akhdar",
        "name:ceb": "Sha\u2018b\u012byat al Jabal al Akh\u1e11ar",
        "name:da": "Al Jabal al Akhdar",
        "name:de": "Munizip al-Dschabal al-Achdar",
        "name:en": "Jabal al Akhdar",
        "name:es": "Al Jabal al Akhdar",
        "name:eu": "Al Jabal al Akhdar",
        "name:fa": "\u0627\u0644\u062c\u0628\u0644 \u0627\u0644\u0627\u062e\u0636\u0631",
        "name:fi": "Al Jabal al Akhdar",
        "name:fr": "Al Jabal al Akhdar",
        "name:hu": "Dzsabal el-Ahdar tartom\u00e1ny",
        "name:id": "Al Jabal al Akhdar",
        "name:it": "Distretto di Al-Jabal Al-Akhdar",
        "name:ja": "\u30b8\u30e3\u30d0\u30eb\u30fb\u30a2\u30eb\u30fb\u30a2\u30d5\u30c0\u30eb\u770c",
        "name:ka": "\u10d4\u10da-\u10ef\u10d4\u10d1\u10d0\u10da-\u10d4\u10da-\u10d0\u10ee\u10d3\u10d0\u10e0\u10d8",
        "name:ko": "\uc790\ubc1c\uc54c\uc544\ud06c\ub2e4\ub974\uc8fc",
        "name:lt": "D\u017eabal al Achdaro savivaldyb\u0117",
        "name:nl": "Al Jabal al Akhdar",
        "name:no": "Al Jabal al Akhdar",
        "name:pl": "Al-D\u017cabal al-Achdar",
        "name:pt": "Jabal Acdar",
        "name:ro": "Districtul Al Jabal al Akhdar",
        "name:ru": "\u042d\u043b\u044c-\u0414\u0436\u0435\u0431\u0430\u043b-\u042d\u043b\u044c-\u0410\u0445\u0434\u0430\u0440",
        "name:sco": "Al Jabal al Akhdar Destrict",
        "name:sh": "D\u017eabal al Akhdar",
        "name:sv": "Al Jabal al Akhdar",
        "name:tg": "\u0412\u0438\u043b\u043e\u044f\u0442\u0438 \u0410\u043b \u04b6\u0430\u0431\u0430\u043b \u0430\u043b \u0410x\u0434\u0430\u0440",
        "name:uk": "\u0415\u043b\u044c-\u0414\u0436\u0435\u0431\u0430\u043b \u0415\u043b\u044c-\u0410\u0445\u0434\u0430\u0440",
        "name:ur": "\u062c\u0628\u0644 \u0627\u0644\u0627\u062e\u0636\u0631",
        "name:zh": "\u7eff\u5c71\u7701",
        "name:zu": "Jabal al Akhdar",
        "type": "boundary",
        "wikidata": "Q32841",
        "wikipedia": "en:Jabal al Akhdar"
      }
    },
    {
      "type": "relation",
      "id": 2060175,
      "tags": {
        "ISO3166-2": "LY-JG",
        "admin_level": "4",
        "alt_name:ar": "\u0634\u0639\u0628\u064a\u0629 \u0627\u0644\u062c\u0628\u0644 \u0627\u0644\u063a\u0631\u0628\u064a",
        "alt_name:es": "Distrito de Al Jabal al Gharbi",
        "alt_name:it": "Distretto di al-Jabal al-Gharbi",
        "alt_name:ru": "\u042d\u043b\u044c-\u0414\u0436\u0435\u0431\u0435\u043b\u044c-\u044d\u043b\u044c-\u0413\u0430\u0440\u0431\u0438",
        "alt_name:uk": "\u0415\u043b\u044c-\u0414\u0436\u0430\u0431\u0430\u043b-\u0435\u043b\u044c-\u0490\u0430\u0440\u0431\u0456",
        "boundary": "administrative",
        "int_name": "Jabal al Gharbi",
        "name": "\u0627\u0644\u062c\u0628\u0644 \u0627\u0644\u063a\u0631\u0628\u064a",
        "name:ar": "\u0627\u0644\u062c\u0628\u0644 \u0627\u0644\u063a\u0631\u0628\u064a",
        "name:be": "\u041c\u0443\u043d\u0456\u0446\u044b\u043f\u0430\u043b\u0456\u0442\u044d\u0442 \u042d\u043b\u044c-\u0414\u0436\u0430\u0431\u0430\u043b-\u044d\u043b\u044c-\u0413\u0430\u0440\u0431\u0456",
        "name:be-tarask": "\u042d\u043b\u044c-\u0414\u0436\u044d\u0431\u0430\u043b\u044c-\u044d\u043b\u044c-\u0413\u0430\u0440\u0431\u0456",
        "name:ca": "Al Jabal al Gharbi",
        "name:ceb": "Sha\u2018b\u012byat al Jabal al Gharb\u012b",
        "name:de": "Munizip al-Dschabal al-Gharbi",
        "name:en": "Jabal al Gharbi",
        "name:es": "Al Jabal al Gharbi",
        "name:fa": "\u0627\u0633\u062a\u0627\u0646 \u062c\u0628\u0644 \u063a\u0631\u0628\u06cc",
        "name:fr": "Al Djabal al Gharbi",
        "name:hu": "Dzsabal el-Garbi tartom\u00e1ny",
        "name:id": "Distrik Al Jabal al Gharbi",
        "name:it": "Distretto di Gebel Garbi",
        "name:ja": "\u30b8\u30e3\u30d0\u30eb\u30fb\u30a2\u30eb\u30fb\u30ac\u30eb\u30d3\u770c",
        "name:ka": "\u10d4\u10da-\u10ef\u10d0\u10d1\u10d0\u10da-\u10d4\u10da-\u10e6\u10d0\u10e0\u10d1\u10d8",
        "name:ko": "\uc790\ubc1c\uc54c\uac00\ub974\ube44\uc8fc",
        "name:nl": "Al Jabal al Gharbi",
        "name:pl": "Al-D\u017cabal al-Gharbi",
        "name:pt": "Jabal Algarbi",
        "name:ru": "\u042d\u043b\u044c-\u0414\u0436\u0430\u0431\u0430\u043b-\u044d\u043b\u044c-\u0413\u0430\u0440\u0431\u0438",
        "name:sco": "Al Jabal al Gharbi Destrict",
        "name:sh": "D\u017eabal al Garbi",
        "name:sv": "Al Jabal al Gharbi",
        "name:uk": "\u0415\u043b\u044c-\u0414\u0436\u0430\u0431\u0430\u043b \u0435\u043b\u044c-\u0413\u0430\u0440\u0431\u0456",
        "name:ur": "\u062c\u0628\u0644 \u0627\u0644\u063a\u0631\u0628\u06cc \u0636\u0644\u0639",
        "name:zh": "\u897f\u5c71\u7701",
        "name:zu": "Jabal al Gharbi District",
        "type": "boundary",
        "wikidata": "Q25632",
        "wikipedia": "en:Jabal al Gharbi District"
      }
    },
    {
      "type": "relation",
      "id": 2060176,
      "tags": {
        "ISO3166-2": "LY-JI",
        "admin_level": "4",
        "alt_name:ar": "\u0634\u0639\u0628\u064a\u0629 \u0627\u0644\u062c\u0641\u0627\u0631\u0629",
        "alt_name:de": "Munizip al-Dschifara",
        "alt_name:es": "Distrito de Al Jfara",
        "alt_name:it": "Distretto di Gefara",
        "boundary": "administrative",
        "name": "\u0627\u0644\u062c\u0641\u0627\u0631\u0629",
        "name:ar": "\u0627\u0644\u062c\u0641\u0627\u0631\u0629",
        "name:be": "\u041c\u0443\u043d\u0456\u0446\u044b\u043f\u0430\u043b\u0456\u0442\u044d\u0442 \u042d\u043b\u044c-\u0414\u0436\u044b\u0444\u0430\u0440\u0430",
        "name:be-tarask": "\u042d\u043b\u044c-\u0414\u0436\u044b\u0444\u0430\u0440\u0430",
        "name:ca": "Al Jfara",
        "name:ceb": "Sha\u2018b\u012byat al Jaf\u0101rah",
        "name:da": "Al Jfara",
        "name:de": "al-Dschifara",
        "name:en": "Jafara",
        "name:es": "Al Jfara",
        "name:eu": "Al Jfara",
        "name:fa": "\u0627\u0644\u062c\u0641\u0627\u0631\u0647",
        "name:fr": "Al Djfara",
        "name:hu": "Dzsif\u00e1ra tartom\u00e1ny",
        "name:it": "Gefara",
        "name:ja": "\u30b8\u30d5\u30a1\u30fc\u30e9\u770c",
        "name:ka": "\u10d4\u10da-\u10ef\u10d8\u10e4\u10d0\u10e0\u10d0",
        "name:ko": "\uc9c0\ud30c\ub77c\uc8fc",
        "name:lt": "D\u017efaros savivaldyb\u0117",
        "name:nl": "Al Jfara",
        "name:no": "Al Jfara",
        "name:pl": "Al-D\u017cifara",
        "name:pt": "Jafara",
        "name:ro": "Districtul Al 'Aziziyah",
        "name:ru": "\u042d\u043b\u044c-\u0414\u0436\u0438\u0444\u0430\u0440\u0430",
        "name:sco": "Al Jfara Destrict",
        "name:sh": "D\u017eafara",
        "name:sv": "Al Jfara",
        "name:tg": "\u0412\u0438\u043b\u043e\u044f\u0442\u0438 \u0410\u043b-\u04b6\u0438\u0444\u043e\u0440\u0430",
        "name:tr": "Cefara ili",
        "name:uk": "\u0415\u043b\u044c-\u0414\u0436\u0438\u0444\u0430\u0440\u0430",
        "name:ur": "\u062c\u0641\u0627\u0631\u06c1",
        "name:zh": "\u5409\u6cd5\u62c9\u7701",
        "name:zu": "Jafara District",
        "official_name": "\u0645\u062d\u0627\u0641\u0638\u0629 \u0627\u0644\u062c\u0641\u0627\u0631\u0629",
        "official_name:ar": "\u0645\u062d\u0627\u0641\u0638\u0629 \u0627\u0644\u062c\u0641\u0627\u0631\u0629",
        "official_name:de": "Munizip al-Dschifara",
        "official_name:it": "Distretto di Gefara",
        "type": "boundary",
        "wikidata": "Q329060",
        "wikipedia": "ar:\u0634\u0639\u0628\u064a\u0629 \u0627\u0644\u062c\u0641\u0627\u0631\u0629"
      }
    },
    {
      "type": "relation",
      "id": 2060177,
      "tags": {
        "ISO3166-2": "LY-JU",
        "admin_level": "4",
        "alt_name:en": "Jufra District",
        "alt_name:es": "Distrito de Al Jufrah",
        "boundary": "administrative",
        "name": "\u0634\u0639\u0628\u064a\u0629 \u0627\u0644\u062c\u0641\u0631\u0629",
        "name:ar": "\u0634\u0639\u0628\u064a\u0629 \u0627\u0644\u062c\u0641\u0631\u0629",
        "name:be": "\u041c\u0443\u043d\u0456\u0446\u044b\u043f\u0430\u043b\u0456\u0442\u044d\u0442 \u042d\u043b\u044c-\u0414\u0436\u0443\u0444\u0440\u0430",
        "name:be-tarask": "\u042d\u043b\u044c-\u0414\u0436\u0443\u0444\u0440\u0430",
        "name:ca": "Al Jufrah",
        "name:ceb": "Al Jufrah",
        "name:cs": "Al-D\u017eufra",
        "name:da": "Al Jufrah",
        "name:de": "Munizip Al-Dschufra",
        "name:en": "District of Al-Jufra",
        "name:es": "Distrito de Algufra",
        "name:eu": "Al Jufrah",
        "name:fa": "\u0627\u0633\u062a\u0627\u0646 \u062c\u0641\u0631\u0647",
        "name:fr": "Al Djoufrah",
        "name:hu": "Dzsufra tartom\u00e1ny",
        "name:it": "Distretto di Giofra",
        "name:ja": "\u30b8\u30e5\u30d5\u30e9\u770c",
        "name:ka": "\u10d4\u10da-\u10ef\u10e3\u10e4\u10e0\u10d0",
        "name:ko": "\uc8fc\ud504\ub77c\uc8fc",
        "name:lt": "D\u017eufros savivaldyb\u0117",
        "name:nl": "Al Jufrah",
        "name:no": "Al Jufrah",
        "name:pl": "Gmina Al-D\u017cufra",
        "name:pt": "Jufra",
        "name:ro": "Districtul Al Jufrah",
        "name:ru": "\u042d\u043b\u044c-\u0414\u0436\u0443\u0444\u0440\u0430",
        "name:sco": "Al Jufrah Destrict",
        "name:sh": "D\u017eufra",
        "name:sv": "Al Jufrah",
        "name:tg": "\u0412\u0438\u043b\u043e\u044f\u0442\u0438 \u0410\u043b \u04b6\u0443\u0444\u0440\u0430",
        "name:tr": "El Cufra ili",
        "name:uk": "\u0415\u043b\u044c-\u0414\u0436\u0443\u0444\u0440\u0430",
        "name:ur": "\u062c\u0641\u0631\u06c1 \u0636\u0644\u0639",
        "name:zh": "\u6731\u592b\u62c9\u7701",
        "name:zu": "Jufra District",
        "sorting_name": "\u0627\u0644\u062c\u0641\u0631\u0629",
        "sorting_name:ar": "\u0627\u0644\u062c\u0641\u0631\u0629",
        "sorting_name:azb": "\u062c\u0641\u0631\u0647",
        "sorting_name:de": "Al-Dschufra",
        "sorting_name:es": "Algufra",
        "sorting_name:pl": "Al-D\u017cufra",
        "sorting_name:ur": "\u062c\u0641\u0631\u06c1",
        "type": "boundary",
        "wikidata": "Q48247",
        "wikipedia": "ar:\u0634\u0639\u0628\u064a\u0629 \u0627\u0644\u062c\u0641\u0631\u0629"
      }
    },
    {
      "type": "relation",
      "id": 2060178,
      "tags": {
        "ISO3166-2": "LY-KF",
        "admin_level": "4",
        "alt_name:ar": "\u0634\u0639\u0628\u064a\u0629 \u0627\u0644\u0643\u0641\u0631\u0629",
        "alt_name:de": "Munizip al-Kufra",
        "alt_name:en": "Kufra District",
        "alt_name:es": "Distrito de Al Kufrah",
        "alt_name:fa": "\u0627\u0633\u062a\u0627\u0646 \u06a9\u0641\u0631\u0647",
        "alt_name:fr": "Chabiya de Koufra",
        "alt_name:it": "Distretto di Cufra",
        "alt_name:ur": "\u06a9\u0641\u0631\u06c1 \u0636\u0644\u0639",
        "boundary": "administrative",
        "name": "\u0627\u0644\u0643\u0641\u0631\u0629",
        "name:ar": "\u0627\u0644\u0643\u0641\u0631\u0629",
        "name:azb": "\u06a9\u0641\u0631\u0647",
        "name:be": "\u041c\u0443\u043d\u0456\u0446\u044b\u043f\u0430\u043b\u0456\u0442\u044d\u0442 \u042d\u043b\u044c-\u041a\u0443\u0444\u0440\u0430",
        "name:be-tarask": "\u042d\u043b\u044c-\u041a\u0443\u0444\u0440\u0430",
        "name:ca": "Al Kufrah",
        "name:ceb": "Al Kufrah",
        "name:cs": "Al-Kufra",
        "name:da": "Al Kufrah",
        "name:de": "Al-Kufra",
        "name:en": "Kufra",
        "name:es": "Al Kufrah",
        "name:eu": "Kufra",
        "name:fa": "\u06a9\u0641\u0631\u0647",
        "name:fr": "Koufra",
        "name:he": "\u05de\u05d7\u05d5\u05d6 \u05db\u05d5\u05e4\u05e8\u05d4",
        "name:hu": "Kufra tartom\u00e1ny",
        "name:id": "Kofra",
        "name:it": "Cufra",
        "name:ja": "\u30af\u30d5\u30e9\u770c",
        "name:ka": "\u10d4\u10da-\u10d9\u10e3\u10e4\u10e0\u10d0",
        "name:ko": "\ucfe0\ud504\ub77c\uc8fc",
        "name:lt": "Kufros savivaldyb\u0117",
        "name:ms": "Daerah Al Kufrah",
        "name:nl": "Al Kufrah",
        "name:no": "Al Kufrah",
        "name:pl": "Al-Kufra",
        "name:ps": "\u06a9\u0641\u0631\u0647",
        "name:pt": "Cufra",
        "name:ro": "Districtul Al Kufrah",
        "name:ru": "\u042d\u043b\u044c-\u041a\u0443\u0444\u0440\u0430",
        "name:sco": "Al Kufrah Destrict",
        "name:sh": "Kufra",
        "name:sr": "\u041a\u0443\u0444\u0440\u0430",
        "name:sv": "Al Kufrah",
        "name:tr": "El Kufra ili",
        "name:uk": "\u0415\u043b\u044c-\u041a\u0443\u0444\u0440\u0430",
        "name:ur": "\u06a9\u0641\u0631\u06c1",
        "name:vec": "Kufra",
        "name:zh": "\u5e93\u592b\u62c9\u7701",
        "name:zu": "Kufra District",
        "official_name": "\u0628\u0644\u062f\u064a\u0629 \u0627\u0644\u0643\u0641\u0631\u0629",
        "official_name:ar": "\u0628\u0644\u062f\u064a\u0629 \u0627\u0644\u0643\u0641\u0631\u0629",
        "official_name:de": "Munizip al-Kufra",
        "official_name:fa": "\u0627\u0633\u062a\u0627\u0646 \u06a9\u0641\u0631\u0647",
        "official_name:fr": "District de Koufra",
        "official_name:it": "Distretto di Cufra",
        "official_name:ur": "\u06a9\u0641\u0631\u06c1 \u0636\u0644\u0639",
        "type": "boundary",
        "wikidata": "Q48200",
        "wikipedia": "ar:\u0628\u0644\u062f\u064a\u0629 \u0627\u0644\u0643\u0641\u0631\u0629"
      }
    },
    {
      "type": "relation",
      "id": 2060179,
      "tags": {
        "ISO3166-2": "LY-MJ",
        "admin_level": "4",
        "alt_name:ar": "\u0634\u0639\u0628\u064a\u0629 \u0627\u0644\u0645\u0631\u062c",
        "alt_name:es": "Distrito de Al Marj",
        "alt_name:it": "Distretto di Al-Marj",
        "boundary": "administrative",
        "int_name": "Marj",
        "name": "\u0627\u0644\u0645\u0631\u062c",
        "name:ar": "\u0627\u0644\u0645\u0631\u062c",
        "name:be-tarask": "\u042d\u043b\u044c-\u041c\u0430\u0440\u0434\u0436",
        "name:ca": "Al Marj",
        "name:ceb": "Al Marj",
        "name:da": "Al Marj",
        "name:de": "Munizip al-Mardsch",
        "name:en": "Marj",
        "name:es": "Al Marj",
        "name:eu": "Al Marj",
        "name:fa": "\u0627\u0633\u062a\u0627\u0646 \u0645\u0631\u062c",
        "name:fr": "Al Marj",
        "name:hu": "Mardzs tartom\u00e1ny",
        "name:it": "Distretto di Barce",
        "name:ja": "\u30de\u30eb\u30b8\u30e5\u770c",
        "name:ka": "\u10d4\u10da-\u10db\u10d0\u10e0\u10ef\u10d8\u10e1 \u10e0\u10d0\u10d8\u10dd\u10dc\u10d8",
        "name:ko": "\ub9c8\ub974\uc9c0\uc8fc",
        "name:lt": "Mard\u017eo savivaldyb\u0117",
        "name:nl": "Al Marj",
        "name:no": "El Merj",
        "name:pl": "Al-Mard\u017c",
        "name:pt": "Marje",
        "name:ro": "Districtul Al Marj",
        "name:ru": "\u042d\u043b\u044c-\u041c\u0430\u0440\u0434\u0436",
        "name:sco": "Al Marj Destrict",
        "name:sh": "Mard\u017e",
        "name:sv": "Al Marj",
        "name:tg": "\u0412\u0438\u043b\u043e\u044f\u0442\u0438 \u0410\u043b \u041c\u0430\u0440\u04b7",
        "name:uk": "\u0415\u043b\u044c-\u041c\u0430\u0440\u0434\u0436",
        "name:ur": "\u0645\u0631\u062c \u0636\u0644\u0639",
        "name:zh": "\u8fc8\u5c14\u5b63\u7701",
        "name:zu": "Marj District",
        "type": "boundary",
        "wikidata": "Q26023",
        "wikipedia": "en:Marj District"
      }
    },
    {
      "type": "relation",
      "id": 2060180,
      "tags": {
        "ISO3166-2": "LY-MI",
        "admin_level": "4",
        "boundary": "administrative",
        "int_name": "Bani Walid",
        "name": "\u0645\u062d\u0627\u0641\u0638\u0629 \u0628\u0646\u064a \u0648\u0644\u064a\u062f",
        "name:ar": "\u0645\u062d\u0627\u0641\u0638\u0629 \u0628\u0646\u064a \u0648\u0644\u064a\u062f",
        "name:azb": "\u0627\u0633\u062a\u0627\u0646 \u0628\u0646\u064a \u0648\u0644\u064a\u062f",
        "name:de": "Munizip Bani walid",
        "name:en": "Bani Walid",
        "name:fa": "\u0627\u0633\u062a\u0627\u0646 \u0628\u0646\u064a \u0648\u0644\u064a\u062f",
        "name:fr": "Bani Walid",
        "name:it": "Distretto di Beni Uild",
        "name:pl": "Bani Walid",
        "name:ro": "Bani Walid",
        "name:ru": "\u0411\u0430\u043d\u0438 \u0412\u0430\u043b\u0438\u0434",
        "name:uk": "\u0411\u0430\u043d\u0456 \u0412\u0430\u043b\u0456\u0434",
        "name:ur": "\u0628\u0646\u06cc \u0648\u0644\u06cc\u062f",
        "old_name": "\u0634\u0639\u0628\u064a\u0629 \u0628\u0646\u064a \u0648\u0644\u064a\u062f",
        "old_name:ar": "\u0634\u0639\u0628\u064a\u0629 \u0628\u0646\u064a \u0648\u0644\u064a\u062f",
        "sorting_name": "\u0628\u0646\u064a \u0648\u0644\u064a\u062f",
        "sorting_name:ar": "\u0628\u0646\u064a \u0648\u0644\u064a\u062f",
        "sorting_name:azb": "\u0628\u0646\u064a \u0648\u0644\u064a\u062f",
        "sorting_name:fa": "\u0628\u0646\u064a \u0648\u0644\u064a\u062f",
        "sorting_name:ur": "\u0628\u0646\u06cc \u0648\u0644\u06cc\u062f",
        "type": "boundary",
        "wikidata": "Q1366684",
        "wikipedia": "ar:\u0634\u0639\u0628\u064a\u0629 \u0628\u0646\u064a \u0648\u0644\u064a\u062f",
        "wikipedia:ar": "\u0634\u0639\u0628\u064a\u0629 \u0628\u0646\u064a \u0648\u0644\u064a\u062f"
      }
    },
    {
      "type": "relation",
      "id": 2060181,
      "tags": {
        "ISO3166-2": "LY-MQ",
        "admin_level": "4",
        "alt_name:ar": "\u0634\u0639\u0628\u064a\u0629 \u0645\u0631\u0632\u0642",
        "alt_name:en": "Murzuq District",
        "alt_name:es": "Distrito de Murzuk",
        "boundary": "administrative",
        "int_name": "Murzuq",
        "name": "\u0645\u0631\u0632\u0642",
        "name:ar": "\u0645\u0631\u0632\u0642",
        "name:be": "\u041c\u0443\u043d\u0456\u0446\u044b\u043f\u0430\u043b\u0456\u0442\u044d\u0442 \u041c\u0430\u0440\u0437\u0443\u043a",
        "name:be-tarask": "\u041c\u0443\u0440\u0437\u0443\u043a",
        "name:ceb": "Murzuq",
        "name:cs": "Murzuq",
        "name:de": "Munizip Murzuq",
        "name:en": "Murzuq",
        "name:es": "Murzuk",
        "name:eu": "Murzuq",
        "name:fa": "\u0627\u0633\u062a\u0627\u0646 \u0645\u0631\u0632\u0642",
        "name:fr": "Mourzouq",
        "name:hu": "Murzuk tartom\u00e1ny",
        "name:hy": "\u0544\u0561\u0580\u0566\u0578\u0582\u056f",
        "name:it": "Distretto di Murzuch",
        "name:ja": "\u30e0\u30eb\u30ba\u30af\u770c",
        "name:ka": "\u10db\u10d0\u10e0\u10d6\u10e3\u10d9\u10d8\u10e1 \u10e0\u10d0\u10d8\u10dd\u10dc\u10d8",
        "name:ko": "\ubb34\ub974\uc8fc\ud06c\uc8fc",
        "name:lt": "Murzuko savivaldyb\u0117",
        "name:nl": "Murzuq",
        "name:pl": "Marzuk",
        "name:pt": "Murzuque",
        "name:ro": "Districtul Murzuq",
        "name:ru": "\u041c\u0430\u0440\u0437\u0443\u043a",
        "name:sco": "Murzuq Destrict",
        "name:sh": "Murzuk",
        "name:sv": "Murzuq",
        "name:tg": "\u0412\u0438\u043b\u043e\u044f\u0442\u0438 \u041c\u0443\u0440\u0437\u0443\u049b",
        "name:uk": "\u041c\u0430\u0440\u0437\u0443\u043a",
        "name:ur": "\u0645\u0631\u0632\u0642 \u0636\u0644\u0639",
        "name:zh": "\u9081\u723e\u7956\u683c\u7701",
        "name:zu": "Murzuq District",
        "type": "boundary",
        "wikidata": "Q48239",
        "wikipedia": "ar:\u0634\u0639\u0628\u064a\u0629 \u0645\u0631\u0632\u0642"
      }
    },
    {
      "type": "relation",
      "id": 2060182,
      "tags": {
        "ISO3166-2": "LY-NL",
        "admin_level": "4",
        "alt_name:en": "Nalut District",
        "alt_name:fa": "\u0627\u0633\u062a\u0627\u0646 \u0646\u0627\u0644\u0648\u062a",
        "alt_name:ur": "\u0646\u0627\u0644\u0648\u062a \u0636\u0644\u0639",
        "boundary": "administrative",
        "name": "\u0646\u0627\u0644\u0648\u062a",
        "name:ar": "\u0646\u0627\u0644\u0648\u062a",
        "name:be": "\u041c\u0443\u043d\u0456\u0446\u044b\u043f\u0430\u043b\u0456\u0442\u044d\u0442 \u041d\u0430\u043b\u0443\u0442",
        "name:be-tarask": "\u041d\u0430\u043b\u0443\u0442",
        "name:ca": "Nalut",
        "name:ceb": "Sha\u2018b\u012byat N\u0101l\u016bt",
        "name:da": "Nalut",
        "name:de": "Nalut",
        "name:en": "Nalut",
        "name:es": "Nalut",
        "name:eu": "Nalut",
        "name:fa": "\u0646\u0627\u0644\u0648\u062a",
        "name:fr": "Nalout",
        "name:hu": "N\u00e1l\u00fat tartom\u00e1ny",
        "name:it": "Distretto di Nalut",
        "name:ja": "\u30ca\u30fc\u30eb\u30fc\u30c8\u770c",
        "name:ka": "\u10dc\u10d0\u10da\u10e3\u10d7\u10d8\u10e1 \u10e0\u10d0\u10d8\u10dd\u10dc\u10d8",
        "name:ko": "\ub0a0\ub8e8\ud2b8\uc8fc",
        "name:ks": "\u0646\u0627\u0644\u0648\u062a",
        "name:lt": "Naluto savivaldyb\u0117",
        "name:nl": "Nalut",
        "name:no": "Nalut",
        "name:pl": "Nalut",
        "name:pt": "Nalute",
        "name:ro": "Districtul Nalut",
        "name:ru": "\u041d\u0430\u043b\u0443\u0442",
        "name:sco": "Nalut Destrict",
        "name:sh": "Nalut",
        "name:sv": "Nalut",
        "name:tg": "\u0412\u0438\u043b\u043e\u044f\u0442\u0438 \u041d\u0430\u043b\u0443\u0442",
        "name:uk": "\u041d\u0430\u043b\u0443\u0442",
        "name:ur": "\u0646\u0627\u0644\u0648\u062a",
        "name:zh": "\u7d0d\u76e7\u7279\u7701",
        "name:zu": "Nalut District",
        "official_name": "\u0634\u0639\u0628\u064a\u0629 \u0646\u0627\u0644\u0648\u062a",
        "official_name:ar": "\u0634\u0639\u0628\u064a\u0629 \u0646\u0627\u0644\u0648\u062a",
        "official_name:de": "Munizip Nalut",
        "official_name:es": "Distrito de Nalut",
        "official_name:it": "Distretto di Nalut",
        "type": "boundary",
        "wikidata": "Q27659",
        "wikipedia": "ar:\u0634\u0639\u0628\u064a\u0629 \u0646\u0627\u0644\u0648\u062a"
      }
    },
    {
      "type": "relation",
      "id": 2060183,
      "tags": {
        "ISO3166-2": "LY-NQ",
        "admin_level": "4",
        "alt_name:ar": "\u0634\u0639\u0628\u064a\u0629 \u0627\u0644\u0646\u0642\u0627\u0637 \u0627\u0644\u062e\u0645\u0633",
        "alt_name:es": "Distrito de An Nuqat al Khams",
        "alt_name:uk": "\u0415\u043d-\u041d\u0443\u0491\u0430\u0442 \u0435\u043b\u044c-\u0425\u0443\u043c\u0441",
        "boundary": "administrative",
        "name": "\u0627\u0644\u0646\u0642\u0627\u0637 \u0627\u0644\u062e\u0645\u0633",
        "name:ar": "\u0627\u0644\u0646\u0642\u0627\u0637 \u0627\u0644\u062e\u0645\u0633",
        "name:be-tarask": "\u042d\u043d-\u041d\u0443\u0433\u0430\u0442-\u044d\u043b\u044c-\u0425\u0443\u043c\u0441",
        "name:bg": "\u0410\u043d \u041d\u0443\u043a\u0430\u0442 \u0430\u043b \u0425\u0430\u043c\u0441",
        "name:ca": "An Nuqat al Khams",
        "name:ceb": "Sha\u2018b\u012byat an Nuq\u0101\u0163 al Khams",
        "name:da": "An Nuqat al Khams",
        "name:de": "Munizip an-Nuqat al-Chams",
        "name:en": "Nuqat al Khams",
        "name:es": "An Nuqat al Khams",
        "name:et": "An-Nuq\u0101\u0163 al-Khamsi omavalitsus",
        "name:eu": "An Nuqat al Khams",
        "name:fa": "\u0627\u0633\u062a\u0627\u0646 \u0646\u0642\u0627\u0637 \u0627\u0644\u062e\u0645\u0633",
        "name:fr": "An Nouqat al Khams",
        "name:hu": "Nuk\u00e1t el-Hamsz tartom\u00e1ny",
        "name:id": "An Nuqat al Khams",
        "name:it": "Distretto di Al-Nuqat Al-Khams",
        "name:ja": "\u30cc\u30ab\u30fc\u30c8\u30fb\u30a2\u30eb\u30fb\u30cf\u30e0\u30b9\u770c",
        "name:ka": "\u10d4\u10dc-\u10dc\u10e3\u10d2\u10d0\u10e2-\u10d4\u10da-\u10ee\u10e3\u10db\u10e1\u10d8",
        "name:ko": "\ub204\uce74\ud2b8\uc54c\ud568\uc2a4\uc8fc",
        "name:lt": "Nukat al Chamso savivaldyb\u0117",
        "name:nl": "An Nuqat al Khams",
        "name:no": "An Nuqat al Khams",
        "name:pl": "An-Nukat al-Chams",
        "name:pt": "Nigatal Homs",
        "name:ro": "Districtul An Nuqat al Khams",
        "name:ru": "\u042d\u043d-\u041d\u0443\u0433\u0430\u0442-\u044d\u043b\u044c-\u0425\u0443\u043c\u0441",
        "name:sco": "An Nuqat al Khams Destrict",
        "name:sh": "Nukat al Hams",
        "name:sv": "An Nuqat al Khams",
        "name:tg": "\u0412\u0438\u043b\u043e\u044f\u0442\u0438 \u0410\u043d \u041d\u0443\u049b\u0430\u0442 \u0430\u043b \u0425\u0430\u043c\u0441",
        "name:uk": "\u0415\u043d-\u041d\u0443\u0433\u0430\u0442 \u0435\u043b\u044c-\u0425\u0443\u043c\u0441",
        "name:ur": "\u0646\u0642\u0627\u0637 \u0627\u0644\u062e\u0645\u0633",
        "name:zh": "\u52aa\u52a0\u7279\u6d77\u59c6\u65af\u7701",
        "name:zu": "Nuqat al Khams",
        "official_name": "\u0634\u0639\u0628\u064a\u0629 \u0627\u0644\u0646\u0642\u0627\u0637 \u0627\u0644\u062e\u0645\u0633",
        "official_name:ar": "\u0634\u0639\u0628\u064a\u0629 \u0627\u0644\u0646\u0642\u0627\u0637 \u0627\u0644\u062e\u0645\u0633",
        "type": "boundary",
        "wikidata": "Q26161",
        "wikipedia": "ar:\u0634\u0639\u0628\u064a\u0629 \u0627\u0644\u0646\u0642\u0627\u0637 \u0627\u0644\u062e\u0645\u0633"
      }
    },
    {
      "type": "relation",
      "id": 2060184,
      "tags": {
        "ISO3166-2": "LY-SB",
        "admin_level": "4",
        "alt_name": "\u0634\u0639\u0628\u064a\u0629 \u0633\u0628\u0647\u0627",
        "alt_name:ar": "\u0634\u0639\u0628\u064a\u0629 \u0633\u0628\u0647\u0627",
        "alt_name:de": "Munizip Sabha",
        "alt_name:en": "Sabha District",
        "alt_name:es": "Distrito de Sabha",
        "alt_name:fa": "\u0627\u0633\u062a\u0627\u0646 \u0633\u0628\u0647\u0627",
        "alt_name:it": "Distretto di Sebha",
        "alt_name:ur": "\u0633\u0628\u06be\u0627 \u0636\u0644\u0639",
        "boundary": "administrative",
        "name": "\u0633\u0628\u0647\u0627",
        "name:ar": "\u0633\u0628\u0647\u0627",
        "name:azb": "\u0633\u0628\u0647\u0627",
        "name:be-tarask": "\u0421\u0430\u0431\u0433\u0430",
        "name:bg": "\u0421\u0430\u0431\u0445\u0430",
        "name:ceb": "Sha\u2018b\u012byat Sabh\u0101",
        "name:de": "Sabha",
        "name:en": "Sabha",
        "name:es": "Sabha",
        "name:eu": "Sabha",
        "name:fa": "\u0633\u0628\u0647\u0627",
        "name:fr": "Sabha",
        "name:hu": "Szabha tartom\u00e1ny",
        "name:it": "Seba",
        "name:ja": "\u30b5\u30d6\u30cf\u30fc\u770c",
        "name:ka": "\u10e1\u10d0\u10d1\u10f0\u10d8\u10e1 \u10e0\u10d0\u10d8\u10dd\u10dc\u10d8",
        "name:ko": "\uc138\ubc14\uc8fc",
        "name:lt": "Sabhos savivaldyb\u0117",
        "name:nl": "Sabha",
        "name:no": "Sabha",
        "name:ota": "\u0633\u0628\u0647\u0627",
        "name:pl": "Sabha",
        "name:pt": "Seba",
        "name:ro": "Districtul Sabha",
        "name:ru": "\u0421\u0430\u0431\u0445\u0430",
        "name:sco": "Sabha Destrict",
        "name:sh": "Sabha",
        "name:sv": "Sabha",
        "name:uk": "\u0421\u0430\u0431\u0445\u0430",
        "name:ur": "\u0633\u0628\u0647\u0627",
        "name:zh": "\u585e\u535c\u54c8\u7701",
        "name:zu": "Sabha District",
        "official_name": "\u0645\u062d\u0627\u0641\u0638\u0629 \u0633\u0628\u0647\u0627",
        "official_name:ar": "\u0645\u062d\u0627\u0641\u0638\u0629 \u0633\u0628\u0647\u0627",
        "official_name:de": "Munizip Sabha",
        "official_name:fa": "\u0627\u0633\u062a\u0627\u0646 \u0633\u0628\u0647\u0627",
        "official_name:it": "Distretto di Seba",
        "official_name:ur": "\u0633\u0628\u06be\u0627 \u0636\u0644\u0639",
        "type": "boundary",
        "wikidata": "Q26132",
        "wikipedia": "ar:\u0634\u0639\u0628\u064a\u0629 \u0633\u0628\u0647\u0627",
        "wikipedia:ar": "\u0634\u0639\u0628\u064a\u0629 \u0633\u0628\u0647\u0627"
      }
    },
    {
      "type": "relation",
      "id": 2060185,
      "tags": {
        "ISO3166-2": "LY-SR",
        "admin_level": "4",
        "alt_name:ar": "\u0634\u0639\u0628\u064a\u0629 \u0633\u0631\u062a",
        "alt_name:azb": "\u0627\u0633\u062a\u0627\u0646 \u0633\u0631\u062a",
        "alt_name:de": "Munizip Surt",
        "alt_name:es": "Distrito de Sirte",
        "alt_name:fa": "\u0627\u0633\u062a\u0627\u0646 \u0633\u0631\u062a",
        "alt_name:it": "Distretto di Sirte",
        "alt_name:ur": "\u0633\u0631\u062a \u0636\u0644\u0639",
        "boundary": "administrative",
        "name": "\u0633\u0631\u062a",
        "name:ar": "\u0633\u0631\u062a",
        "name:azb": "\u0633\u0631\u062a",
        "name:be": "\u041c\u0443\u043d\u0456\u0446\u044b\u043f\u0430\u043b\u0456\u0442\u044d\u0442 \u0421\u0443\u0440\u0442",
        "name:be-tarask": "\u0421\u044b\u0440\u0442",
        "name:ca": "Sirte",
        "name:ceb": "Surt",
        "name:cs": "Surt",
        "name:da": "Surt",
        "name:de": "Surt",
        "name:en": "Sirte",
        "name:es": "Sirte",
        "name:eu": "Sirte",
        "name:fa": "\u0633\u0631\u062a",
        "name:fr": "Syrte",
        "name:fy": "Sirte",
        "name:hu": "Szurt tartom\u00e1ny",
        "name:id": "Surt",
        "name:it": "Sirte",
        "name:ja": "\u30b9\u30eb\u30c8\u770c",
        "name:ka": "\u10e1\u10e3\u10e0\u10d7\u10d8\u10e1 \u10e0\u10d0\u10d8\u10dd\u10dc\u10d8",
        "name:kab": "\u0633\u0631\u062a",
        "name:ko": "\uc2dc\ub974\ud14c\uc8fc",
        "name:ks": "\u0633\u0631\u062a",
        "name:lt": "Surto savivaldyb\u0117",
        "name:nl": "Sirte",
        "name:no": "Surt",
        "name:pl": "Syrta",
        "name:pt": "Sirte",
        "name:ro": "Districtul Surt",
        "name:ru": "\u0421\u0438\u0440\u0442",
        "name:sco": "Sirte Destrict",
        "name:sh": "Sirt",
        "name:sv": "Surt",
        "name:uk": "\u0421\u0438\u0440\u0442",
        "name:ur": "\u0633\u0631\u062a",
        "name:zh": "\u8607\u723e\u7279\u7701",
        "name:zu": "Sirte District",
        "official_name": "\u0645\u062d\u0627\u0641\u0638\u0629 \u0633\u0631\u062a",
        "official_name:ar": "\u0645\u062d\u0627\u0641\u0638\u0629 \u0633\u0631\u062a",
        "official_name:azb": "\u0627\u0633\u062a\u0627\u0646 \u0633\u0631\u062a",
        "official_name:de": "Munizip Surt",
        "official_name:fa": "\u0627\u0633\u062a\u0627\u0646 \u0633\u0631\u062a",
        "official_name:it": "Distretto di Sirte",
        "official_name:ur": "\u0633\u0631\u062a \u0636\u0644\u0639",
        "type": "boundary",
        "wikidata": "Q26417",
        "wikipedia": "ar:\u0634\u0639\u0628\u064a\u0629 \u0633\u0631\u062a"
      }
    },
    {
      "type": "relation",
      "id": 2060186,
      "tags": {
        "ISO3166-2": "LY-TB",
        "admin_level": "4",
        "alt_name:en": "Tripoli District, Libya",
        "alt_name:es": "Distrito de Tr\u00edpoli",
        "alt_name:fa": "\u0646\u0627\u062d\u06cc\u0647 \u0637\u0631\u0627\u0628\u0644\u0633",
        "alt_name:ru": "\u0422\u0440\u0438\u043f\u043e\u043b\u0438",
        "alt_name:uk": "\u0422\u0440\u0438\u043f\u043e\u043b\u0456",
        "alt_name:ur": "\u0637\u0631\u0627\u0628\u0644\u0633 \u0636\u0644\u0639\u060c \u0644\u06cc\u0628\u06cc\u0627",
        "boundary": "administrative",
        "name": "\u0637\u0631\u0627\u0628\u0644\u0633",
        "name:ar": "\u0637\u0631\u0627\u0628\u0644\u0633",
        "name:be": "\u041c\u0443\u043d\u0456\u0446\u044b\u043f\u0430\u043b\u0456\u0442\u044d\u0442 \u0422\u0430\u0440\u0430\u0431\u0443\u043b\u0443\u0441",
        "name:be-tarask": "\u0422\u0430\u0440\u0430\u0431\u0443\u043b\u0443\u0441",
        "name:ca": "Tr\u00edpoli",
        "name:de": "Tripolis",
        "name:en": "Tripoli",
        "name:es": "Tr\u00edpoli",
        "name:et": "Tripoli omavalitsus",
        "name:fa": "\u0637\u0631\u0627\u0628\u0644\u0633",
        "name:fr": "Tripoli",
        "name:hu": "Tripoli tartom\u00e1ny",
        "name:hy": "\u054f\u0561\u0580\u0561\u0562\u0578\u0582\u056c\u0578\u0582\u057d",
        "name:it": "Tripoli",
        "name:ja": "\u30c8\u30ea\u30dd\u30ea\u770c",
        "name:ka": "\u10e2\u10e0\u10d8\u10de\u10dd\u10da\u10d8\u10e1 \u10e0\u10d0\u10d8\u10dd\u10dc\u10d8",
        "name:ko": "\ud0c0\ub77c\ubd88\ub8e8\uc2a4\uc8fc",
        "name:ks": "\u0637\u0631\u0627\u0628\u0644\u0633",
        "name:lt": "Tripolio savivaldyb\u0117",
        "name:nl": "Tripoli",
        "name:nn": "Tripoli distrikt",
        "name:pl": "Trypolis",
        "name:pt": "Tr\u00edpoli",
        "name:ro": "Districtul Tarabulus",
        "name:ru": "\u0422\u0430\u0440\u0430\u0431\u0443\u043b\u0443\u0441",
        "name:sco": "Tarabulus Destrict",
        "name:sk": "Tripolis",
        "name:sv": "Tarabulus",
        "name:tr": "Trablus ili",
        "name:ug": "\u062a\u0631\u0649\u067e\u0648\u0644\u0649",
        "name:uk": "\u0422\u0430\u0440\u0430\u0431\u0443\u043b\u0443\u0441",
        "name:ur": "\u0637\u0631\u0627\u0628\u0644\u0633",
        "name:zh": "\u7684\u9ece\u6ce2\u91cc\u7701",
        "name:zu": "Tripoli District, Libhiya",
        "official_name": "\u0628\u0644\u062f\u064a\u0629 \u0637\u0631\u0627\u0628\u0644\u0633",
        "official_name:ar": "\u0628\u0644\u062f\u064a\u0629 \u0637\u0631\u0627\u0628\u0644\u0633",
        "official_name:de": "Munizip Tripolis",
        "official_name:it": "Distretto di Tripoli",
        "official_name:ur": "\u0637\u0631\u0627\u0628\u0644\u0633 \u0636\u0644\u0639",
        "type": "boundary",
        "wikidata": "Q32837",
        "wikipedia": "ar:\u0628\u0644\u062f\u064a\u0629 \u0637\u0631\u0627\u0628\u0644\u0633"
      }
    },
    {
      "type": "relation",
      "id": 2060187,
      "tags": {
        "ISO3166-2": "LY-WD",
        "admin_level": "4",
        "alt_name:ar": "\u0634\u0639\u0628\u064a\u0629 \u0648\u0627\u062f\u064a \u0627\u0644\u062d\u064a\u0627\u0629",
        "alt_name:de": "Munizip Wadi al-Haya",
        "alt_name:es": "Distrito de Wadi Al Hayaa",
        "alt_name:fa": "\u0627\u0633\u062a\u0627\u0646 \u0648\u0627\u062f\u06cc \u0627\u0644\u062d\u06cc\u0627\u0647",
        "alt_name:it": "Distretto di Wadi al-Hayaa",
        "alt_name:ur": "\u0648\u0627\u062f\u06cc \u0627\u0644\u062d\u06cc\u0627\u06c1 \u0636\u0644\u0639",
        "boundary": "administrative",
        "name": "\u0648\u0627\u062f\u064a \u0627\u0644\u062d\u064a\u0627\u0629",
        "name:ar": "\u0648\u0627\u062f\u064a \u0627\u0644\u062d\u064a\u0627\u0629",
        "name:be-tarask": "\u0412\u0430\u0434\u0437\u0456-\u044d\u043b\u044c-\u0413\u0430\u044f\u0442",
        "name:bg": "\u0423\u0430\u0434\u0438 \u0430\u043b \u0425\u0430\u044f",
        "name:ca": "Wadi Al Hayaa",
        "name:ceb": "Sha\u2018b\u012byat W\u0101d\u012b al \u1e28ay\u0101t",
        "name:da": "Wadi Al Hayaa",
        "name:de": "Wadi al-Haya",
        "name:en": "Wadi al Hayaa",
        "name:es": "Wadi Al Hayaa",
        "name:eu": "Wadi Al Hayaa",
        "name:fa": "\u0648\u0627\u062f\u06cc \u0627\u0644\u062d\u06cc\u0627\u0647",
        "name:fr": "Wadi al Hayaat",
        "name:hu": "V\u00e1di el-Haj\u00e1t tartom\u00e1ny",
        "name:it": "Wadi Al-Hayaa",
        "name:ja": "\u30ef\u30b8\u30fb\u30a2\u30eb\u30fb\u30cf\u30e4\u30fc\u770c",
        "name:ka": "\u10d5\u10d0\u10d3\u10d8-\u10d4\u10da-\u10f0\u10d0\u10d8\u10d0\u10e2\u10d8",
        "name:ko": "\uc640\ub514\uc54c\ud558\uc57c\uc8fc",
        "name:lt": "Vadi al Hajos savivaldyb\u0117",
        "name:nl": "Wadi Al Hayaa",
        "name:no": "Wadi Al Hayaa",
        "name:pl": "Wadi al-Hajat",
        "name:pt": "U\u00e1di Alhaiate",
        "name:ro": "Districtul Wadi Al Hayaa",
        "name:ru": "\u0412\u0430\u0434\u0438-\u044d\u043b\u044c-\u0425\u0430\u044f\u0442",
        "name:sco": "Wadi Al Hayaa Destrict",
        "name:sh": "Vadi al Haja",
        "name:sv": "Wadi Al Hayaa",
        "name:tg": "\u0412\u0438\u043b\u043e\u044f\u0442\u0438 \u0412\u0430\u0434\u0438 \u0430\u043b \u04b2\u0430\u044f\u0430",
        "name:uk": "\u0412\u0430\u0434\u0456-\u0435\u043b\u044c-\u0425\u0430\u044f\u0442",
        "name:ur": "\u0648\u0627\u062f\u06cc \u0627\u0644\u062d\u06cc\u0627\u06c1",
        "name:zh": "\u74e6\u8fea\u54c8\u8036\u7279\u7701",
        "name:zu": "Wadi al Hayaa District",
        "official_name": "\u0634\u0639\u0628\u064a\u0629 \u0648\u0627\u062f\u064a \u0627\u0644\u062d\u064a\u0627\u0629",
        "official_name:ar": "\u0634\u0639\u0628\u064a\u0629 \u0648\u0627\u062f\u064a \u0627\u0644\u062d\u064a\u0627\u0629",
        "official_name:de": "Munizip Wadi al-Haya",
        "official_name:fa": "\u0627\u0633\u062a\u0627\u0646 \u0648\u0627\u062f\u06cc \u0627\u0644\u062d\u06cc\u0627\u0647",
        "official_name:it": "Wadi Al-Hayaa",
        "official_name:ur": "\u0648\u0627\u062f\u06cc \u0627\u0644\u062d\u06cc\u0627\u06c1 \u0636\u0644\u0639",
        "type": "boundary",
        "wikidata": "Q48233",
        "wikipedia": "ar:\u0634\u0639\u0628\u064a\u0629 \u0648\u0627\u062f\u064a \u0627\u0644\u062d\u064a\u0627\u0629"
      }
    },
    {
      "type": "relation",
      "id": 2060188,
      "tags": {
        "ISO3166-2": "LY-WS",
        "admin_level": "4",
        "alt_name:ar": "\u0634\u0639\u0628\u064a\u0629 \u0648\u0627\u062f\u064a \u0627\u0644\u0634\u0627\u0637\u0626",
        "alt_name:en": "Wadi al Shatii District",
        "alt_name:es": "Distrito de Wadi Al Shatii",
        "alt_name:fr": "Wadi al-Chati",
        "alt_name:it": "Distretto di Wadi al-Shatii",
        "alt_name:ur": "\u0648\u0627\u062f\u06cc \u0627\u0644\u0634\u0627\u0637\u06cc \u0636\u0644\u0639",
        "boundary": "administrative",
        "name": "\u0648\u0627\u062f\u064a \u0627\u0644\u0634\u0627\u0637\u0626",
        "name:ar": "\u0648\u0627\u062f\u064a \u0627\u0644\u0634\u0627\u0637\u0626",
        "name:be-tarask": "\u0412\u0430\u0434\u0437\u0456-\u044d\u0448-\u0428\u0430\u0446\u0456",
        "name:ca": "Wadi Al Shatii",
        "name:ceb": "Sha\u2018b\u012byat W\u0101d\u012b ash Sh\u0101\u0163i'",
        "name:da": "Wadi Al Shatii",
        "name:de": "Munizip Wadi asch-Schati\u2019",
        "name:en": "Wadi al Shatii",
        "name:es": "Wadi Al Shatii",
        "name:eu": "Wadi Al Shatii",
        "name:fa": "\u0648\u0627\u062f\u06cc \u0627\u0644\u0634\u0627\u0637\u06cc",
        "name:fr": "Wadi ach Chatii",
        "name:hu": "V\u00e1di es-S\u00e1ti tartom\u00e1ny",
        "name:hy": "\u054e\u0561\u0564\u056b \u0561\u056c-\u0547\u0561\u057f\u056b",
        "name:it": "Distretto di Sciati",
        "name:ja": "\u30ef\u30b8\u30fb\u30a2\u30eb\u30fb\u30b7\u30e3\u30fc\u30c6\u30a3\u30fc\u770c",
        "name:ka": "\u10d5\u10d0\u10d3\u10d8-\u10d4\u10e8-\u10e8\u10d0\u10e2\u10d8",
        "name:ko": "\uc640\ub514\uc54c\uc0e4\ud2f0\uc8fc",
        "name:lt": "Vadi al \u0160ati savivaldyb\u0117",
        "name:nl": "Wadi Al Shatii",
        "name:pl": "Wadi asz-Szati",
        "name:pt": "Axati",
        "name:ro": "Districtul Wadi Al Shatii",
        "name:ru": "\u0412\u0430\u0434\u0438-\u044d\u0448-\u0428\u0430\u0442\u0438",
        "name:sco": "Wadi Al Shatii Destrict",
        "name:sh": "Vadi Al \u0160ati (okrug)",
        "name:sv": "Wadi Al Shatii (distrikt)",
        "name:tg": "\u0412\u0438\u043b\u043e\u044f\u0442\u0438 \u0412\u0430\u0434\u0438 \u0430\u043b \u0428\u0430\u0442\u04e3",
        "name:tr": "Vadi El \u015eati ili",
        "name:uk": "\u0412\u0430\u0434\u0456-\u0435\u0448-\u0428\u0430\u0442\u0456",
        "name:ur": "\u0648\u0627\u062f\u06cc \u0627\u0644\u0634\u0627\u0637\u06cc",
        "name:zh": "\u6c99\u63d0\u7701",
        "name:zu": "Wadi Al Shatii District",
        "official_name": "\u0634\u0639\u0628\u064a\u0629 \u0648\u0627\u062f\u064a \u0627\u0644\u0634\u0627\u0637\u0626",
        "official_name:ar": "\u0634\u0639\u0628\u064a\u0629 \u0648\u0627\u062f\u064a \u0627\u0644\u0634\u0627\u0637\u0626",
        "official_name:de": "Munizip Wadi asch-Schati\u2019",
        "official_name:it": "Distretto di Wadi Al-Shatii",
        "type": "boundary",
        "wikidata": "Q48232",
        "wikipedia": "ar:\u0634\u0639\u0628\u064a\u0629 \u0648\u0627\u062f\u064a \u0627\u0644\u0634\u0627\u0637\u0626"
      }
    },
    {
      "type": "relation",
      "id": 2060189,
      "tags": {
        "ISO3166-2": "LY-ZA",
        "admin_level": "4",
        "alt_name:de": "Munizip Zawiya",
        "alt_name:es": "Distrito de Zawiya",
        "alt_name:fr": "Chabiya de Zaou\u00efa",
        "alt_name:it": "Distretto di Zawiya",
        "boundary": "administrative",
        "name": "\u0634\u0639\u0628\u064a\u0629 \u0627\u0644\u0632\u0627\u0648\u064a\u0629",
        "name:ar": "\u0634\u0639\u0628\u064a\u0629 \u0627\u0644\u0632\u0627\u0648\u064a\u0629",
        "name:de": "Bezirk Az Zawiya",
        "name:en": "Az Zawiya District",
        "name:es": "Distrito Az Zawiya",
        "name:fr": "District de Zaou\u00efa",
        "official_name": "\u0634\u0639\u0628\u064a\u0629 \u0627\u0644\u0632\u0627\u0648\u064a\u0629",
        "official_name:ar": "\u0634\u0639\u0628\u064a\u0629 \u0627\u0644\u0632\u0627\u0648\u064a\u0629",
        "official_name:de": "Munizip Zawiya",
        "official_name:fr": "District de Zaou\u00efa",
        "official_name:it": "Distretto di Zawiya",
        "type": "boundary",
        "wikidata": "Q26153"
      }
    },
    {
      "type": "relation",
      "id": 3795005,
      "tags": {
        "ISO3166-2": "LY-MB",
        "admin_level": "4",
        "alt_name:ar": "\u0634\u0639\u0628\u064a\u0629 \u0627\u0644\u0645\u0631\u0642\u0628",
        "alt_name:es": "Distrito de Al Murgub",
        "boundary": "administrative",
        "name": "\u0645\u062d\u0627\u0641\u0638\u0629 \u0627\u0644\u0645\u0631\u0642\u0628",
        "name:ar": "\u0645\u062d\u0627\u0641\u0638\u0629 \u0627\u0644\u0645\u0631\u0642\u0628",
        "name:azb": "\u0627\u0633\u062a\u0627\u0646 \u0645\u0631\u0642\u0628",
        "name:be": "\u041c\u0443\u043d\u0456\u0446\u044b\u043f\u0430\u043b\u0456\u0442\u044d\u0442 \u042d\u043b\u044c-\u041c\u0430\u0440\u0433\u0430\u0431",
        "name:be-tarask": "\u042d\u043b\u044c-\u041c\u0430\u0433\u0440\u0430\u0431",
        "name:ca": "Al Murgub",
        "name:ceb": "Al Marqab",
        "name:da": "Al Murgub",
        "name:de": "Munizip al-Murgub",
        "name:en": "Murqub",
        "name:es": "Al Murgub",
        "name:eu": "Al Murgub",
        "name:fa": "\u0627\u0633\u062a\u0627\u0646 \u0645\u0631\u0642\u0628",
        "name:fr": "Al Mourqoub",
        "name:hu": "Markab tartom\u00e1ny",
        "name:it": "Distretto di Al-Murgub",
        "name:ja": "\u30e0\u30eb\u30af\u30d6\u770c",
        "name:ka": "\u10d4\u10da-\u10db\u10d0\u10e0\u10e6\u10d0\u10d1\u10d8",
        "name:ko": "\ubb34\ub974\ucfe0\ube0c\uc8fc",
        "name:lt": "Murgubo savivaldyb\u0117",
        "name:nl": "Al Murgub",
        "name:no": "Al Murgub",
        "name:pl": "Al-Marakib",
        "name:pt": "Murgube",
        "name:ro": "Districtul Al Murgub",
        "name:ru": "\u042d\u043b\u044c-\u041c\u0430\u0440\u0433\u0430\u0431",
        "name:sco": "Al Murgub Destrict",
        "name:sh": "Murgub",
        "name:sv": "Al Murgub",
        "name:tg": "\u0412\u0438\u043b\u043e\u044f\u0442\u0438 \u0410\u043b \u041c\u0443\u0440\u0433\u0443\u0431",
        "name:uk": "\u0415\u043b\u044c-\u041c\u0430\u0440\u0433\u0430\u0431",
        "name:ur": "\u0645\u0631\u0642\u0628 \u0636\u0644\u0639",
        "name:zh": "\u8fc8\u5c14\u76d6\u535c\u7701",
        "name:zu": "Murqub District",
        "old_name": "\u0634\u0639\u0628\u064a\u0629 \u0627\u0644\u0645\u0631\u0642\u0628",
        "old_name:ar": "\u0634\u0639\u0628\u064a\u0629 \u0627\u0644\u0645\u0631\u0642\u0628",
        "sorting_name": "\u0627\u0644\u0645\u0631\u0642\u0628",
        "sorting_name:ar": "\u0627\u0644\u0645\u0631\u0642\u0628",
        "sorting_name:azb": "\u0645\u0631\u0642\u0628",
        "sorting_name:fa": "\u0645\u0631\u0642\u0628",
        "sorting_name:ur": "\u0645\u0631\u0642\u0628",
        "type": "boundary",
        "wikidata": "Q209778",
        "wikipedia": "ar:\u0634\u0639\u0628\u064a\u0629 \u0627\u0644\u0645\u0631\u0642\u0628",
        "wikipedia:ar": "\u0634\u0639\u0628\u064a\u0629 \u0627\u0644\u0645\u0631\u0642\u0628"
      }
    },
    {
      "type": "relation",
      "id": 15327824,
      "tags": {
        "ISO3166-2": "LY-SU",
        "admin_level": "4",
        "boundary": "administrative",
        "name": "\u0628\u0644\u062f\u064a\u0629 \u0635\u0631\u0645\u0627\u0646",
        "name:ar": "\u0628\u0644\u062f\u064a\u0629 \u0635\u0631\u0645\u0627\u0646",
        "name:bn": "\u09b8\u09c1\u09b0\u09ae\u09a8 \u09aa\u09cc\u09b0\u09b8\u09ad\u09be",
        "name:de": "Gemeinde Surman",
        "name:el": "\u0394\u03ae\u03bc\u03bf\u03c2 \u03a3\u03bf\u03c5\u03c1\u03bc\u03ac\u03bd",
        "name:en": "Baladiyah Surman",
        "name:es": "Municipio de Surm\u00e1n",
        "name:fa": "\u0634\u0647\u0631\u062f\u0627\u0631\u06cc \u0633\u0648\u0631\u0645\u0627\u0646",
        "name:fi": "Surmanin kunta",
        "name:fr": "Municipalit\u00e9 de Surman",
        "name:ha": "Municipality na Surman",
        "name:he": "\u05e2\u05d9\u05e8\u05d9\u05d9\u05ea \u05e1\u05d5\u05e8\u05de\u05df",
        "name:hi": "\u0928\u0917\u0930 \u092a\u093e\u0932\u093f\u0915\u093e \u0938\u0941\u0930\u092e\u0928",
        "name:hy": "\u054d\u0578\u0582\u0580\u0574\u0561\u0576\u056b \u0584\u0561\u0572\u0561\u0584\u0561\u057a\u0565\u057f\u0561\u0580\u0561\u0576",
        "name:id": "Kelurahan Surman",
        "name:it": "Comune di Surman",
        "name:ja": "\u30b9\u30eb\u30de\u30f3\u5e02",
        "name:ko": "\uc218\ub974\ub9cc \uc2dc",
        "name:mt": "Muni\u010bipalit\u00e0 ta' Surman",
        "name:ru": "\u041c\u0443\u043d\u0438\u0446\u0438\u043f\u0430\u043b\u0438\u0442\u0435\u0442 \u0421\u0443\u0440\u043c\u0430\u043d",
        "name:th": "\u0e40\u0e17\u0e28\u0e1a\u0e32\u0e25\u0e40\u0e21\u0e37\u0e2d\u0e07\u0e2a\u0e38\u0e23\u0e21\u0e32\u0e19",
        "name:tl": "Munisipalidad ng Surman",
        "name:tr": "Surman Belediyesi",
        "name:uk": "\u041c\u0443\u043d\u0456\u0446\u0438\u043f\u0430\u043b\u0456\u0442\u0435\u0442 \u0421\u0443\u0440\u043c\u0430\u043d",
        "name:ur": "\u0633\u0648\u0631\u0645\u0646 \u06a9\u06cc \u0645\u06cc\u0648\u0646\u0633\u067e\u0644\u0679\u06cc",
        "name:zh": "\u82cf\u5c14\u66fc\u5e02",
        "nist:fips_code": "LY37",
        "pcode": "22-21-27-81",
        "type": "boundary",
        "wikidata": "Q2075535",
        "wikipedia": "ar:\u0635\u0631\u0645\u0627\u0646"
      }
    }
  ]
}