{
  "version": 0.6,
  "generator": "Overpass API 0.7.62.8 e802775f",
  "osm3s": {
    "timestamp_osm_base": "2025-10-03T17:29:45Z",
    "timestamp_areas_base": "2025-10-03T13:36:01Z",
    "copyright": "The data included in this document is from www.openstreetmap.org. The data is made available under ODbL."
  },
  "elements": [
    {
      "type": "relation",
      "id": 90340,
      "tags": {
        "admin_level": "2",
        "boundary": "administrative",
        "name": "France - Luxembourg / Luxemburg / L\u00ebtzebuerg",
        "name:ca": "Fran\u00e7a - Luxemburg",
        "name:de": "Frankreich - Luxemburg",
        "name:en": "France - Luxembourg",
        "name:fr": "France - Luxembourg",
        "name:lb": "Frankr\u00e4ich - L\u00ebtzebuerg",
        "name:lt": "Pranc\u016bzija - Liuksemburgas",
        "name:pt": "Fran\u00e7a - Luxemburgo",
        "name:ru": "\u0424\u0440\u0430\u043d\u0446\u0438\u044f - \u041b\u044e\u043a\u0441\u0435\u043c\u0431\u0443\u0440\u0433",
        "note": "For%20explanations%20please%20read%20https://wiki.openstreetmap.org/wiki/France_boundary_pyramidal_construction",
        "type": "multilinestring",
        "wikidata": "Q3088912"
      }
    }
  ]
}