{
  "version": 0.6,
  "generator": "Overpass API 0.7.62.8 e802775f",
  "osm3s": {
    "timestamp_osm_base": "2025-10-04T21:28:20Z",
    "timestamp_areas_base": "2025-10-04T15:40:00Z",
    "copyright": "The data included in this document is from www.openstreetmap.org. The data is made available under ODbL."
  },
  "elements": [
    {
      "type": "relation",
      "id": 192777,
      "tags": {
        "ISO3166-1": "SL",
        "ISO3166-1:alpha2": "SL",
        "ISO3166-1:alpha3": "SLE",
        "ISO3166-1:numeric": "694",
        "admin_level": "2",
        "alt_name:eo": "Sieraleono",
        "boundary": "administrative",
        "default_language": "en",
        "flag": "https://upload.wikimedia.org/wikipedia/commons/1/17/Flag_of_Sierra_Leone.svg",
        "name": "Sierra Leone",
        "name:ace": "Sierra Leone",
        "name:af": "Sierra Leone",
        "name:ak": "Sierra Leone",
        "name:als": "Sierra Leone",
        "name:am": "\u1234\u12e8\u122b \u120c\u12ce\u1295",
        "name:an": "Sierra Leone",
        "name:ar": "\u0633\u064a\u0631\u0627\u0644\u064a\u0648\u0646",
        "name:arz": "\u0633\u064a\u064a\u0631\u0627\u0644\u064a\u0648\u0646",
        "name:ast": "Sierra Lleona",
        "name:az": "Syerra-Leone",
        "name:ba": "\u0421\u044c\u0435\u0440\u0440\u0430-\u041b\u0435\u043e\u043d\u0435",
        "name:bat-smg": "S\u0117ira Leuon\u0117",
        "name:bcl": "Sierra Leona",
        "name:be": "\u0421\u044c\u0435\u0440\u0430-\u041b\u0435\u043e\u043d\u044d",
        "name:be-tarask": "\u0421\u044c\u0435\u0440\u0430-\u041b\u0435\u043e\u043d\u044d",
        "name:bg": "\u0421\u0438\u0435\u0440\u0430 \u041b\u0435\u043e\u043d\u0435",
        "name:bjn": "Sierra Leone",
        "name:bm": "Sera Leon",
        "name:bn": "\u09b8\u09bf\u09af\u09bc\u09c7\u09b0\u09be \u09b2\u09bf\u0993\u09a8",
        "name:bo": "\u0f66\u0f72\u0f0b\u0f62\u0f0b\u0f63\u0f7a\u0f0b\u0f68\u0f7c\u0f53\u0f0d",
        "name:bpy": "\u09b8\u09bf\u09af\u09bc\u09c7\u09b0\u09be \u09b2\u09bf\u0993\u09a8",
        "name:br": "Sierra Leone",
        "name:bs": "Sijera Leone",
        "name:bxr": "\u0421\u044c\u0435\u0440\u0440\u0430-\u041b\u0435\u043e\u043d\u0435",
        "name:ca": "Sierra Leone",
        "name:ce": "\u0421\u044c\u0435\u0440\u0440\u0430-\u041b\u0435\u043e\u043d\u0435",
        "name:ceb": "Sierra Leone",
        "name:ckb": "\u0633\u06cc\u06d5\u0631\u0627\u0644\u06cc\u06c6\u0646",
        "name:crh": "Syerra Leone",
        "name:cs": "Sierra Leone",
        "name:cy": "Sierra Leone",
        "name:da": "Sierra Leone",
        "name:de": "Sierra Leone",
        "name:diq": "Sierra Leone",
        "name:dv": "\u0790\u07ac\u0783\u07ac\u078d\u07a8\u0787\u07af\u0782\u07b0",
        "name:ee": "Sierra Leone",
        "name:el": "\u03a3\u03b9\u03ad\u03c1\u03b1 \u039b\u03b5\u03cc\u03bd\u03b5",
        "name:en": "Sierra Leone",
        "name:eo": "Siera-Leono",
        "name:es": "Sierra Leona",
        "name:et": "Sierra Leone",
        "name:eu": "Sierra Leona",
        "name:ext": "Sierra Leona",
        "name:fa": "\u0633\u06cc\u0631\u0627\u0644\u0626\u0648\u0646",
        "name:ff": "Sarliyon",
        "name:fi": "Sierra Leone",
        "name:fo": "Sierra Leona",
        "name:fr": "Sierra Leone",
        "name:frp": "Si\u00e9rra Leone",
        "name:fy": "Sierra Le\u00f6ane",
        "name:ga": "Siarra Leon",
        "name:gag": "Syerra Leone",
        "name:gd": "Siarra Le\u00f2mhann",
        "name:gl": "Serra Leoa",
        "name:gn": "Si\u00e9rra Le\u00f5",
        "name:gv": "Sierra Leone",
        "name:he": "\u05e1\u05d9\u05d9\u05e8\u05d4 \u05dc\u05d0\u05d5\u05e0\u05d4",
        "name:hi": "\u0938\u093f\u090f\u0930\u093e \u0932\u093f\u092f\u094b\u0928",
        "name:hif": "Sierra Leone",
        "name:hr": "Sijera Leone",
        "name:hsb": "Sierra Leone",
        "name:ht": "Syera Le\u00f2n",
        "name:hu": "Sierra Leone",
        "name:hy": "\u054d\u056b\u0565\u0580\u0561 \u053c\u0565\u0578\u0576\u0565",
        "name:id": "Sierra Leone",
        "name:ie": "Sierra Leone",
        "name:ilo": "Sierra Leon",
        "name:io": "Sierra Leone",
        "name:is": "S\u00ederra Le\u00f3ne",
        "name:it": "Sierra Leone",
        "name:ja": "\u30b7\u30a8\u30e9\u30ec\u30aa\u30cd",
        "name:jbo": "sieras. leon",
        "name:jv": "Sierra Leone",
        "name:ka": "\u10e1\u10d8\u10d4\u10e0\u10d0-\u10da\u10d4\u10dd\u10dc\u10d4",
        "name:kg": "Siera Leone",
        "name:kk": "\u0421\u0438\u0435\u0440\u0440\u0430-\u041b\u0435\u043e\u043d\u0435",
        "name:kn": "\u0cb8\u0cbf\u0caf\u0cc6\u0cb0\u0ccd\u0cb0\u0cbe \u0cb2\u0cbf\u0caf\u0ccb\u0ca8\u0ccd",
        "name:ko": "\uc2dc\uc5d0\ub77c\ub9ac\uc628",
        "name:ku": "Sierra Leone",
        "name:kw": "Sierra Leon",
        "name:la": "Mons Leoninus",
        "name:lb": "Sierra Leone",
        "name:li": "Sierra Leone",
        "name:lij": "Sierra Lion",
        "name:lmo": "Sierra Leone",
        "name:ln": "Sierra Leone",
        "name:lt": "Siera Leon\u0117",
        "name:lv": "Sjerraleone",
        "name:mi": "Te Araone",
        "name:mk": "\u0421\u0438\u0435\u0440\u0430 \u041b\u0435\u043e\u043d\u0435",
        "name:ml": "\u0d38\u0d40\u0d31\u0d3e \u0d32\u0d3f\u0d2f\u0d4b\u0d7a",
        "name:mn": "\u0421\u044c\u0435\u0440\u0440\u0430-\u041b\u0435\u043e\u043d\u0435",
        "name:mr": "\u0938\u093f\u092f\u0947\u0930\u093e \u0932\u093f\u0913\u0928",
        "name:mrj": "\u0421\u044c\u0435\u0440\u0440\u0430-\u041b\u0435\u043e\u043d\u0435",
        "name:ms": "Sierra Leone",
        "name:mt": "Sierra Leone",
        "name:my": "\u1006\u102e\u101b\u102c\u101c\u102e\u101a\u103d\u1014\u103a\u1014\u102d\u102f\u1004\u103a\u1004\u1036",
        "name:nah": "Tep\u0113tlah Leona",
        "name:nan": "Sierra Leone",
        "name:nds": "Sierra Leone",
        "name:nl": "Sierra Leone",
        "name:nn": "Sierra Leone",
        "name:no": "Sierra Leone",
        "name:nov": "Siera Leone",
        "name:nso": "Sierra Leone",
        "name:nv": "N\u00e1shd\u00f3\u00edtsoh Bitsiij\u012f\u02bc Dadit\u0142\u02bcoo\u02bc\u00edg\u00ed\u00ed Bidzi\u0142",
        "name:oc": "Sierra Leone",
        "name:or": "\u0b38\u0b3f\u0b0f\u0b30\u0b3e \u0b32\u0b3f\u0b13\u0b28",
        "name:os": "\u0421\u044c\u0435\u0440\u0440\u00e6-\u041b\u0435\u043e\u043d\u0435",
        "name:pa": "\u0a38\u0a3f\u0a0f\u0a30\u0a3e \u0a32\u0a3f\u0a13\u0a28",
        "name:pam": "Sierra Leone",
        "name:pl": "Sierra Leone",
        "name:pms": "Sierra Leone",
        "name:pnb": "\u0633\u06cc\u0631\u0627\u0644\u06cc\u0648\u0646",
        "name:ps": "\u0633\u06d0\u0631\u0627\u0644\u06cc\u0648\u0646",
        "name:pt": "Serra Leoa",
        "name:qu": "Liyun Urqu",
        "name:ro": "Sierra Leone",
        "name:ru": "\u0421\u044c\u0435\u0440\u0440\u0430-\u041b\u0435\u043e\u043d\u0435",
        "name:rw": "Siyera Lewone",
        "name:sa": "\u0938\u093f\u092f\u093e\u0930\u093e-\u0932\u093f\u092f\u094b\u0928",
        "name:sah": "\u0421\u044c\u0435\u0440\u0440\u0430 \u041b\u0435\u043e\u043d\u0435",
        "name:sc": "Sierra Leone",
        "name:scn": "Serra Liuni",
        "name:sco": "Sierra Leone",
        "name:se": "Sierra Leone",
        "name:sg": "Sier\u00e4-Le\u00f4ne",
        "name:sh": "Sijera Leone",
        "name:si": "\u0dc3\u0dd2\u0dba\u0dd9\u0dbb\u0dcf \u0dbd\u0dd2\u0dba\u0ddd\u0db1\u0dca",
        "name:sk": "Sierra Leone",
        "name:sl": "Sierra Leone",
        "name:smn": "Sierra Leone",
        "name:sms": "Sierra Leone",
        "name:sn": "Sierra Leone",
        "name:so": "Sierra Leone",
        "name:sq": "Siera Leone",
        "name:sr": "\u0421\u0438\u0458\u0435\u0440\u0430 \u041b\u0435\u043e\u043d\u0435",
        "name:ss": "ISiriya-Liyoni",
        "name:stq": "Sierra Leone",
        "name:su": "Sierra Leone",
        "name:sv": "Sierra Leone",
        "name:sw": "Sierra Leone",
        "name:szl": "Sierra Leone",
        "name:ta": "\u0b9a\u0bbf\u0baf\u0bc7\u0bb0\u0bbe \u0bb2\u0bbf\u0baf\u0bcb\u0ba9\u0bbf",
        "name:tg": "\u0421\u0438\u0435\u0440\u0440\u0430 \u041b\u0435\u043e\u043d\u0435",
        "name:th": "\u0e1b\u0e23\u0e30\u0e40\u0e17\u0e28\u0e40\u0e0b\u0e35\u0e22\u0e23\u0e4c\u0e23\u0e32\u0e25\u0e35\u0e42\u0e2d\u0e19",
        "name:tk": "S\u00fderra-Leone",
        "name:tl": "Bulubunduking Leona",
        "name:tpi": "Sierra Leone",
        "name:tr": "Sierra Leone",
        "name:ts": "Siyera Liyona",
        "name:tw": "Sierra Leone",
        "name:tzl": "Sierra Leone",
        "name:ug": "\u0633\u064a\u06d0\u0631\u0631\u0627 \u0644\u06d0\u0626\u0648\u0646\u06d0",
        "name:uk": "\u0421\u044c\u0454\u0440\u0440\u0430-\u041b\u0435\u043e\u043d\u0435",
        "name:ur": "\u0633\u06cc\u0631\u0627\u0644\u06cc\u0648\u0646",
        "name:uz": "Syerra Leone",
        "name:vec": "Siera Leon",
        "name:vi": "Sierra Leone",
        "name:vo": "Sieraleon\u00e4n",
        "name:vro": "Sierra Leone",
        "name:war": "Sierra Leone",
        "name:wo": "Siraa Leyoon",
        "name:xal": "\u0421\u044c\u0435\u0440\u0430\u043b\u0435\u0433\u043e\u043d\u043c\u0443\u0434\u0438\u043d \u041e\u0440\u043d",
        "name:yi": "\u05e1\u05d9\u05e2\u05e8\u05e2 \u05dc\u05e2\u05d0\u05e0\u05e2",
        "name:yo": "Si\u1eb9rra L\u00e9\u00f2n\u00e8",
        "name:yue": "\u585e\u62c9\u5229\u6602",
        "name:zh": "\u585e\u62c9\u5229\u6602",
        "name:zh-Hans": "\u585e\u62c9\u5229\u6602",
        "name:zh-Hant": "\u7345\u5b50\u5c71",
        "name:zu": "ISiera Liyoni",
        "official_name:ar": "\u062c\u0645\u0647\u0648\u0631\u064a\u0629 \u0633\u064a\u0631\u0627\u0644\u064a\u0648\u0646",
        "official_name:cs": "Republika Sierra Leone",
        "official_name:fa": "\u062c\u0645\u0647\u0648\u0631\u06cc \u0633\u06cc\u0631\u0627\u0644\u0626\u0648\u0646",
        "official_name:gn": "Tavakuairet\u00e3 Si\u00e9rra Le\u00f5",
        "official_name:pt": "Rep\u00fablica da Serra Leoa",
        "timezone": "Africa/Freetown",
        "type": "boundary",
        "wikidata": "Q1044",
        "wikipedia": "en:Sierra Leone"
      }
    },
    {
      "type": "relation",
      "id": 3230988,
      "tags": {
        "ISO3166-2": "SL-E",
        "admin_level": "4",
        "alt_name:de": "Eastern Province",
        "alt_name:en": "Eastern Province, Sierra Leone",
        "boundary": "administrative",
        "name": "Eastern Province",
        "name:ar": "\u0627\u0644\u0645\u0646\u0637\u0642\u0629 \u0627\u0644\u0634\u0631\u0642\u064a\u0629",
        "name:be": "\u0423\u0441\u0445\u043e\u0434\u043d\u044f\u044f \u043f\u0440\u0430\u0432\u0456\u043d\u0446\u044b\u044f",
        "name:bg": "\u0418\u0437\u0442\u043e\u0447\u043d\u0430 \u043f\u0440\u043e\u0432\u0438\u043d\u0446\u0438\u044f",
        "name:ca": "Prov\u00edncia Oriental",
        "name:ceb": "Eastern Province",
        "name:de": "\u00d6stliche Provinz",
        "name:el": "\u0391\u03bd\u03b1\u03c4\u03bf\u03bb\u03b9\u03ba\u03ae \u03a0\u03b5\u03c1\u03b9\u03c6\u03ad\u03c1\u03b5\u03b9\u03b1, \u03a3\u03b9\u03ad\u03c1\u03c1\u03b1 \u039b\u03b5\u03cc\u03bd\u03b5",
        "name:en": "Eastern Province",
        "name:es": "Provincia del Este",
        "name:fa": "\u0627\u0633\u062a\u0627\u0646 \u0634\u0631\u0642\u06cc\u060c \u0633\u06cc\u0631\u0627\u0644\u0626\u0648\u0646",
        "name:fi": "It\u00e4inen maakunta",
        "name:fr": "Province de l'Est",
        "name:frr": "Eastern",
        "name:hr": "Isto\u010dna provincija",
        "name:id": "Provinsi Timur, Sierra Leone",
        "name:it": "Provincia dell'Est",
        "name:ja": "\u6771\u90e8\u5dde",
        "name:ko": "\ub3d9\ubd80\uc8fc",
        "name:lt": "Ryt\u0173 provincija",
        "name:nl": "Eastern",
        "name:no": "Eastern",
        "name:pl": "Prowincja Wschodnia",
        "name:pt": "Prov\u00edncia do Leste",
        "name:ro": "Provincia Eastern, Sierra Leone",
        "name:ru": "\u0412\u043e\u0441\u0442\u043e\u0447\u043d\u0430\u044f \u043f\u0440\u043e\u0432\u0438\u043d\u0446\u0438\u044f",
        "name:sv": "Eastern Province, Sierra Leone",
        "name:uk": "\u0421\u0445\u0456\u0434\u043d\u0430 \u043f\u0440\u043e\u0432\u0456\u043d\u0446\u0456\u044f",
        "name:ur": "\u0645\u0634\u0631\u0642\u06cc \u0635\u0648\u0628\u06c1\u060c \u0633\u06cc\u0631\u0627\u0644\u06cc\u0648\u0646",
        "name:zh": "\u6771\u65b9\u7701",
        "type": "boundary",
        "wikidata": "Q1050497",
        "wikipedia": "en:Eastern Province, Sierra Leone"
      }
    },
    {
      "type": "relation",
      "id": 3230989,
      "tags": {
        "ISO3166-2": "SL-N",
        "admin_level": "4",
        "alt_name:de": "Northern Province",
        "boundary": "administrative",
        "name": "Northern Province",
        "name:ar": "\u0627\u0644\u0645\u0646\u0637\u0642\u0629 \u0627\u0644\u0634\u0645\u0627\u0644\u064a\u0629",
        "name:bg": "\u0421\u0435\u0432\u0435\u0440\u043d\u0430 \u043f\u0440\u043e\u0432\u0438\u043d\u0446\u0438\u044f",
        "name:ceb": "Northern Province",
        "name:de": "N\u00f6rdliche Provinz",
        "name:el": "\u0392\u03cc\u03c1\u03b5\u03b9\u03b1 \u03a0\u03b5\u03c1\u03b9\u03c6\u03ad\u03c1\u03b5\u03b9\u03b1, \u03a3\u03b9\u03ad\u03c1\u03c1\u03b1 \u039b\u03b5\u03cc\u03bd\u03b5",
        "name:en": "Northern Province, Sierra Leone",
        "name:es": "Provincia del Norte",
        "name:fa": "\u0627\u0633\u062a\u0627\u0646 \u0634\u0645\u0627\u0644\u06cc\u060c \u0633\u06cc\u0631\u0627\u0644\u0626\u0648\u0646",
        "name:fi": "Pohjoinen maakunta",
        "name:fr": "Province du Nord",
        "name:frr": "Northern",
        "name:hr": "Sjeverna provincija",
        "name:hy": "\u0540\u0575\u0578\u0582\u057d\u056b\u057d\u0561\u0575\u056b\u0576 \u0576\u0561\u0570\u0561\u0576\u0563",
        "name:id": "Provinsi Utara, Sierra Leone",
        "name:it": "Provincia del Nord",
        "name:ja": "\u5317\u90e8\u5dde",
        "name:ko": "\ubd81\ubd80\uc8fc",
        "name:lt": "\u0160iaur\u0117s provincija",
        "name:nl": "Northern",
        "name:no": "Northern",
        "name:pl": "Prowincja P\u00f3\u0142nocna",
        "name:pt": "Prov\u00edncia do Norte",
        "name:ro": "Provincia de Nord, Sierra Leone",
        "name:ru": "\u0421\u0435\u0432\u0435\u0440\u043d\u0430\u044f \u043f\u0440\u043e\u0432\u0438\u043d\u0446\u0438\u044f",
        "name:sv": "Northern Province, Sierra Leone",
        "name:uk": "\u041f\u0456\u0432\u043d\u0456\u0447\u043d\u0430 \u043f\u0440\u043e\u0432\u0456\u043d\u0446\u0456\u044f",
        "name:ur": "\u0634\u0645\u0627\u0644\u06cc \u0635\u0648\u0628\u06c1\u060c \u0633\u06cc\u0631\u0627\u0644\u06cc\u0648\u0646",
        "name:zh": "\u5317\u65b9\u7701",
        "type": "boundary",
        "wikidata": "Q912359",
        "wikipedia": "en:Northern Province, Sierra Leone"
      }
    },
    {
      "type": "relation",
      "id": 3230990,
      "tags": {
        "ISO3166-2": "SL-S",
        "admin_level": "4",
        "alt_name:de": "Southern Province",
        "boundary": "administrative",
        "name": "Southern Province",
        "name:ar": "\u0627\u0644\u0645\u0646\u0637\u0642\u0629 \u0627\u0644\u062c\u0646\u0648\u0628\u064a\u0629",
        "name:bg": "\u042e\u0436\u043d\u0430 \u043f\u0440\u043e\u0432\u0438\u043d\u0446\u0438\u044f",
        "name:ceb": "Southern Province",
        "name:de": "S\u00fcdliche Provinz",
        "name:el": "\u039d\u03cc\u03c4\u03b9\u03b1 \u03a0\u03b5\u03c1\u03b9\u03c6\u03ad\u03c1\u03b5\u03b9\u03b1, \u03a3\u03b9\u03ad\u03c1\u03c1\u03b1 \u039b\u03b5\u03cc\u03bd\u03b5",
        "name:en": "Southern Province, Sierra Leone",
        "name:es": "Provincia del Sur",
        "name:fa": "\u0627\u0633\u062a\u0627\u0646 \u062c\u0646\u0648\u0628\u06cc\u060c \u0633\u06cc\u0631\u0627\u0644\u0626\u0648\u0646",
        "name:fi": "Etel\u00e4inen maakunta",
        "name:fr": "Province du Sud",
        "name:frr": "Southern",
        "name:gl": "Provincia do Sur, Serra Leoa",
        "name:hr": "Ju\u017ena provincija",
        "name:id": "Provinsi Selatan, Sierra Leone",
        "name:it": "Provincia del Sud",
        "name:ja": "\u5357\u90e8\u5dde",
        "name:ko": "\ub0a8\ubd80\uc8fc",
        "name:lt": "Piet\u0173 provincija",
        "name:nl": "Southern",
        "name:no": "Southern",
        "name:pl": "Prowincja Po\u0142udniowa",
        "name:pt": "Prov\u00edncia do Sul",
        "name:ro": "Provincia Southern, Sierra Leone",
        "name:ru": "\u042e\u0436\u043d\u0430\u044f \u043f\u0440\u043e\u0432\u0438\u043d\u0446\u0438\u044f",
        "name:sv": "Southern Province, Sierra Leone",
        "name:uk": "\u041f\u0456\u0432\u0434\u0435\u043d\u043d\u0430 \u043f\u0440\u043e\u0432\u0456\u043d\u0446\u0456\u044f",
        "name:ur": "\u062c\u0646\u0648\u0628\u06cc \u0635\u0648\u0628\u06c1\u060c \u0633\u06cc\u0631\u0627\u0644\u06cc\u0648\u0646",
        "name:zh": "\u5357\u65b9\u7701",
        "type": "boundary",
        "wikidata": "Q772185",
        "wikipedia": "en:Southern Province, Sierra Leone"
      }
    },
    {
      "type": "relation",
      "id": 3242455,
      "tags": {
        "ISO3166-2": "SL-W",
        "admin_level": "4",
        "alt_name:de": "Western Area",
        "boundary": "administrative",
        "name": "Western Area",
        "name:ar": "\u0627\u0644\u0645\u0646\u0637\u0642\u0629 \u0627\u0644\u063a\u0631\u0628\u064a\u0629",
        "name:be": "\u0417\u0430\u0445\u043e\u0434\u043d\u044f\u044f \u0432\u043e\u0431\u043b\u0430\u0441\u0446\u044c",
        "name:bg": "\u0417\u0430\u043f\u0430\u0434\u043d\u0430 \u043e\u0431\u043b\u0430\u0441\u0442",
        "name:bn": "\u09aa\u09b6\u09cd\u099a\u09bf\u09ae\u09be\u099e\u09cd\u099a\u09b2, \u09b8\u09bf\u09af\u09bc\u09c7\u09b0\u09be \u09b2\u09bf\u0993\u09a8",
        "name:ceb": "Western Area",
        "name:de": "Westliches Gebiet",
        "name:el": "\u0394\u03c5\u03c4\u03b9\u03ba\u03ae \u03a0\u03b5\u03c1\u03b9\u03c6\u03ad\u03c1\u03b5\u03b9\u03b1, \u03a3\u03b9\u03ad\u03c1\u03c1\u03b1 \u039b\u03b5\u03cc\u03bd\u03b5",
        "name:en": "Western Area",
        "name:es": "\u00c1rea Occidental",
        "name:et": "L\u00e4\u00e4nepiirkond",
        "name:fa": "\u0646\u0627\u062d\u06cc\u0647 \u063a\u0631\u0628\u06cc",
        "name:fi": "L\u00e4ntinen alue",
        "name:fr": "Zone de l'Ouest",
        "name:frr": "Western Area",
        "name:hr": "Zapadna zona",
        "name:id": "Wilayah Barat",
        "name:it": "Area Occidentale",
        "name:ja": "\u897f\u90e8\u5730\u57df",
        "name:ko": "\uc11c\ubd80\uad6c",
        "name:lt": "Vakar\u0173 sritis",
        "name:nl": "Western",
        "name:no": "Western",
        "name:pl": "Obszar Zachodni",
        "name:pt": "\u00c1rea do Oeste",
        "name:ro": "Zona de Vest, Sierra Leone",
        "name:ru": "\u0417\u0430\u043f\u0430\u0434\u043d\u0430\u044f \u043e\u0431\u043b\u0430\u0441\u0442\u044c",
        "name:sv": "Western Area",
        "name:uk": "\u0417\u0430\u0445\u0456\u0434\u043d\u0430 \u043e\u0431\u043b\u0430\u0441\u0442\u044c",
        "name:ur": "\u0645\u063a\u0631\u0628\u06cc \u0639\u0644\u0627\u0642\u06c1",
        "name:zh": "\u897f\u90e8\u533a",
        "type": "boundary",
        "wikidata": "Q1050475",
        "wikipedia": "en:Western Area"
      }
    },
    {
      "type": "relation",
      "id": 9636490,
      "tags": {
        "ISO3166-2": "SL-NW",
        "admin_level": "4",
        "boundary": "administrative",
        "name": "North Western Province",
        "name:ar": "\u0627\u0644\u0645\u0646\u0637\u0642\u0629 \u0627\u0644\u0634\u0645\u0627\u0644\u064a\u0629 \u0627\u0644\u063a\u0631\u0628\u064a\u0629",
        "name:de": "Nordwestliche Provinz",
        "name:en": "North West Province, Sierra Leone",
        "name:fr": "Province du Nord-Ouest",
        "name:frr": "North West",
        "name:ja": "\u5317\u897f\u90e8\u5dde",
        "name:pt": "Prov\u00edncia do Noroeste",
        "type": "boundary",
        "wikidata": "Q43371075",
        "wikipedia": "en:North West Province, Sierra Leone"
      }
    },
    {
      "type": "rel",
      "id": 2541272,
      "tags": {
        "admin_level": "6",
        "boundary": "administrative",
        "name": "Ribbi Chiefdom",
        "type": "boundary",
        "wikidata": "Q49127141",
        "parent_id": "3230990"
      }
    },
    {
      "type": "rel",
      "id": 2608049,
      "tags": {
        "admin_level": "6",
        "boundary": "administrative",
        "name": "Bagruwa Chiefdom",
        "type": "boundary",
        "wikidata": "Q31897415",
        "parent_id": "3230990"
      }
    },
    {
      "type": "rel",
      "id": 2610121,
      "tags": {
        "admin_level": "6",
        "boundary": "administrative",
        "name": "Kagboro Chiefdom",
        "type": "boundary",
        "parent_id": "3230990"
      }
    },
    {
      "type": "rel",
      "id": 2610122,
      "tags": {
        "admin_level": "6",
        "boundary": "administrative",
        "name": "Timdale Chiefdom",
        "type": "boundary",
        "wikidata": "Q49127185",
        "parent_id": "3230990"
      }
    },
    {
      "type": "rel",
      "id": 2655862,
      "tags": {
        "admin_level": "6",
        "boundary": "administrative",
        "name": "Bum Chiefdom",
        "type": "boundary",
        "wikidata": "Q4997219",
        "parent_id": "3230990"
      }
    },
    {
      "type": "rel",
      "id": 2655863,
      "tags": {
        "admin_level": "6",
        "boundary": "administrative",
        "name": "Yawbeko Chiefdom",
        "type": "boundary",
        "wikidata": "Q49127222",
        "parent_id": "3230990"
      }
    },
    {
      "type": "rel",
      "id": 2656414,
      "tags": {
        "admin_level": "6",
        "boundary": "administrative",
        "name": "Kwamebai Krim Chiefdom",
        "type": "boundary",
        "wikidata": "Q49127044",
        "parent_id": "3230990"
      }
    },
    {
      "type": "rel",
      "id": 2658602,
      "tags": {
        "admin_level": "6",
        "boundary": "administrative",
        "name": "Upper Banta Chiefdom",
        "type": "boundary",
        "wikidata": "Q49127196",
        "parent_id": "3230990"
      }
    },
    {
      "type": "rel",
      "id": 2610633,
      "tags": {
        "admin_level": "6",
        "boundary": "administrative",
        "name": "Koya Chiefdom",
        "type": "boundary",
        "parent_id": "9636490"
      }
    },
    {
      "type": "rel",
      "id": 2612480,
      "tags": {
        "admin_level": "6",
        "boundary": "administrative",
        "name": "Tambakha Chiefdom",
        "type": "boundary",
        "parent_id": "9636490"
      }
    },
    {
      "type": "rel",
      "id": 2615301,
      "tags": {
        "admin_level": "6",
        "boundary": "administrative",
        "name": "Masimera Chiefdom",
        "type": "boundary",
        "parent_id": "9636490"
      }
    },
    {
      "type": "rel",
      "id": 2615302,
      "tags": {
        "admin_level": "6",
        "boundary": "administrative",
        "name": "Sanda Magbolonto Chiefdom",
        "type": "boundary",
        "parent_id": "9636490"
      }
    },
    {
      "type": "rel",
      "id": 2636532,
      "tags": {
        "admin_level": "6",
        "boundary": "administrative",
        "name": "Maforki Chiefdom",
        "type": "boundary",
        "parent_id": "9636490"
      }
    },
    {
      "type": "rel",
      "id": 2637561,
      "tags": {
        "admin_level": "6",
        "boundary": "administrative",
        "name": "Marampa Chiefdom",
        "type": "boundary",
        "parent_id": "9636490"
      }
    },
    {
      "type": "rel",
      "id": 2654897,
      "tags": {
        "admin_level": "6",
        "boundary": "administrative",
        "name": "Buya Romende Chiefdom",
        "type": "boundary",
        "parent_id": "9636490"
      }
    }
  ]
}