{
  "version": 0.6,
  "generator": "Overpass API 0.7.62.8 e802775f",
  "osm3s": {
    "timestamp_osm_base": "2025-10-03T16:15:01Z",
    "timestamp_areas_base": "2025-10-03T13:36:01Z",
    "copyright": "The data included in this document is from www.openstreetmap.org. The data is made available under ODbL."
  },
  "elements": [
    {
      "type": "relation",
      "id": 50371,
      "tags": {
        "ISO3166-1": "MM",
        "ISO3166-1:alpha2": "MM",
        "ISO3166-1:alpha3": "MMR",
        "ISO3166-1:numeric": "104",
        "admin_level": "2",
        "alt_name:as": "\u09ae\u09cd\u09af\u09be\u09a8\u09ae\u09be\u09f0 (\u09ac\u09be\u09f0\u09cd\u09ae\u09be)",
        "alt_name:bn": "\u09ae\u09be\u09af\u09bc\u09be\u09a8\u09ae\u09be\u09b0",
        "alt_name:cs": "Barma (Myanmar)",
        "alt_name:cy": "Myanmar (Burma)",
        "alt_name:da": "Burma",
        "alt_name:et": "Birma (Myanmar)",
        "alt_name:eu": "Myanmar (Birmania)",
        "alt_name:gl": "Myanmar (Birmania)",
        "alt_name:id": "Myanmar (Burma)",
        "alt_name:ig": "Myanmar (Burma)",
        "alt_name:kn": "\u0cae\u0caf\u0ca8\u0ccd\u0cae\u0cbe\u0cb0\u0ccd (\u0cac\u0cb0\u0ccd\u0cae\u0cbe)",
        "alt_name:ku": "Myanmar (Birmanya)",
        "alt_name:ky": "\u041c\u044c\u044f\u043d\u043c\u0430 (\u0411\u0438\u0440\u043c\u0430)",
        "alt_name:ms": "Myanmar (Burma)",
        "alt_name:mt": "Mjanmar",
        "alt_name:pa": "\u0a2e\u0a3f\u0a06\u0a02\u0a2e\u0a3e\u0a30 (\u0a2c\u0a30\u0a2e\u0a3e)",
        "alt_name:pl": "Birma",
        "alt_name:sd": "\u0645\u064a\u0627\u0646\u0645\u0627\u0631 (\u0628\u0631\u0645\u0627)",
        "alt_name:sw": "Myanmar (Burma)",
        "alt_name:tr": "Birmanya",
        "alt_name:yo": "Manamari",
        "boundary": "administrative",
        "default_language": "my",
        "driving_side": "right",
        "flag": "https://upload.wikimedia.org/wikipedia/commons/8/8c/Flag_of_Myanmar.svg",
        "int_name": "Myanmar",
        "name": "\u1019\u103c\u1014\u103a\u1019\u102c",
        "name:ace": "Myanmar",
        "name:af": "Mianmar",
        "name:als": "Myanmar",
        "name:am": "\u121d\u12e8\u1295\u121b",
        "name:an": "Myanmar",
        "name:ang": "Burma",
        "name:ar": "\u0628\u0648\u0631\u0645\u0627",
        "name:as": "\u09ae\u09cd\u09af\u09be\u09a8\u09ae\u09be\u09f0",
        "name:ast": "Myanmar",
        "name:az": "Myanma",
        "name:ba": "\u041c\u044c\u044f\u043d\u043c\u0430",
        "name:bar": "Myanmar",
        "name:bat-smg": "Mianmars",
        "name:bcl": "Myanmar",
        "name:be": "\u041c'\u044f\u043d\u043c\u0430",
        "name:be-tarask": "\u041c\u2019\u044f\u043d\u043c\u0430",
        "name:bg": "\u041c\u0438\u0430\u043d\u043c\u0430\u0440",
        "name:bi": "Burma",
        "name:bn": "\u09ae\u09bf\u09af\u09bc\u09be\u09a8\u09ae\u09be\u09b0",
        "name:bo": "\u0f56\u0fb7\u0f62\u0f0b\u0f58\u0f0d",
        "name:bpy": "\u09ae\u09be\u09af\u09bc\u09be\u09a8\u09ae\u09be\u09b0",
        "name:br": "Myanmar",
        "name:bs": "Mijanmar",
        "name:bug": "Myanmar",
        "name:bxr": "\u041c\u044c\u044f\u043d\u043c\u0430\u0440",
        "name:ca": "Myanmar",
        "name:ce": "\u041c\u044c\u044f\u043d\u043c\u0430",
        "name:ceb": "Birmanya",
        "name:ckb": "\u0645\u06cc\u0627\u0646\u0645\u0627\u0631",
        "name:cnr": "Mjanmar",
        "name:crh": "Myanmar",
        "name:cs": "Myanmar",
        "name:csb": "Myanmar",
        "name:cv": "\u041c\u044c\u044f\u043d\u043c\u0430",
        "name:cy": "Myanmar",
        "name:da": "Myanmar",
        "name:de": "Myanmar",
        "name:diq": "Myanmar",
        "name:dsb": "Myanmar",
        "name:dv": "\u0784\u07a6\u0783\u07aa\u0789\u07a7",
        "name:dz": "\u0f58\u0f7a\u0f0b\u0f58\u0f62\u0f0b",
        "name:el": "\u039c\u03b9\u03b1\u03bd\u03bc\u03ac\u03c1",
        "name:en": "Myanmar",
        "name:en-GB": "Myanmar",
        "name:eo": "Birmo / Mjanmao",
        "name:es": "Birmania",
        "name:et": "Myanmar",
        "name:eu": "Myanmar",
        "name:ext": "Myanmar",
        "name:fa": "\u0645\u06cc\u0627\u0646\u0645\u0627\u0631",
        "name:fi": "Myanmar",
        "name:fil": "Myanmar",
        "name:fo": "Burma",
        "name:fr": "Birmanie",
        "name:frp": "Birmanie",
        "name:fy": "Birma",
        "name:ga": "Maenmar",
        "name:gag": "Myanmar",
        "name:gan": "\u7dec\u7538",
        "name:gd": "Mianmar",
        "name:gl": "Myanmar",
        "name:gn": "Miamar",
        "name:gu": "\u0aac\u0ab0\u0acd\u0aae\u0abe",
        "name:gv": "Myanmar",
        "name:hak": "Mi\u00e9n-thien",
        "name:haw": "Puruma",
        "name:he": "\u05de\u05d9\u05d0\u05e0\u05de\u05e8",
        "name:hi": "\u092e\u094d\u092f\u093e\u0928\u094d\u092e\u093e\u0930",
        "name:hif": "Myanmar",
        "name:hr": "Mjanmar",
        "name:hsb": "Myanmar",
        "name:ht": "Bimani",
        "name:hu": "Mianmar",
        "name:hy": "\u0544\u0575\u0561\u0576\u0574\u0561",
        "name:ia": "Birmania",
        "name:id": "Myanmar",
        "name:ie": "Myanmar",
        "name:ig": "Mianma",
        "name:ilo": "Myanmar",
        "name:io": "Myanmar",
        "name:is": "B\u00farma",
        "name:it": "Birmania",
        "name:iu": "Mianmaara",
        "name:ja": "\u30df\u30e3\u30f3\u30de\u30fc",
        "name:jbo": "mianmar",
        "name:jv": "Myanmar",
        "name:ka": "\u10db\u10d8\u10d0\u10dc\u10db\u10d0\u10e0\u10d8",
        "name:kab": "Birmanya",
        "name:kbd": "\u041c\u0438\u044f\u043d\u043c\u044d",
        "name:ki": "Myanmar",
        "name:kk": "\u041c\u0438\u0430\u043d\u043c\u0430",
        "name:km": "\u1798\u17b8\u1799\u17c9\u17b6\u1793\u17cb\u1798\u17c9\u17b6",
        "name:kn": "\u0cae\u0caf\u0ca8\u0ccd\u0cae\u0cbe\u0cb0\u0ccd",
        "name:ko": "\ubbf8\uc580\ub9c8",
        "name:kok": "\u092e\u094d\u092f\u093e\u0928\u092e\u093e\u0930",
        "name:ku": "\u0645\u06cc\u0627\u0646\u0645\u0627\u0631",
        "name:kv": "\u041c\u044c\u044f\u043d\u043c\u0430",
        "name:kw": "Byrmani",
        "name:ky": "\u041c\u044c\u044f\u043d\u043c\u0430",
        "name:la": "Birmania",
        "name:lb": "Myanmar",
        "name:li": "Myanmar",
        "name:lij": "Myanmar",
        "name:lmo": "Myanmar",
        "name:lo": "\u0e9b\u0eb0\u0ec0\u0e97\u0e94\u0ea1\u0ebd\u0e99\u0ea1\u0eb2",
        "name:lt": "Mianmaras",
        "name:lv": "Mjanma",
        "name:lzh": "\u7dec\u7538",
        "name:map-bms": "Myanmar",
        "name:mg": "Myanmara",
        "name:mi": "P\u0113ma",
        "name:mk": "\u041c\u0458\u0430\u043d\u043c\u0430\u0440",
        "name:ml": "\u0d2e\u0d4d\u0d2f\u0d3e\u0d28\u0d4d\u0d2e\u0d3e\u0d7c",
        "name:mn": "\u041c\u044c\u044f\u043d\u043c\u0430\u0440",
        "name:mr": "\u092e\u094d\u092f\u093e\u0928\u092e\u093e\u0930",
        "name:ms": "Myanmar",
        "name:mt": "Myanmar",
        "name:my": "\u1019\u103c\u1014\u103a\u1019\u102c",
        "name:mzn": "\u0645\u06cc\u0648\u0646\u0645\u0627\u0631",
        "name:na": "Miyanmar",
        "name:nah": "Mianma",
        "name:nan": "Myanma",
        "name:nap": "Birmania",
        "name:nb": "Myanmar",
        "name:nds": "Myanmar",
        "name:ne": "\u092e\u094d\u092f\u093e\u0928\u092e\u093e\u0930",
        "name:new": "\u092e\u094d\u092f\u093e\u0928\u094d\u092e\u093e\u0930",
        "name:nl": "Myanmar",
        "name:nn": "Myanmar",
        "name:no": "Myanmar",
        "name:nov": "Myanmar",
        "name:oc": "Birmania",
        "name:or": "\u0b2c\u0b30\u0b4d\u0b2e\u0b3e",
        "name:os": "\u041c\u044c\u044f\u043d\u043c\u00e6",
        "name:pa": "\u0a2e\u0a3f\u0a06\u0a02\u0a2e\u0a3e\u0a30",
        "name:pam": "Myanmar",
        "name:pap": "Myanmar",
        "name:pl": "Mjanma",
        "name:pms": "Myanmar",
        "name:pnb": "\u0645\u06cc\u0627\u0646\u0645\u0631",
        "name:ps": "\u0645\u064a\u0627\u0646\u0645\u0627\u0631",
        "name:pt": "Birm\u00e2nia",
        "name:qu": "Myanmar",
        "name:quz": "Myanmar",
        "name:rm": "Myanmar (Burma)",
        "name:ro": "Myanmar",
        "name:ru": "\u041c\u044c\u044f\u043d\u043c\u0430",
        "name:rw": "Mayanimari",
        "name:sa": "\u092e\u094d\u092f\u093e\u0928\u094d\u092e\u093e\u0930",
        "name:sah": "\u041c\u044c\u044f\u043d\u043c\u0430\u0440",
        "name:sc": "Birmania",
        "name:scn": "Myanmar",
        "name:sco": "Myanmar",
        "name:sd": "\u0645\u064a\u0627\u0646\u0645\u0627\u0631",
        "name:se": "Myanmar",
        "name:sh": "Mianmar",
        "name:si": "\u0db6\u0dd4\u0dbb\u0dd4\u0db8\u0dba",
        "name:sk": "Mjanmarsko",
        "name:sl": "Mjanmar",
        "name:smn": "Myanmar",
        "name:sms": "Myanmar",
        "name:so": "Myanmar",
        "name:sq": "Birmania",
        "name:sr": "\u041c\u0458\u0430\u043d\u043c\u0430\u0440",
        "name:ss": "IMayanima",
        "name:su": "Myanmar",
        "name:sv": "Myanmar",
        "name:sw": "Myanmar",
        "name:szl": "Birma",
        "name:ta": "\u0bae\u0bbf\u0baf\u0bbe\u0ba9\u0bcd\u0bae\u0bb0\u0bcd",
        "name:te": "\u0c2e\u0c2f\u0c28\u0c4d\u0c2e\u0c3e\u0c30\u0c4d",
        "name:tet": "Birm\u00e1nia",
        "name:tg": "\u041c\u044f\u043d\u043c\u0430",
        "name:th": "\u0e1b\u0e23\u0e30\u0e40\u0e17\u0e28\u0e1e\u0e21\u0e48\u0e32",
        "name:tk": "M\u00fdanma",
        "name:tl": "Myanmar",
        "name:tn": "Myanmar",
        "name:tr": "Myanmar",
        "name:tt": "\u041c\u044c\u044f\u043d\u043c\u0430",
        "name:tzl": "M\u00edanmar",
        "name:udm": "\u041c\u044c\u044f\u043d\u043c\u0430",
        "name:ug": "\u0628\u0649\u0631\u0645\u0627",
        "name:uk": "\u041c'\u044f\u043d\u043c\u0430",
        "name:ur": "\u0645\u06cc\u0627\u0646\u0645\u0627\u0631",
        "name:uz": "Birma",
        "name:vec": "Birmania",
        "name:vi": "Myanma",
        "name:vo": "Mianmar\u00e4n",
        "name:vro": "Birma",
        "name:war": "Myanmar",
        "name:wo": "Miyanmaar",
        "name:wuu": "\u7f05\u7538",
        "name:xal": "\u041c\u044c\u044f\u043d\u043c\u0443\u0434\u0438\u043d \u041d\u0438\u0438\u0446\u04d9\u043d",
        "name:xmf": "\u10db\u10d8\u10d0\u10dc\u10db\u10d0\u10e0\u10d8",
        "name:yi": "\u05de\u05d9\u05d0\u05e0\u05de\u05d0\u05e8",
        "name:yo": "Myanmar",
        "name:yue": "\u7dec\u7538",
        "name:za": "Mienjdien",
        "name:zea": "Myanmar",
        "name:zh": "\u7f05\u7538",
        "name:zh-Hans": "\u7f05\u7538",
        "name:zh-Hant": "\u7dec\u7538",
        "official_name:bn": "\u09aa\u09cd\u09b0\u099c\u09be\u09a4\u09be\u09a8\u09cd\u09a4\u09cd\u09b0\u09bf\u0995 \u0990\u0995\u09cd\u09af\u09a4\u09a8\u09cd\u09a4\u09cd\u09b0\u09c0 \u09ae\u09bf\u09af\u09bc\u09be\u09a8\u09ae\u09be\u09b0",
        "official_name:ca": "Rep\u00fablica de la Uni\u00f3 de Myanmar",
        "official_name:cnr": "Republika Unija Mjanmar",
        "official_name:cs": "Republika Myanmarsk\u00fd svaz",
        "official_name:da": "Unionen Myanmar",
        "official_name:de": "Republik der Union Myanmar",
        "official_name:en": "Republic of the Union of Myanmar",
        "official_name:es": "Rep\u00fablica de la Uni\u00f3n de Myanmar",
        "official_name:fi": "Myanmarin liitto",
        "official_name:gn": "Tavakuairet\u00e3 Joaty Miamar",
        "official_name:hr": "Republika Unija Mjanmar",
        "official_name:nl": "Unie van Myanmar",
        "official_name:no": "Unionen Myanmar",
        "official_name:pl": "Republika Zwi\u0105zku Mjanmy",
        "official_name:pt": "Rep\u00fablica da Uni\u00e3o de Myanmar",
        "official_name:ru": "\u0420\u0435\u0441\u043f\u0443\u0431\u043b\u0438\u043a\u0430 \u0421\u043e\u044e\u0437 \u041c\u044c\u044f\u043d\u043c\u0430",
        "official_name:sv": "Unionen Myanmar",
        "old_name:bn": "\u09ac\u09be\u09b0\u09cd\u09ae\u09be",
        "old_name:ca": "Birm\u00e0nia",
        "old_name:de": "Birma",
        "old_name:en": "Burma",
        "old_name:es": "Birmania",
        "old_name:et": "Birma",
        "old_name:eu": "Birmania",
        "old_name:fi": "Burma",
        "old_name:kn": "\u0cae\u0ccd\u0caf\u0cbe\u0ca8\u0ccd\u0cae\u0cbe\u0cb0\u0ccd",
        "old_name:ko": "\ubc84\ub9c8",
        "old_name:mt": "Burma",
        "old_name:nb": "Burma",
        "old_name:ro": "Birmania",
        "old_name:se": "Burma",
        "old_name:sv": "Burma",
        "old_name:vi": "Mi\u1ebfn \u0110i\u1ec7n;Di\u1ebfn \u0110i\u1ec7n",
        "source": "generated from SRTM",
        "timezone": "Asia/Yangon",
        "type": "boundary",
        "wikidata": "Q836",
        "wikipedia": "my:\u1019\u103c\u1014\u103a\u1019\u102c\u1014\u102d\u102f\u1004\u103a\u1004\u1036"
      }
    },
    {
      "type": "relation",
      "id": 1908810,
      "tags": {
        "ISO3166-2": "TH-85",
        "admin_level": "4",
        "alt_name:fr": "Province de Ranong",
        "alt_name:pl": "Prowincja Ranong",
        "boundary": "administrative",
        "name": "\u0e08\u0e31\u0e07\u0e2b\u0e27\u0e31\u0e14\u0e23\u0e30\u0e19\u0e2d\u0e07",
        "name:ace": "Propinsi Ranong",
        "name:ar": "\u0645\u062d\u0627\u0641\u0638\u0629 \u0631\u0627\u0646\u0648\u0646\u063a",
        "name:be": "\u0420\u0430\u043d\u043e\u043d\u0433",
        "name:bg": "\u0420\u0430\u043d\u043e\u043d\u0433",
        "name:bo": "\u0f62\u0f0b\u0f53\u0f7c\u0f44\u0f0b\u0f5e\u0f72\u0f44\u0f0b\u0f46\u0f7a\u0f53\u0f0d",
        "name:bpy": "\u099a\u09be\u0982\u09f1\u09be\u09a4 \u09b0\u09be\u09a8\u09cb\u0982",
        "name:cdo": "Ranong H\u016b",
        "name:ceb": "Changwat Ranong",
        "name:ckb": "\u067e\u0627\u0631\u06ce\u0632\u06af\u0627\u06cc \u0695\u0627\u0646\u06c6\u0646\u06af",
        "name:de": "Ranong",
        "name:en": "Ranong Province",
        "name:es": "Provincia de Ranong",
        "name:fa": "\u0627\u0633\u062a\u0627\u0646 \u0631\u0627\u0646\u0648\u0646\u06af",
        "name:fr": "Ranong",
        "name:gl": "Provincia de Ranong",
        "name:hi": "\u0930\u0928\u094b\u0902\u0917 \u092a\u094d\u0930\u093e\u0928\u094d\u0924",
        "name:id": "Provinsi Ranong",
        "name:it": "Provincia di Ranong",
        "name:ja": "\u30e9\u30ce\u30fc\u30f3\u770c",
        "name:ka": "\u10e0\u10d0\u10dc\u10dd\u10dc\u10d2\u10d8\u10e1 \u10de\u10e0\u10dd\u10d5\u10d8\u10dc\u10ea\u10d8\u10d0",
        "name:km": "\u1781\u17c1\u178f\u17d2\u178f\u179a\u1793\u1784",
        "name:ko": "\ub77c\ub18d\uc8fc",
        "name:lo": "\u0e88\u0eb1\u0e87\u0eab\u0ea7\u0eb1\u0e94\u0ea5\u0eb0\u0e99\u0ead\u0e87",
        "name:lzh": "\u62c9\u5eca\u5e9c",
        "name:mg": "Faritanin'i Ranong",
        "name:ms": "Ranong",
        "name:nan": "Ranong H\u00fa",
        "name:nl": "Ranong",
        "name:nn": "Ranong-fylket",
        "name:no": "Ranong",
        "name:pl": "Ranong",
        "name:pnb": "\u0635\u0648\u0628\u06c1 \u0631\u0627\u0646\u0648\u0646\u06af",
        "name:pt": "Ranong",
        "name:ro": "Provincia Ranong",
        "name:ru": "\u0420\u0430\u043d\u043e\u043d\u0433",
        "name:sco": "Ranong Province",
        "name:sv": "Ranong",
        "name:tg": "\u0412\u0438\u043b\u043e\u044f\u0442\u0438 \u0420\u0430\u043d\u043e\u043d\u0433",
        "name:th": "\u0e08\u0e31\u0e07\u0e2b\u0e27\u0e31\u0e14\u0e23\u0e30\u0e19\u0e2d\u0e07",
        "name:th-Latn": "Changwat Ranong",
        "name:tr": "Ranong",
        "name:uk": "\u0420\u0430\u043d\u043e\u043d\u0433",
        "name:ur": "\u0631\u0627\u0646\u0648\u0646\u06af \u0635\u0648\u0628\u06c1",
        "name:vi": "Ranong",
        "name:war": "Ranong",
        "name:wuu": "\u62c9\u5eca\u5e9c",
        "name:yue": "\u62c9\u5eca\u5e9c",
        "name:zh": "\u62c9\u5eca\u5e9c",
        "name:zh-Hant": "\u62c9\u5eca\u5e9c",
        "ref": "RNG",
        "type": "boundary",
        "wikidata": "Q236802",
        "wikipedia": "en:Ranong Province"
      }
    },
    {
      "type": "relation",
      "id": 5996473,
      "tags": {
        "ISO3166-2": "MM-07",
        "admin_level": "4",
        "boundary": "administrative",
        "int_name": "Ayeyarwady Region",
        "is_in:country": "Myanmar",
        "is_in:country_code": "MM",
        "name": "\u1027\u101b\u102c\u101d\u1010\u102e\u1010\u102d\u102f\u1004\u103a\u1038\u1012\u1031\u101e\u1000\u103c\u102e\u1038",
        "name:de": "Irawadi-Region",
        "name:en": "Ayeyarwady",
        "name:es": "Ayeyarwady",
        "name:fr": "Ayeyarwady",
        "name:hi": "\u0907\u0930\u093e\u0935\u0926\u0940 \u092e\u0923\u094d\u0921\u0932",
        "name:ja": "\u30a8\u30fc\u30e4\u30ef\u30c7\u30a3",
        "name:ko": "\uc5d0\uc57c\uc6cc\ub514\uc8fc",
        "name:my": "\u1027\u200b\u101b\u102c\u101d\u1010\u102e\u1010\u102d\u102f\u1004\u103a\u1038",
        "name:zh": "\u4f0a\u6d1b\u74e6\u5e95\u7701",
        "st_pcode_1": "MMR017",
        "type": "boundary",
        "wikidata": "Q47047"
      }
    },
    {
      "type": "relation",
      "id": 5996474,
      "tags": {
        "ISO3166-2": "MM-02",
        "admin_level": "4",
        "alt_name": "Bago",
        "alt_name:my": "\u1015\u1032\u1001\u1030\u1038\u1010\u102d\u102f\u1004\u103a\u1038",
        "boundary": "administrative",
        "int_name": "Bago Region",
        "is_in:country": "Myanmar",
        "is_in:country_code": "MM",
        "name": "\u1015\u1032\u1001\u1030\u1038\u1010\u102d\u102f\u1004\u103a\u1038\u1012\u1031\u101e\u1000\u103c\u102e\u1038",
        "name:de": "Bago-Region",
        "name:en": "Bago Region",
        "name:es": "Bago",
        "name:fr": "Bago",
        "name:ja": "\u30d0\u30b4\u30fc",
        "name:ko": "\ubc84\uace0\uc8fc",
        "name:mk": "\u0411\u0430\u0433\u043e",
        "name:my": "\u1015\u1032\u1001\u1030\u1038\u1010\u102d\u102f\u1004\u103a\u1038\u1012\u1031\u101e\u1000\u103c\u102e\u1038",
        "name:ru": "\u041f\u0435\u0433\u0443",
        "name:th": "\u0e40\u0e02\u0e15\u0e1e\u0e30\u0e42\u0e04",
        "name:uk": "\u0411\u0430\u0433\u043e",
        "name:zh": "\u52c3\u56fa\u7701",
        "old_name": "Pegu;Pegu Division;Bago Division",
        "old_name:uk": "\u041f\u0435\u0491\u0443",
        "st_pcode_1": "MMR111",
        "type": "boundary",
        "wikidata": "Q800124",
        "wikipedia": "en:Bago Region"
      }
    },
    {
      "type": "relation",
      "id": 5996475,
      "tags": {
        "ISO3166-2": "MM-14",
        "admin_level": "4",
        "boundary": "administrative",
        "int_name": "Chin State",
        "is_in:country": "Myanmar",
        "is_in:country_code": "MM",
        "name": "\u1001\u103b\u1004\u103a\u1038\u1015\u103c\u100a\u103a\u1014\u101a\u103a",
        "name:ar": "\u0648\u0644\u0627\u064a\u0629 \u062a\u0634\u064a\u0646",
        "name:br": "Stad Chin",
        "name:ca": "Xin",
        "name:cs": "\u010cjinsk\u00fd st\u00e1t",
        "name:de": "Chin-Staat",
        "name:en": "Chin",
        "name:eo": "\u015ctato \u0108in",
        "name:es": "Chin",
        "name:et": "T\u0161ini osariik",
        "name:eu": "Chin estatua",
        "name:fa": "\u0627\u06cc\u0627\u0644\u062a \u0686\u06cc\u0646",
        "name:fi": "Chin",
        "name:fr": "\u00c9tat Chin",
        "name:hi": "\u091a\u093f\u0928 \u0930\u093e\u091c\u094d\u092f",
        "name:id": "Negara Bagian Chin",
        "name:it": "Stato Chin",
        "name:ja": "\u30c1\u30f3",
        "name:ko": "\uce5c\uc8fc",
        "name:lt": "\u010cin\u0173 valstija",
        "name:lv": "\u010cina",
        "name:mk": "\u0427\u0438\u043d",
        "name:my": "\u1001\u103b\u1004\u103a\u1038\u1015\u103c\u100a\u103a\u1014\u101a\u103a",
        "name:nl": "Chin",
        "name:no": "Chin",
        "name:pl": "Czin",
        "name:pt": "Chin",
        "name:ro": "Statul Chin",
        "name:ru": "\u0427\u0438\u043d",
        "name:sr": "\u0427\u0438\u043d",
        "name:th": "\u0e23\u0e31\u0e10\u0e0a\u0e34\u0e19",
        "name:uk": "\u0427\u0438\u043d",
        "name:ur": "\u0686\u0646 \u0631\u06cc\u0627\u0633\u062a",
        "name:zh": "\u94a6\u90a6",
        "st_pcode": "MMR004",
        "type": "boundary",
        "wikidata": "Q46910",
        "wikipedia": "de:Chin-Staat"
      }
    },
    {
      "type": "relation",
      "id": 5996476,
      "tags": {
        "ISO3166-2": "MM-11",
        "admin_level": "4",
        "alt_name": "Kachin State",
        "boundary": "administrative",
        "int_name": "Kachin State",
        "is_in:country": "Myanmar",
        "is_in:country_code": "MM",
        "name": "\u1000\u1001\u103b\u1004\u103a\u1015\u103c\u100a\u103a\u1014\u101a\u103a",
        "name:ar": "\u0648\u0644\u0627\u064a\u0629 \u0643\u0627\u0634\u064a\u0646",
        "name:as": "\u0995\u09be\u099a\u09bf\u09a8",
        "name:bn": "\u0995\u09be\u099b\u09bf\u09a8 \u09b0\u09be\u099c\u09cd\u09af",
        "name:cs": "Ka\u010djinsk\u00fd st\u00e1t",
        "name:de": "Kachin-Staat",
        "name:en": "Kachin State",
        "name:eo": "Ka\u0109ino",
        "name:es": "Estado Kachin",
        "name:et": "Kat\u0161ini osariik",
        "name:eu": "Katxin estatua",
        "name:fa": "\u0627\u06cc\u0627\u0644\u062a \u06a9\u0627\u0686\u06cc\u0646",
        "name:fi": "Kachin",
        "name:fr": "\u00c9tat Kachin",
        "name:hi": "\u0915\u091a\u093f\u0928 \u0930\u093e\u091c\u094d\u092f",
        "name:hr": "Dr\u017eava Kachin",
        "name:hy": "\u053f\u0561\u0579\u056b\u0576",
        "name:id": "Negara Bagian Kachin",
        "name:it": "Stato Kachin",
        "name:ja": "\u30ab\u30c1\u30f3",
        "name:kn": "\u0c95\u0c9a\u0cbf\u0ca8\u0ccd",
        "name:ko": "\uaebc\uce5c\uc8fc",
        "name:lt": "Ka\u010din\u0173 valstija",
        "name:mk": "\u041a\u0430\u0447\u0438\u043d",
        "name:mr": "\u0915\u093e\u091a\u0940\u0928 \u0930\u093e\u091c\u094d\u092f",
        "name:my": "\u1000\u1001\u103b\u1004\u103a\u1015\u103c\u100a\u103a\u1014\u101a\u103a",
        "name:no": "Kachin",
        "name:pa": "\u0a15\u0a3e\u0a1a\u0a40\u0a28 \u0a38\u0a42\u0a2c\u0a3e",
        "name:pl": "Kaczin",
        "name:pt": "Kachin",
        "name:ro": "Statul Kachin",
        "name:ru": "\u041a\u0430\u0447\u0438\u043d",
        "name:sr": "\u041a\u0430\u0447\u0438\u043d",
        "name:th": "\u0e23\u0e31\u0e10\u0e01\u0e30\u0e09\u0e34\u0e48\u0e19",
        "name:uk": "\u041a\u0430\u0447\u0438\u043d",
        "name:ur": "\u06a9\u0627\u0686\u06cc\u0646 \u0631\u06cc\u0627\u0633\u062a",
        "name:zh": "\u514b\u94a6\u90a6",
        "st_pcode_1": "MMR001",
        "type": "boundary",
        "wikidata": "Q140646",
        "wikipedia": "en:Kachin State"
      }
    },
    {
      "type": "relation",
      "id": 5996477,
      "tags": {
        "ISO3166-2": "MM-12",
        "admin_level": "4",
        "boundary": "administrative",
        "int_name": "Kayah State",
        "is_in:country": "Myanmar",
        "is_in:country_code": "MM",
        "name": "\u1000\u101a\u102c\u1038\u1015\u103c\u100a\u103a\u1014\u101a\u103a",
        "name:de": "Kayah-Staat",
        "name:en": "Kayah State",
        "name:es": "Kayah",
        "name:fa": "\u0627\u06cc\u0627\u0644\u062a \u06a9\u0627\u06cc",
        "name:fr": "\u00c9tat de Kayah",
        "name:hi": "\u0915\u092f\u093e\u0939 \u0930\u093e\u091c\u094d\u092f",
        "name:hy": "\u053f\u0561\u0575\u0561",
        "name:ja": "\u30ab\u30e4\u30fc",
        "name:kn": "\u0c95\u0cb0\u0cc6\u0ca8\u0cbf \u0cb0\u0cbe\u0c9c\u0ccd\u0caf",
        "name:ko": "\uaebc\uc57c\uc8fc",
        "name:mk": "\u041a\u0430\u0458\u0430",
        "name:my": "\u1000\u101a\u102c\u1038\u1015\u103c\u100a\u103a\u1014\u101a\u103a",
        "name:pa": "\u0a15\u0a3e\u0a07\u0a06\u0a39 \u0a30\u0a3e\u0a1c",
        "name:ru": "\u041a\u0430\u044f",
        "name:th": "\u0e23\u0e31\u0e10\u0e01\u0e30\u0e22\u0e32",
        "name:uk": "\u041a\u0430\u044f",
        "name:ur": "\u06a9\u0627\u06cc\u0627\u06c1",
        "name:zh": "\u514b\u8036\u90a6",
        "st_pcode_1": "MMR002",
        "type": "boundary",
        "wikidata": "Q652845",
        "wikipedia": "de:Kayah-Staat"
      }
    },
    {
      "type": "relation",
      "id": 5996478,
      "tags": {
        "ISO3166-2": "MM-13",
        "admin_level": "4",
        "alt_name": "\u1000\u100a\u102e\u1000\u102e\u1062\u103a\u1006",
        "boundary": "administrative",
        "int_name": "Kayin State",
        "is_in:country": "Myanmar",
        "is_in:country_code": "MM",
        "name": "\u1000\u101b\u1004\u103a\u1015\u103c\u100a\u103a\u1014\u101a\u103a",
        "name:de": "Kayin-Staat",
        "name:es": "Kayin",
        "name:fr": "\u00c9tat Karen",
        "name:hi": "\u0915\u092f\u093f\u0928 \u0930\u093e\u091c\u094d\u092f",
        "name:ja": "\u30ab\u30ec\u30f3",
        "name:kn": "\u0c95\u0cb0\u0cc6\u0ca8\u0ccd \u0cb0\u0cbe\u0c9c\u0ccd\u0caf",
        "name:ko": "\uaebc\uc778\uc8fc",
        "name:pa": "\u0a15\u0a30\u0a47\u0a28 \u0a30\u0a3e\u0a1c",
        "name:ru": "\u041a\u0430\u0440\u0435\u043d",
        "name:th": "\u0e23\u0e31\u0e10\u0e01\u0e30\u0e40\u0e2b\u0e23\u0e35\u0e48\u0e22\u0e07",
        "name:uk": "\u041a\u0430\u0440\u0435\u043d",
        "name:vi": "Kayin",
        "name:zh": "\u514b\u4f26\u90a6",
        "old_name": "Karen State;Karen",
        "st_pcode_1": "MMR003",
        "type": "boundary",
        "wikidata": "Q495342",
        "wikipedia": "de:Kayin-Staat"
      }
    },
    {
      "type": "relation",
      "id": 5996479,
      "tags": {
        "ISO3166-2": "MM-03",
        "admin_level": "4",
        "alt_name": "Magwe",
        "boundary": "administrative",
        "int_name": "Magway Region",
        "is_in:country": "Myanmar",
        "is_in:country_code": "MM",
        "name": "\u1019\u1000\u103d\u1031\u1038\u1010\u102d\u102f\u1004\u103a\u1038\u1012\u1031\u101e\u1000\u103c\u102e\u1038",
        "name:de": "Magwe-Region",
        "name:en": "Magway",
        "name:es": "Magway",
        "name:fr": "Magway",
        "name:ja": "\u30de\u30b0\u30a6\u30a7",
        "name:ko": "\uba38\uada4\uc8fc",
        "name:my": "\u1019\u1000\u103d\u1031\u1038\u1010\u102d\u102f\u1004\u103a\u1038\u1012\u1031\u101e\u1000\u103c\u102e\u1038",
        "name:zh": "\u9a6c\u572d\u7701",
        "st_pcode_1": "MMR009",
        "type": "boundary",
        "wikidata": "Q833013"
      }
    },
    {
      "type": "relation",
      "id": 5996480,
      "tags": {
        "ISO3166-2": "MM-04",
        "admin_level": "4",
        "boundary": "administrative",
        "int_name": "Mandalay Region",
        "is_in:country": "Myanmar",
        "is_in:country_code": "MM",
        "name": "\u1019\u1014\u1039\u1010\u101c\u1031\u1038\u1010\u102d\u102f\u1004\u103a\u1038",
        "name:ca": "Divisi\u00f3 de Mandalay",
        "name:de": "Mandalay-Region",
        "name:en": "Mandalay",
        "name:es": "Regi\u00f3n del Mandalay",
        "name:et": "Mandalay piirkond",
        "name:fa": "\u0646\u0627\u062d\u06cc\u0647 \u0645\u0627\u0646\u062f\u0627\u0644\u06cc",
        "name:fi": "Mandalay",
        "name:fr": "R\u00e9gion de Mandalay",
        "name:hi": "\u092e\u093e\u0923\u094d\u0921\u0932\u0947 \u092e\u0923\u094d\u0921\u0932",
        "name:id": "Region Mandalay",
        "name:it": "Regione di Mandalay",
        "name:ja": "\u30de\u30f3\u30c0\u30ec\u30fc",
        "name:ko": "\ub9cc\ub2ec\ub808\uc774\uc8fc",
        "name:lt": "Mandalajaus regionas",
        "name:mk": "\u041c\u0430\u043d\u0434\u0430\u043b\u0435\u0458",
        "name:my": "\u1019\u1014\u1039\u1010\u101c\u1031\u1038\u1010\u102d\u102f\u1004\u103a\u1038",
        "name:nl": "Mandalay",
        "name:no": "Mandalay",
        "name:pl": "Mandalaj",
        "name:pt": "Mandalay",
        "name:ru": "\u041c\u0430\u043d\u0434\u0430\u043b\u0430\u0439",
        "name:sk": "Mandalaj",
        "name:sv": "Mandalayregionen",
        "name:th": "\u0e20\u0e32\u0e04\u0e21\u0e31\u0e13\u0e11\u0e30\u0e40\u0e25\u0e22\u0e4c",
        "name:uk": "\u041c\u0430\u043d\u0434\u0430\u043b\u0430\u0439",
        "name:ur": "\u0645\u0627\u0646\u062f\u0627\u0644\u06d2 \u0639\u0644\u0627\u0642\u06c1",
        "name:vi": "V\u00f9ng Mandalay",
        "name:zh": "\u66fc\u5fb7\u52d2\u7701",
        "st_pcode_1": "MMR010",
        "type": "boundary",
        "wikidata": "Q119494",
        "wikipedia": "en:Mandalay Region"
      }
    },
    {
      "type": "relation",
      "id": 5996481,
      "tags": {
        "ISO3166-2": "MM-15",
        "admin_level": "4",
        "alt_name": "\u1010\u103d\u1035\u102f\u101b\u1038\u100d\u102f\u105a\u103a\u1019\u1014\u103a",
        "boundary": "administrative",
        "int_name": "Mon State",
        "is_in:country": "Myanmar",
        "is_in:country_code": "MM",
        "name": "\u1019\u103d\u1014\u103a\u1015\u103c\u100a\u103a\u1014\u101a\u103a",
        "name:de": "Mon-Staat",
        "name:en": "Mon State",
        "name:es": "Estado Mon",
        "name:fr": "\u00c9tat M\u00f4n",
        "name:ja": "\u30e2\u30f3",
        "name:ko": "\ubaac\uc8fc",
        "name:my": "\u1019\u103d\u1014\u103a\u1015\u103c\u100a\u103a\u1014\u101a\u103a",
        "name:ru": "\u041c\u043e\u043d",
        "name:zh": "\u5b5f\u90a6",
        "st_pcode_1": "MMR011",
        "type": "boundary",
        "wikidata": "Q818742",
        "wikipedia": "de:Mon-Staat"
      }
    },
    {
      "type": "relation",
      "id": 5996482,
      "tags": {
        "ISO3166-2": "MM-18",
        "admin_level": "4",
        "alt_name": "Nay Pyi Taw;Nay Pyi Taw",
        "alt_name:es": "Territorio de la Uni\u00f3n de Naypyidaw",
        "boundary": "administrative",
        "int_name": "Naypyidaw Union Territory",
        "is_in:country": "Myanmar",
        "is_in:country_code": "MM",
        "name": "\u1014\u1031\u1015\u103c\u100a\u103a\u1010\u1031\u102c\u103a \u1015\u103c\u100a\u103a\u1011\u1031\u102c\u1004\u103a\u1005\u102f\u1014\u101a\u103a\u1019\u103c",
        "name:de": "Unionsterritorium Naypyidaw",
        "name:en": "Naypyitaw Union Territory",
        "name:es": "Territorio de la Uni\u00f3n de Naipyid\u00f3",
        "name:fr": "Naypyidaw Territoire de l'Union",
        "name:it": "Territorio dell'Unione di Nay Pyi Taw",
        "name:ja": "\u30cd\u30d4\u30c9\u30fc\u9023\u90a6\u9818",
        "name:ko": "\ub124\uc090\ub3c4\uc5f0\ubc29\uc8fc",
        "name:my": "\u1014\u1031\u1015\u103c\u100a\u103a\u1010\u1031\u102c\u103a \u1015\u103c\u100a\u103a\u1010\u1031\u102c\u1004\u103a\u1005\u102f\u1014\u101a\u103a\u1019\u103c\u1031",
        "name:th": "\u0e14\u0e34\u0e19\u0e41\u0e14\u0e19\u0e2a\u0e2b\u0e20\u0e32\u0e1e\u0e40\u0e19\u0e1b\u0e22\u0e35\u0e14\u0e2d",
        "name:vi": "L\u00e3nh th\u1ed5 Li\u00ean bang Naypyidaw",
        "name:zh": "\u5185\u6bd4\u90fd\u8054\u90a6\u533a",
        "name:zh-Hans-CN": "\u5185\u6bd4\u90fd\u8054\u90a6\u533a",
        "name:zh-Hant-TW": "\u5948\u6bd4\u591a\u806f\u90a6\u5340",
        "st_pcode_1": "MMR018",
        "type": "boundary",
        "wikidata": "Q4796",
        "wikipedia": "en:Naypyitaw Union Territory"
      }
    },
    {
      "type": "relation",
      "id": 5996483,
      "tags": {
        "ISO3166-2": "MM-16",
        "admin_level": "4",
        "boundary": "administrative",
        "name": "\u101b\u1001\u102d\u102f\u1004\u103a\u1015\u103c\u100a\u103a\u1014\u101a\u103a",
        "name:ar": "\u0631\u0627\u062e\u064a\u0646",
        "name:bn": "\u09b0\u09be\u0996\u09be\u0987\u09a8 \u09b0\u09be\u099c\u09cd\u09af",
        "name:de": "Rakhaing",
        "name:en": "Rakhine",
        "name:es": "Rak\u00e1in",
        "name:fa": "\u0627\u06cc\u0627\u0644\u062a \u0631\u0627\u062e\u06cc\u0646",
        "name:fr": "\u00c9tat d'Arakan",
        "name:hi": "\u0930\u0916\u093e\u0907\u0928 \u0930\u093e\u091c\u094d\u092f",
        "name:ja": "\u30e9\u30ab\u30a4\u30f3\u5dde",
        "name:kn": "\u0c85\u0cb0\u0c95\u0cbe\u0ca8\u0ccd",
        "name:ko": "\uc5ec\uce74\uc789\uc8fc",
        "name:mk": "\u0420\u0430\u043a\u0430\u0458\u043d",
        "name:my": "\u101b\u1001\u102d\u102f\u1004\u103a\u1015\u103c\u100a\u103a\u1014\u101a\u103a",
        "name:ru": "\u0420\u0430\u043a\u0445\u0430\u0439\u043d",
        "name:sr": "\u0420\u0430\u043a\u0430\u0458\u043d",
        "name:th": "\u0e23\u0e31\u0e10\u0e22\u0e30\u0e44\u0e02\u0e48",
        "name:tr": "Arakan",
        "name:uk": "\u0420\u0430\u043a\u0445\u0430\u0439\u043d",
        "name:ur": "\u0631\u0627\u062e\u0627\u0626\u0646 \u0631\u06cc\u0627\u0633\u062a",
        "name:zh": "\u82e5\u5f00\u90a6",
        "official_name:ar": "\u0648\u0644\u0627\u064a\u0629 \u0631\u0627\u062e\u064a\u0646",
        "official_name:de": "Rakhaing-Staat",
        "official_name:fa": "\u0627\u06cc\u0627\u0644\u062a \u0631\u0627\u062e\u06cc\u0646",
        "official_name:ur": "\u0631\u0627\u06a9\u06be\u0627\u0626\u0646 \u0631\u06cc\u0627\u0633\u062a",
        "old_name": "Arakan",
        "old_name:ar": "\u0623\u0631\u0627\u0643\u0627\u0646",
        "old_name:fa": "\u0622\u0631\u0627\u06a9\u0627\u0646",
        "old_name:ur": "\u0627\u0631\u0627\u06a9\u0627\u0646",
        "st_pcode_1": "MMR012",
        "type": "boundary",
        "wikidata": "Q233838"
      }
    },
    {
      "type": "relation",
      "id": 5996484,
      "tags": {
        "ISO3166-2": "MM-01",
        "admin_level": "4",
        "alt_name": "Sagaing Region",
        "boundary": "administrative",
        "int_name": "Sagaing Region",
        "is_in:country": "Myanmar",
        "is_in:country_code": "MM",
        "name": "\u1005\u1005\u103a\u1000\u102d\u102f\u1004\u103a\u1038\u1010\u102d\u102f\u1004\u103a\u1038",
        "name:ca": "Divisi\u00f3 de Sagaing",
        "name:de": "Sagaing-Region",
        "name:en": "Sagaing Region",
        "name:es": "Divisi\u00f3n de Sagaing",
        "name:et": "Sagaingi piirkond",
        "name:fa": "\u0646\u0627\u062d\u06cc\u0647 \u0632\u0627\u06af\u0627\u06cc\u0646",
        "name:fi": "Sagaing",
        "name:fr": "R\u00e9gion de Sagaing",
        "name:hi": "\u0938\u0917\u093e\u0907\u0902\u0917 \u092e\u0923\u094d\u0921\u0932",
        "name:id": "Region Sagaing",
        "name:it": "Regione di Sagaing",
        "name:ja": "\u30b6\u30ac\u30a4\u30f3",
        "name:ko": "\uc800\uac00\uc789\uc8fc",
        "name:lt": "Sagaino regionas",
        "name:mk": "\u0421\u0430\u0433\u0430\u0438\u043d",
        "name:my": "\u1005\u1005\u103a\u1000\u102d\u102f\u1004\u103a\u1038\u1010\u102d\u102f\u1004\u103a\u1038",
        "name:nl": "Sagaing",
        "name:no": "Sagaing",
        "name:pl": "Sikong",
        "name:pt": "Sagaing",
        "name:ru": "\u0421\u0438\u043a\u0430\u0439\u043d",
        "name:sv": "Sagaingregionen",
        "name:th": "\u0e40\u0e02\u0e15\u0e2a\u0e30\u0e01\u0e32\u0e22",
        "name:uk": "\u0421\u0456\u043a\u0430\u0439\u043d",
        "name:ur": "\u0633\u0627\u06af\u0627\u06cc\u0646\u06af \u0639\u0644\u0627\u0642\u06c1",
        "name:vi": "V\u00f9ng Sagaing",
        "name:zh": "\u5b9e\u7686\u7701",
        "st_pcode_1": "MMR005",
        "type": "boundary",
        "wikidata": "Q847289",
        "wikipedia": "en:Sagaing Region"
      }
    },
    {
      "type": "relation",
      "id": 5996485,
      "tags": {
        "ISO3166-2": "MM-17",
        "admin_level": "4",
        "boundary": "administrative",
        "int_name": "Shan State",
        "is_in:country": "Myanmar",
        "is_in:country_code": "MM",
        "name": "\u101b\u103e\u1019\u103a\u1038\u1015\u103c\u100a\u103a\u1014\u101a\u103a",
        "name:ar": "\u0648\u0644\u0627\u064a\u0629 \u0634\u0627\u0646",
        "name:br": "Stad Shan",
        "name:ca": "Estat Shan",
        "name:cs": "\u0160ansk\u00fd st\u00e1t",
        "name:de": "Shan-Staat",
        "name:en": "Shan State",
        "name:es": "Shan",
        "name:et": "\u0160ani osariik",
        "name:eu": "Shan estatua",
        "name:fa": "\u0627\u06cc\u0627\u0644\u062a \u0634\u0627\u0646",
        "name:fi": "Shan",
        "name:fr": "\u00c9tat shan",
        "name:hi": "\u0936\u093e\u0928 \u0930\u093e\u091c\u094d\u092f",
        "name:id": "Negara Bagian Shan",
        "name:it": "Stato Shan",
        "name:ja": "\u30b7\u30e3\u30f3",
        "name:ko": "\uc0e8\uc8fc",
        "name:lt": "\u0160an\u0173 valstija",
        "name:mk": "\u0428\u0430\u043d",
        "name:my": "\u101b\u103e\u1019\u103a\u1038\u1015\u103c\u100a\u103a\u1014\u101a\u103a",
        "name:nl": "Shan",
        "name:no": "Shan",
        "name:pl": "Szan",
        "name:pt": "Shan",
        "name:ru": "\u0428\u0430\u043d",
        "name:sr": "\u0428\u0430\u043d",
        "name:sv": "Shanstaten",
        "name:th": "\u0e23\u0e31\u0e10\u0e0a\u0e32\u0e19",
        "name:uk": "\u0428\u0430\u043d",
        "name:ur": "\u0631\u06cc\u0627\u0633\u062a \u0634\u0627\u0646",
        "name:vi": "Shan",
        "name:zh": "\u63b8\u90a6",
        "name:zh-Hant": "\u64a3\u90a6",
        "st_pcode_1": "MMR222",
        "type": "boundary",
        "wikidata": "Q456847",
        "wikipedia": "my:\u101b\u103e\u1019\u103a\u1038\u1015\u103c\u100a\u103a\u1014\u101a\u103a"
      }
    },
    {
      "type": "relation",
      "id": 5996486,
      "tags": {
        "ISO3166-2": "MM-05",
        "admin_level": "4",
        "boundary": "administrative",
        "int_name": "Tanintharyi Region",
        "is_in:country": "Myanmar",
        "is_in:country_code": "MM",
        "name": "\u1010\u1014\u1004\u103a\u1039\u101e\u102c\u101b\u102e\u1010\u102d\u102f\u1004\u103a\u1038",
        "name:de": "Tanintharyi-Region",
        "name:en": "Tanintharyi Region",
        "name:es": "Tanintharyi",
        "name:fr": "Tanintharyi",
        "name:ja": "\u30bf\u30cb\u30f3\u30c0\u30fc\u30ea",
        "name:ko": "\ub5a0\ub2dd\ub530\uc774\uc8fc",
        "name:my": "\u1010\u1014\u1004\u103a\u1039\u101e\u102c\u101b\u102e\u1010\u102d\u102f\u1004\u103a\u1038",
        "name:ru": "\u0422\u0430\u043d\u0438\u043d\u0442\u0430\u0439\u0438",
        "name:zh": "\u5fb7\u6797\u8fbe\u4f9d\u7701",
        "st_pcode_1": "MMR006",
        "type": "boundary",
        "wikidata": "Q843954",
        "wikipedia": "en:Tanintharyi Region"
      }
    },
    {
      "type": "relation",
      "id": 5996487,
      "tags": {
        "ISO3166-2": "MM-06",
        "admin_level": "4",
        "boundary": "administrative",
        "int_name": "Yangon Region",
        "is_in:country": "Myanmar",
        "is_in:country_code": "MM",
        "name": "\u101b\u1014\u103a\u1000\u102f\u1014\u103a\u1010\u102d\u102f\u1004\u103a\u1038\u1012\u1031\u101e\u1000\u103c\u102e\u1038",
        "name:de": "Yangon-Region",
        "name:en": "Yangon",
        "name:es": "Rang\u00fan",
        "name:fr": "Yangon",
        "name:ja": "\u30e4\u30f3\u30b4\u30f3",
        "name:ko": "\uc591\uace4\uc8fc",
        "name:my": "\u101b\u1014\u103a\u1000\u102f\u1014\u103a\u1010\u102d\u102f\u1004\u103a\u1038",
        "name:sk": "Rang\u00fan",
        "name:zh": "\u4ef0\u5149\u7701",
        "st_pcode_1": "MMR013",
        "type": "boundary",
        "wikidata": "Q856781",
        "wikipedia": "zh:\u4ef0\u5149\u7701"
      }
    },
    {
      "type": "relation",
      "id": 9399860,
      "tags": {
        "admin_level": "4",
        "alt_name:my": "\u2018\u101d\u2019 \u1021\u1011\u1030\u1038\u1012\u1031\u101e (\u1042) \u1010\u1031\u102c\u1004\u103a\u1015\u102d\u102f\u1004\u103a\u1038",
        "boundary": "administrative",
        "full_name": "\u4f64\u90a6\u5357\u90e8\u5730\u533a",
        "name": "\u101d\u1015\u103c\u100a\u103a\u1014\u101a\u103a \u1010\u1031\u102c\u1004\u103a\u1015\u102d\u102f\u1004\u103a\u1038 \u5357\u4f64",
        "name:en": "Wa State Southern Region",
        "name:my": "\u101d\u1015\u103c\u100a\u103a\u1014\u101a\u103a \u1010\u1031\u102c\u1004\u103a\u1015\u102d\u102f\u1004\u103a\u1038",
        "name:th": "\u0e23\u0e31\u0e10\u0e27\u0e49\u0e32\u0e43\u0e15\u0e49",
        "name:zh": "\u5357\u4f64",
        "source": "local knowledge;textbook",
        "type": "boundary",
        "wikidata": "Q127038600",
        "wikipedia": "zh:\u5357\u90e8\u5730\u65b9\u884c\u653f\u7ba1\u7406\u59d4\u5458\u4f1a"
      }
    },
    {
      "type": "relation",
      "id": 9399861,
      "tags": {
        "admin_level": "4",
        "alt_name:my": "\u2018\u101d\u2019 \u1021\u1011\u1030\u1038\u1012\u1031\u101e (\u1042) \u1019\u103c\u1031\u102c\u1000\u103a\u1015\u102d\u102f\u1004\u103a\u1038",
        "boundary": "administrative",
        "full_name": "\u4f64\u90a6\u5317\u90e8\u5730\u533a",
        "name": "\u101d\u1015\u103c\u100a\u103a\u1014\u101a\u103a \u1019\u103c\u1031\u102c\u1000\u103a\u1015\u102d\u102f\u1004\u103a\u1038 \u5317\u4f64",
        "name:en": "Wa State (Northern Region)",
        "name:my": "\u101d\u1015\u103c\u100a\u103a\u1014\u101a\u103a \u1019\u103c\u1031\u102c\u1000\u103a\u1015\u102d\u102f\u1004\u103a\u1038",
        "name:th": "\u0e23\u0e31\u0e10\u0e27\u0e49\u0e32\u0e40\u0e2b\u0e19\u0e37\u0e2d",
        "name:zh": "\u5317\u4f64",
        "source": "https://docs.wfp.org/api/documents/WFP-0000107118/download/",
        "type": "boundary"
      }
    },
    {
      "type": "rel",
      "id": 18738531,
      "tags": {
        "admin_level": "6",
        "boundary": "administrative",
        "name": "\u1000\u1019\u102c\u101b\u103d\u1010\u103a\u1001\u101b\u102d\u102f\u1004\u103a",
        "name:en": "Kamayut District",
        "name:my": "\u1000\u1019\u102c\u101b\u103d\u1010\u103a\u1001\u101b\u102d\u102f\u1004\u103a",
        "name:zh": "\u7518\u9a6c\u80b2\u53bf",
        "type": "boundary",
        "wikidata": "Q130241984",
        "wikipedia": "my:\u1000\u1019\u102c\u101b\u103d\u1010\u103a\u1001\u101b\u102d\u102f\u1004\u103a",
        "parent_id": "5996487"
      }
    },
    {
      "type": "rel",
      "id": 18738532,
      "tags": {
        "admin_level": "6",
        "boundary": "administrative",
        "name": "\u1012\u1002\u102f\u1036\u1019\u103c\u102d\u102f\u1037\u101e\u1005\u103a\u1001\u101b\u102d\u102f\u1004\u103a",
        "name:en": "Dagon Myothit District",
        "name:my": "\u1012\u1002\u102f\u1036\u1019\u103c\u102d\u102f\u1037\u101e\u1005\u103a\u1001\u101b\u102d\u102f\u1004\u103a",
        "name:zh": "\u5fb7\u8d21\u8c2c\u8fea\u53bf",
        "type": "boundary",
        "wikidata": "Q130241909",
        "wikipedia": "my:\u1012\u1002\u102f\u1036\u1019\u103c\u102d\u102f\u1037\u101e\u1005\u103a\u1001\u101b\u102d\u102f\u1004\u103a",
        "parent_id": "5996487"
      }
    },
    {
      "type": "rel",
      "id": 18738533,
      "tags": {
        "admin_level": "6",
        "boundary": "administrative",
        "name": "\u1017\u102d\u102f\u101c\u103a\u1010\u1011\u1031\u102c\u1004\u103a\u1001\u101b\u102d\u102f\u1004\u103a",
        "name:en": "Botahtaung District",
        "name:my": "\u1017\u102d\u102f\u101c\u103a\u1010\u1011\u1031\u102c\u1004\u103a\u1001\u101b\u102d\u102f\u1004\u103a",
        "name:zh": "\u6ce2\u8fbe\u901a\u53bf",
        "type": "boundary",
        "wikidata": "Q130242103",
        "wikipedia": "my:\u1017\u102d\u102f\u101c\u103a\u1010\u1011\u1031\u102c\u1004\u103a\u1001\u101b\u102d\u102f\u1004\u103a",
        "parent_id": "5996487"
      }
    },
    {
      "type": "rel",
      "id": 18738534,
      "tags": {
        "admin_level": "6",
        "boundary": "administrative",
        "name": "\u101e\u1004\u103a\u1039\u1003\u1014\u103a\u1038\u1000\u103b\u103d\u1014\u103a\u1038\u1001\u101b\u102d\u102f\u1004\u103a",
        "name:en": "Thingangyun District",
        "name:my": "\u101e\u1004\u103a\u1039\u1003\u1014\u103a\u1038\u1000\u103b\u103d\u1014\u103a\u1038\u1001\u101b\u102d\u102f\u1004\u103a",
        "name:zh": "\u4e01\u773c\u9075\u53bf",
        "type": "boundary",
        "wikidata": "Q130242075",
        "wikipedia": "my:\u101e\u1004\u103a\u1039\u1003\u1014\u103a\u1038\u1000\u103b\u103d\u1014\u103a\u1038\u1001\u101b\u102d\u102f\u1004\u103a",
        "parent_id": "5996487"
      }
    },
    {
      "type": "rel",
      "id": 18738535,
      "tags": {
        "admin_level": "6",
        "boundary": "administrative",
        "name": "\u1019\u101b\u1019\u103a\u1038\u1000\u102f\u1014\u103a\u1038\u1001\u101b\u102d\u102f\u1004\u103a",
        "name:en": "Mayangon District",
        "name:my": "\u1019\u101b\u1019\u103a\u1038\u1000\u102f\u1014\u103a\u1038\u1001\u101b\u102d\u102f\u1004\u103a",
        "name:zh": "\u739b\u4ef0\u516c\u53bf",
        "type": "boundary",
        "wikidata": "Q130241957",
        "wikipedia": "my:\u1019\u101b\u1019\u103a\u1038\u1000\u102f\u1014\u103a\u1038\u1001\u101b\u102d\u102f\u1004\u103a",
        "parent_id": "5996487"
      }
    },
    {
      "type": "rel",
      "id": 18738536,
      "tags": {
        "admin_level": "6",
        "boundary": "administrative",
        "name": "\u1021\u101c\u102f\u1036\u1001\u101b\u102d\u102f\u1004\u103a",
        "name:en": "Ahlon District",
        "name:my": "\u1021\u101c\u102f\u1036\u1001\u101b\u102d\u102f\u1004\u103a",
        "name:zh": "\u963f\u5f04\u53bf",
        "type": "boundary",
        "wikidata": "Q130242034",
        "wikipedia": "my:\u1021\u101c\u102f\u1036\u1001\u101b\u102d\u102f\u1004\u103a",
        "parent_id": "5996487"
      }
    },
    {
      "type": "rel",
      "id": 18738537,
      "tags": {
        "admin_level": "6",
        "boundary": "administrative",
        "name": "\u101e\u1014\u103a\u101c\u103b\u1004\u103a\u1001\u101b\u102d\u102f\u1004\u103a",
        "name:en": "Thanlyin District",
        "name:my": "\u101e\u1014\u103a\u101c\u103b\u1004\u103a\u1001\u101b\u102d\u102f\u1004\u103a",
        "name:zh": "\u4e39\u6797\u53bf",
        "type": "boundary",
        "wikidata": "Q130242139",
        "wikipedia": "my:\u101e\u1014\u103a\u101c\u103b\u1004\u103a\u1001\u101b\u102d\u102f\u1004\u103a",
        "parent_id": "5996487"
      }
    },
    {
      "type": "rel",
      "id": 18738538,
      "tags": {
        "admin_level": "6",
        "boundary": "administrative",
        "name": "\u1019\u103e\u1031\u102c\u103a\u1018\u102e\u1001\u101b\u102d\u102f\u1004\u103a",
        "name:en": "Hmawbi District",
        "name:my": "\u1019\u103e\u1031\u102c\u103a\u1018\u102e\u1001\u101b\u102d\u102f\u1004\u103a",
        "name:zh": "\u8302\u6bd4\u53bf",
        "type": "boundary",
        "wikidata": "Q118182543",
        "wikipedia": "my:\u1019\u103e\u1031\u102c\u103a\u1018\u102e\u1001\u101b\u102d\u102f\u1004\u103a",
        "parent_id": "5996487"
      }
    },
    {
      "type": "rel",
      "id": 18738539,
      "tags": {
        "OBJECTID": "1",
        "admin_level": "6",
        "boundary": "administrative",
        "name": "\u101c\u103e\u100a\u103a\u1038\u1000\u1030\u1038\u1001\u101b\u102d\u102f\u1004\u103a",
        "name:en": "Hlegu District",
        "name:zh": "\u83b1\u53e4\u53bf",
        "type": "boundary",
        "wikidata": "Q130242173",
        "wikipedia": "my:\u101c\u103e\u100a\u103a\u1038\u1000\u1030\u1038\u1001\u101b\u102d\u102f\u1004\u103a",
        "parent_id": "5996487"
      }
    },
    {
      "type": "rel",
      "id": 18738540,
      "tags": {
        "admin_level": "6",
        "boundary": "administrative",
        "name": "\u1010\u102d\u102f\u1000\u103a\u1000\u103c\u102e\u1038\u1001\u101b\u102d\u102f\u1004\u103a",
        "name:en": "Taikkyi District",
        "name:my": "\u1010\u102d\u102f\u1000\u103a\u1000\u103c\u102e\u1038\u1001\u101b\u102d\u102f\u1004\u103a",
        "name:zh": "\u5cb1\u679d\u53bf",
        "type": "boundary",
        "wikidata": "Q130242188",
        "wikipedia": "my:\u1010\u102d\u102f\u1000\u103a\u1000\u103c\u102e\u1038\u1001\u101b\u102d\u102f\u1004\u103a",
        "parent_id": "5996487"
      }
    },
    {
      "type": "rel",
      "id": 18738541,
      "tags": {
        "admin_level": "6",
        "boundary": "administrative",
        "name": "\u1000\u103b\u1031\u102c\u1000\u103a\u1010\u1036\u1010\u102c\u1038\u1001\u101b\u102d\u102f\u1004\u103a",
        "name:en": "Kyauktada District",
        "name:my": "\u1000\u103b\u1031\u102c\u1000\u103a\u1010\u1036\u1010\u102c\u1038\u1001\u101b\u102d\u102f\u1004\u103a",
        "name:zh": "\u768e\u5fb7\u8fbe\u53bf",
        "type": "boundary",
        "wikidata": "Q130241882",
        "wikipedia": "my:\u1000\u103b\u1031\u102c\u1000\u103a\u1010\u1036\u1010\u102c\u1038\u1001\u101b\u102d\u102f\u1004\u103a",
        "parent_id": "5996487"
      }
    },
    {
      "type": "rel",
      "id": 18738542,
      "tags": {
        "admin_level": "6",
        "boundary": "administrative",
        "name": "\u1010\u103d\u1036\u1010\u1031\u1038\u1001\u101b\u102d\u102f\u1004\u103a",
        "name:en": "Twantay District",
        "name:my": "\u1010\u103d\u1036\u1010\u1031\u1038\u1001\u101b\u102d\u102f\u1004\u103a",
        "name:zh": "\u7aef\u8fea\u53bf",
        "type": "boundary",
        "wikidata": "Q130242132",
        "wikipedia": "my:\u1010\u103d\u1036\u1010\u1031\u1038\u1001\u101b\u102d\u102f\u1004\u103a",
        "parent_id": "5996487"
      }
    },
    {
      "type": "rel",
      "id": 18738543,
      "tags": {
        "admin_level": "6",
        "boundary": "administrative",
        "name": "\u1021\u1004\u103a\u1038\u1005\u102d\u1014\u103a\u1001\u101b\u102d\u102f\u1004\u103a",
        "name:en": "Insein District",
        "name:my": "\u1021\u1004\u103a\u1038\u1005\u102d\u1014\u103a\u1001\u101b\u102d\u102f\u1004\u103a",
        "name:zh": "\u6c38\u76db\u53bf",
        "type": "boundary",
        "wikidata": "Q130238208",
        "wikipedia": "my:\u1021\u1004\u103a\u1038\u1005\u102d\u1014\u103a\u1001\u101b\u102d\u102f\u1004\u103a",
        "parent_id": "5996487"
      }
    },
    {
      "type": "rel",
      "id": 18738544,
      "tags": {
        "admin_level": "6",
        "boundary": "administrative",
        "name": "\u1019\u1004\u103a\u1039\u1002\u101c\u102c\u1012\u102f\u1036\u1001\u101b\u102d\u102f\u1004\u103a",
        "name:en": "Mingaladon District",
        "name:my": "\u1019\u1004\u103a\u1039\u1002\u101c\u102c\u1012\u102f\u1036\u1001\u101b\u102d\u102f\u1004\u103a",
        "name:zh": "\u660e\u52a0\u62c9\u987f\u53bf",
        "type": "boundary",
        "wikidata": "Q130241919",
        "wikipedia": "my:\u1019\u1004\u103a\u1039\u1002\u101c\u102c\u1012\u102f\u1036\u1001\u101b\u102d\u102f\u1004\u103a",
        "parent_id": "5996487"
      }
    },
    {
      "type": "rel",
      "id": 5996503,
      "tags": {
        "admin_level": "6",
        "boundary": "administrative",
        "dt_pcode_1": "MMR003D001",
        "name": "\u1018\u102c\u1038\u1021\u1036\u1001\u101b\u102d\u102f\u1004\u103a",
        "name:en": "Hpa-An District",
        "name:my": "\u1018\u102c\u1038\u1021\u1036\u1001\u101b\u102d\u102f\u1004\u103a",
        "name:uk": "\u041f\u0430\u0430\u043d",
        "name:zh": "\u5e15\u5b89\u53bf",
        "type": "boundary",
        "wikidata": "Q5923224",
        "parent_id": "5996478"
      }
    },
    {
      "type": "rel",
      "id": 5996504,
      "tags": {
        "admin_level": "6",
        "alt_name": "Mutraw",
        "boundary": "administrative",
        "dt_pcode_1": "MMR003D004",
        "name": "\u1016\u102c\u1015\u103d\u1014\u103a\u1001\u101b\u102d\u102f\u1004\u103a",
        "name:en": "Hpapun District",
        "name:my": "\u1016\u102c\u1015\u103d\u1014\u103a\u1001\u101b\u102d\u102f\u1004\u103a",
        "name:zh": "\u5e15\u672c\u53bf",
        "type": "boundary",
        "wikidata": "Q19716569",
        "wikipedia": "zh:\u5e15\u672c\u53bf",
        "parent_id": "5996478"
      }
    },
    {
      "type": "rel",
      "id": 5996507,
      "tags": {
        "admin_level": "6",
        "boundary": "administrative",
        "dt_pcode_1": "MMR003D003",
        "name": "\u1000\u1031\u102c\u1037\u1000\u101b\u102d\u1010\u103a\u1001\u101b\u102d\u102f\u1004\u103a",
        "name:en": "Kawkareik District",
        "name:my": "\u1000\u1031\u102c\u1037\u1000\u101b\u102d\u1010\u103a\u1001\u101b\u102d\u102f\u1004\u103a",
        "name:zh": "\u9ad8\u52a0\u529b\u53bf",
        "type": "boundary",
        "wikidata": "Q6380015",
        "wikipedia": "en:Kawkareik District",
        "parent_id": "5996478"
      }
    },
    {
      "type": "rel",
      "id": 5996536,
      "tags": {
        "admin_level": "6",
        "boundary": "administrative",
        "dt_pcode_1": "MMR003D002",
        "name": "\u1019\u103c\u101d\u1010\u102e\u1001\u101b\u102d\u102f\u1004\u103a",
        "name:en": "Myawaddy District",
        "name:my": "\u1019\u103c\u101d\u1010\u102e\u1001\u101b\u102d\u102f\u1004\u103a",
        "name:zh": "\u5999\u74e6\u5e95\u53bf",
        "name:zh-Hant": "\u82d7\u74e6\u8fea\u7e23",
        "type": "boundary",
        "wikidata": "Q6946819",
        "wikipedia": "en:Myawaddy District",
        "parent_id": "5996478"
      }
    },
    {
      "type": "rel",
      "id": 18933872,
      "tags": {
        "admin_level": "6",
        "boundary": "administrative",
        "name": "\u101e\u1036\u1010\u1031\u102c\u1004\u103a\u1000\u103c\u102e\u1038\u1001\u101b\u102d\u102f\u1004\u103a",
        "name:en": "Thandaungyi District",
        "name:my": "\u101e\u1036\u1010\u1031\u102c\u1004\u103a\u1000\u103c\u102e\u1038\u1001\u101b\u102d\u102f\u1004\u103a",
        "name:zh": "\u4e39\u5f53\u57fa\u53bf",
        "type": "boundary",
        "wikidata": "Q129931374",
        "wikipedia": "my:\u101e\u1036\u1010\u1031\u102c\u1004\u103a\u1000\u103c\u102e\u1038\u1001\u101b\u102d\u102f\u1004\u103a",
        "parent_id": "5996478"
      }
    },
    {
      "type": "rel",
      "id": 18933873,
      "tags": {
        "admin_level": "6",
        "boundary": "administrative",
        "name": "\u1000\u103c\u102c\u1021\u1004\u103a\u1038\u1006\u102d\u1015\u103a\u1000\u103c\u102e\u1038\u1001\u101b\u102d\u102f\u1004\u103a",
        "name:my": "\u1000\u103c\u102c\u1021\u1004\u103a\u1038\u1006\u102d\u1015\u103a\u1000\u103c\u102e\u1038\u1001\u101b\u102d\u102f\u1004\u103a",
        "name:zh": "\u8d3e\u56e0\u8272\u57fa\u53bf",
        "type": "boundary",
        "wikidata": "Q129931836",
        "wikipedia": "my:\u1000\u103c\u102c\u1021\u1004\u103a\u1038\u1006\u102d\u1015\u103a\u1000\u103c\u102e\u1038\u1001\u101b\u102d\u102f\u1004\u103a",
        "parent_id": "5996478"
      }
    },
    {
      "type": "rel",
      "id": 5996496,
      "tags": {
        "admin_level": "6",
        "boundary": "administrative",
        "dt_pcode_1": "MMR006D001",
        "name": "\u1011\u102c\u1038\u101d\u101a\u103a\u1001\u101b\u102d\u102f\u1004\u103a",
        "name:en": "Dawei District",
        "name:my": "\u1011\u102c\u1038\u101d\u101a\u103a\u1001\u101b\u102d\u102f\u1004\u103a",
        "name:zh": "\u571f\u74e6\u53bf",
        "type": "boundary",
        "wikidata": "Q5242297",
        "parent_id": "5996486"
      }
    },
    {
      "type": "rel",
      "id": 5996508,
      "tags": {
        "admin_level": "6",
        "boundary": "administrative",
        "dt_pcode_1": "MMR006D003",
        "name": "\u1000\u1031\u102c\u1037\u101e\u1031\u102c\u1004\u103a\u1038\u1001\u101b\u102d\u102f\u1004\u103a",
        "name:en": "Kawthoung District",
        "name:my": "\u1000\u1031\u102c\u1037\u101e\u1031\u102c\u1004\u103a\u1038\u1001\u101b\u102d\u102f\u1004\u103a",
        "name:uk": "\u041a\u043e\u0442\u0430\u0443\u043d",
        "name:zh": "\u9ad8\u5f53\u53bf",
        "type": "boundary",
        "wikidata": "Q6380067",
        "wikipedia": "my:\u1000\u1031\u102c\u1037\u101e\u1031\u102c\u1004\u103a\u1038\u1001\u101b\u102d\u102f\u1004\u103a",
        "parent_id": "5996486"
      }
    },
    {
      "type": "rel",
      "id": 5996537,
      "tags": {
        "admin_level": "6",
        "boundary": "administrative",
        "dt_pcode_1": "MMR006D002",
        "name": "\u1019\u103c\u102d\u1010\u103a\u1001\u101b\u102d\u102f\u1004\u103a",
        "name:en": "Myeik District",
        "name:my": "\u1019\u103c\u102d\u1010\u103a\u1001\u101b\u102d\u102f\u1004\u103a",
        "name:zh": "\u4e39\u8001\u53bf",
        "type": "boundary",
        "wikidata": "Q6947286",
        "wikipedia": "my:\u1019\u103c\u102d\u1010\u103a\u1001\u101b\u102d\u102f\u1004\u103a",
        "parent_id": "5996486"
      }
    },
    {
      "type": "rel",
      "id": 18943753,
      "tags": {
        "admin_level": "6",
        "boundary": "administrative",
        "name": "\u1018\u102f\u1010\u103a\u1015\u103c\u1004\u103a\u1038\u1001\u101b\u102d\u102f\u1004\u103a",
        "name:en": "Bokepyin District",
        "name:my": "\u1018\u102f\u1010\u103a\u1015\u103c\u1004\u103a\u1038\u1001\u101b\u102d\u102f\u1004\u103a",
        "name:zh": "\u535a\u5bbe\u53bf",
        "type": "boundary",
        "wikidata": "Q133818489",
        "wikipedia": "my:\u1018\u102f\u1010\u103a\u1015\u103c\u1004\u103a\u1038\u1001\u101b\u102d\u102f\u1004\u103a",
        "parent_id": "5996486"
      }
    },
    {
      "type": "rel",
      "id": 18997125,
      "tags": {
        "admin_level": "6",
        "boundary": "administrative",
        "fixme": "Please add Thai name for this district.",
        "name:en": "Mueang Ranong",
        "type": "boundary",
        "parent_id": "5996486"
      }
    },
    {
      "type": "rel",
      "id": 5996508,
      "tags": {
        "admin_level": "6",
        "boundary": "administrative",
        "dt_pcode_1": "MMR006D003",
        "name": "\u1000\u1031\u102c\u1037\u101e\u1031\u102c\u1004\u103a\u1038\u1001\u101b\u102d\u102f\u1004\u103a",
        "name:en": "Kawthoung District",
        "name:my": "\u1000\u1031\u102c\u1037\u101e\u1031\u102c\u1004\u103a\u1038\u1001\u101b\u102d\u102f\u1004\u103a",
        "name:uk": "\u041a\u043e\u0442\u0430\u0443\u043d",
        "name:zh": "\u9ad8\u5f53\u53bf",
        "type": "boundary",
        "wikidata": "Q6380067",
        "wikipedia": "my:\u1000\u1031\u102c\u1037\u101e\u1031\u102c\u1004\u103a\u1038\u1001\u101b\u102d\u102f\u1004\u103a",
        "parent_id": "1908810"
      }
    },
    {
      "type": "rel",
      "id": 18996972,
      "tags": {
        "admin_level": "6",
        "boundary": "administrative",
        "fixme": "Please add Thai name for this district.",
        "name:en": "Kapoe",
        "type": "boundary",
        "parent_id": "1908810"
      }
    },
    {
      "type": "rel",
      "id": 18997003,
      "tags": {
        "admin_level": "6",
        "boundary": "administrative",
        "fixme": "Please add Thai name for this district.",
        "name:en": "Kra Buri",
        "type": "boundary",
        "parent_id": "1908810"
      }
    },
    {
      "type": "rel",
      "id": 18997068,
      "tags": {
        "admin_level": "6",
        "boundary": "administrative",
        "fixme": "Please add Thai name for this district.",
        "name:en": "La-Un",
        "type": "boundary",
        "parent_id": "1908810"
      }
    },
    {
      "type": "rel",
      "id": 18997125,
      "tags": {
        "admin_level": "6",
        "boundary": "administrative",
        "fixme": "Please add Thai name for this district.",
        "name:en": "Mueang Ranong",
        "type": "boundary",
        "parent_id": "1908810"
      }
    },
    {
      "type": "rel",
      "id": 19097176,
      "tags": {
        "admin_level": "6",
        "boundary": "administrative",
        "fixme": "Please add Thai name for this district.",
        "name:en": "Suk Samran",
        "type": "boundary",
        "parent_id": "1908810"
      }
    },
    {
      "type": "rel",
      "id": 5996500,
      "tags": {
        "admin_level": "6",
        "boundary": "administrative",
        "name": "\u101f\u1004\u103a\u1039\u101e\u102c\u1010\u1001\u101b\u102d\u102f\u1004\u103a",
        "name:en": "Hinthada District",
        "name:my": "\u101f\u1004\u103a\u1039\u101e\u102c\u1010\u1001\u101b\u102d\u102f\u1004\u103a",
        "name:zh": "\u5174\u5b9e\u8fbe\u53bf",
        "pcode": "MMR017D002",
        "type": "boundary",
        "wikidata": "Q11917372",
        "parent_id": "5996473"
      }
    },
    {
      "type": "rel",
      "id": 5996513,
      "tags": {
        "admin_level": "6",
        "boundary": "administrative",
        "dt_pcode_1": "MMR017D004",
        "name": "\u101c\u1015\u103d\u1010\u1039\u1010\u102c\u1001\u101b\u102d\u102f\u1004\u103a",
        "name:en": "Labutta",
        "name:my": "\u101c\u1015\u103d\u1010\u1039\u1010\u102c\u1001\u101b\u102d\u102f\u1004\u103a",
        "name:zh": "\u62c9\u5e03\u8fbe\u53bf",
        "type": "boundary",
        "parent_id": "5996473"
      }
    },
    {
      "type": "rel",
      "id": 5996523,
      "tags": {
        "admin_level": "6",
        "boundary": "administrative",
        "dt_pcode_1": "MMR017D005",
        "name": "\u1019\u1021\u1030\u1015\u1004\u103a\u1001\u101b\u102d\u102f\u1004\u103a",
        "name:en": "Maubin",
        "name:my": "\u1019\u1021\u1030\u1015\u1004\u103a\u1001\u101b\u102d\u102f\u1004\u103a",
        "name:zh": "\u9a6c\u4e4c\u5bbe\u53bf",
        "type": "boundary",
        "parent_id": "5996473"
      }
    },
    {
      "type": "rel",
      "id": 5996535,
      "tags": {
        "admin_level": "6",
        "boundary": "administrative",
        "dt_pcode_1": "MMR017D003",
        "name": "\u1019\u103c\u1031\u102c\u1004\u103a\u1038\u1019\u103c\u1001\u101b\u102d\u102f\u1004\u103a",
        "name:en": "Myaungmya",
        "name:my": "\u1019\u103c\u1031\u102c\u1004\u103a\u1038\u1019\u103c\u1001\u101b\u102d\u102f\u1004\u103a",
        "name:zh": "\u6e3a\u5f25\u4e9a\u53bf",
        "type": "boundary",
        "parent_id": "5996473"
      }
    },
    {
      "type": "rel",
      "id": 5996544,
      "tags": {
        "admin_level": "6",
        "boundary": "administrative",
        "dt_pcode_1": "MMR017D001",
        "name": "\u1015\u102f\u101e\u102d\u1019\u103a\u1001\u101b\u102d\u102f\u1004\u103a",
        "name:en": "Pathein",
        "name:my": "\u1015\u102f\u101e\u102d\u1019\u103a\u1001\u101b\u102d\u102f\u1004\u103a",
        "name:zh": "\u52c3\u751f\u53bf",
        "type": "boundary",
        "wikidata": "Q7144735",
        "parent_id": "5996473"
      }
    },
    {
      "type": "rel",
      "id": 5996546,
      "tags": {
        "admin_level": "6",
        "boundary": "administrative",
        "dt_pcode_1": "MMR017D006",
        "name": "\u1016\u103b\u102c\u1015\u102f\u1036\u1001\u101b\u102d\u102f\u1004\u103a",
        "name:en": "Pyapon",
        "name:my": "\u1016\u103b\u102c\u1015\u102f\u1036\u1001\u101b\u102d\u102f\u1004\u103a",
        "name:uk": "\u041f`\u044f\u043f\u043e\u0443\u043d",
        "name:zh": "\u58c1\u78c5\u53bf",
        "type": "boundary",
        "parent_id": "5996473"
      }
    },
    {
      "type": "rel",
      "id": 16731327,
      "tags": {
        "admin_level": "6",
        "boundary": "administrative",
        "name": "\u1019\u103c\u1014\u103a\u1021\u1031\u102c\u1004\u103a\u1001\u101b\u102d\u102f\u1004\u103a",
        "name:en": "Myanaung District",
        "name:my": "\u1019\u103c\u1014\u103a\u1021\u1031\u102c\u1004\u103a\u1001\u101b\u102d\u102f\u1004\u103a",
        "name:zh": "\u7f05\u6602\u53bf",
        "type": "boundary",
        "parent_id": "5996473"
      }
    },
    {
      "type": "rel",
      "id": 16731328,
      "tags": {
        "admin_level": "6",
        "boundary": "administrative",
        "name": "\u1000\u103b\u102f\u1036\u1015\u103b\u1031\u102c\u103a\u1001\u101b\u102d\u102f\u1004\u103a",
        "name:en": "Kyonpyaw District",
        "name:my": "\u1000\u103b\u102f\u1036\u1015\u103b\u1031\u102c\u103a\u1001\u101b\u102d\u102f\u1004\u103a",
        "name:zh": "\u70d4\u6807\u53bf",
        "type": "boundary",
        "parent_id": "5996473"
      }
    },
    {
      "type": "rel",
      "id": 5996526,
      "tags": {
        "admin_level": "6",
        "boundary": "administrative",
        "dt_pcode_1": "MMR011D001",
        "name": "\u1019\u1031\u102c\u103a\u101c\u1019\u103c\u102d\u102f\u1004\u103a\u1001\u101b\u102d\u102f\u1004\u103a",
        "name:en": "Mawlamyine District",
        "name:my": "\u1019\u1031\u102c\u103a\u101c\u1019\u103c\u102d\u102f\u1004\u103a\u1001\u101b\u102d\u102f\u1004\u103a",
        "name:zh": "\u6bdb\u6de1\u68c9\u53bf",
        "type": "boundary",
        "wikidata": "Q6794425",
        "wikipedia": "my:\u1019\u1031\u102c\u103a\u101c\u1019\u103c\u102d\u102f\u1004\u103a\u1001\u101b\u102d\u102f\u1004\u103a",
        "parent_id": "5996481"
      }
    },
    {
      "type": "rel",
      "id": 5996558,
      "tags": {
        "admin_level": "6",
        "boundary": "administrative",
        "dt_pcode_1": "MMR011D002",
        "fixme": "Please change \"name\" to original Burmese name and add the \"name:my\" Tag.",
        "name": "\u101e\u1011\u102f\u1036\u1001\u101b\u102d\u102f\u1004\u103a",
        "name:en": "Thaton District",
        "name:my": "\u101e\u1011\u102f\u1036\u1001\u101b\u102d\u102f\u1004\u103a",
        "name:zh": "\u76f4\u901a\u53bf",
        "type": "boundary",
        "wikidata": "Q11917410",
        "wikipedia": "my:\u101e\u1011\u102f\u1036\u1001\u101b\u102d\u102f\u1004\u103a",
        "parent_id": "5996481"
      }
    },
    {
      "type": "rel",
      "id": 18933991,
      "tags": {
        "admin_level": "6",
        "boundary": "administrative",
        "name": "\u1000\u103b\u102d\u102f\u1000\u103a\u1011\u102d\u102f\u1001\u101b\u102d\u102f\u1004\u103a",
        "name:en": "Kyaikto District",
        "name:my": "\u1000\u103b\u102d\u102f\u1000\u103a\u1011\u102d\u102f\u1001\u101b\u102d\u102f\u1004\u103a",
        "name:zh": "\u658b\u6258\u53bf",
        "type": "boundary",
        "wikidata": "Q129859776",
        "wikipedia": "my:\u1000\u103b\u102d\u102f\u1000\u103a\u1011\u102d\u102f\u1001\u101b\u102d\u102f\u1004\u103a",
        "parent_id": "5996481"
      }
    },
    {
      "type": "rel",
      "id": 18933992,
      "tags": {
        "admin_level": "6",
        "boundary": "administrative",
        "name": "\u101b\u1031\u1038\u1001\u101b\u102d\u102f\u1004\u103a",
        "name:en": "Ye District",
        "name:my": "\u101b\u1031\u1038\u1001\u101b\u102d\u102f\u1004\u103a",
        "name:zh": "\u8036\u53bf",
        "type": "boundary",
        "wikidata": "Q113928882",
        "wikipedia": "my:\u101b\u1031\u1038\u1001\u101b\u102d\u102f\u1004\u103a",
        "parent_id": "5996481"
      }
    },
    {
      "type": "rel",
      "id": 5996501,
      "tags": {
        "admin_level": "6",
        "alt_name": "Hkamti",
        "boundary": "administrative",
        "dt_pcode_1": "MMR005D008",
        "name": "\u1001\u1014\u1039\u1010\u102e\u1038\u1001\u101b\u102d\u102f\u1004\u103a",
        "name:en": "Hkamti District",
        "name:my": "\u1001\u1014\u1039\u1010\u102e\u1038\u1001\u101b\u102d\u102f\u1004\u103a",
        "name:zh": "\u574e\u5e95\u53bf",
        "type": "boundary",
        "wikidata": "Q15224287",
        "wikipedia": "en:Hkamti District",
        "parent_id": "5996484"
      }
    },
    {
      "type": "rel",
      "id": 5996505,
      "tags": {
        "admin_level": "6",
        "alt_name": "Kale;Kalay;Kalay District",
        "boundary": "administrative",
        "dt_pcode_1": "MMR005D005",
        "name": "\u1000\u101c\u1031\u1038\u1001\u101b\u102d\u102f\u1004\u103a",
        "name:en": "Kale District",
        "name:my": "\u1000\u101c\u1031\u1038\u1001\u101b\u102d\u102f\u1004\u103a",
        "name:zh": "\u5409\u7075\u5e99\u53bf",
        "type": "boundary",
        "wikidata": "Q6351853",
        "wikipedia": "en:Kale District",
        "parent_id": "5996484"
      }
    },
    {
      "type": "rel",
      "id": 5996506,
      "tags": {
        "admin_level": "6",
        "alt_name": "Katha",
        "boundary": "administrative",
        "dt_pcode_1": "MMR005D004",
        "name": "\u1000\u101e\u102c\u1001\u101b\u102d\u102f\u1004\u103a",
        "name:ca": "Districte de Katha",
        "name:en": "Katha District",
        "name:zh": "\u6770\u6c99\u53bf",
        "type": "boundary",
        "wikidata": "Q6376075",
        "wikipedia": "en:Katha District",
        "parent_id": "5996484"
      }
    },
    {
      "type": "rel",
      "id": 5996525,
      "tags": {
        "admin_level": "6",
        "alt_name": "Mawlaik",
        "boundary": "administrative",
        "dt_pcode_1": "MMR005D007",
        "name": "\u1019\u1031\u102c\u103a\u101c\u102d\u102f\u1000\u103a\u1001\u101b\u102d\u102f\u1004\u103a",
        "name:en": "Mawlaik District",
        "name:hi": "\u092e\u094c\u0932\u094b\u0915 \u091c\u093f\u0932\u093e",
        "name:my": "\u1019\u1031\u102c\u103a\u101c\u102d\u102f\u1000\u103a\u1001\u101b\u102d\u102f\u1004\u103a",
        "name:zh": "\u8302\u53fb\u53bf",
        "old_name": "Upper Chindwin District",
        "type": "boundary",
        "wikidata": "Q6794421",
        "wikipedia": "en:Mawlaik District",
        "parent_id": "5996484"
      }
    },
    {
      "type": "rel",
      "id": 5996532,
      "tags": {
        "admin_level": "6",
        "alt_name": "Monywa",
        "boundary": "administrative",
        "dt_pcode_1": "MMR005D003",
        "name": "\u1019\u102f\u1036\u101b\u103d\u102c\u1001\u101b\u102d\u102f\u1004\u103a",
        "name:en": "Monywa District",
        "name:my": "\u1019\u102f\u1036\u101b\u103d\u102c\u1001\u101b\u102d\u102f\u1004\u103a",
        "name:pl": "Munywa",
        "name:zh": "\u8499\u80b2\u74e6\u53bf",
        "name:zh-Hant": "\u8499\u80b2\u74e6\u7e23",
        "old_name": "Lower Chindwin District",
        "type": "boundary",
        "wikidata": "Q11013398",
        "wikipedia": "en:Monywa District",
        "parent_id": "5996484"
      }
    },
    {
      "type": "rel",
      "id": 5996549,
      "tags": {
        "admin_level": "6",
        "alt_name": "Sagaing",
        "boundary": "administrative",
        "dt_pcode_1": "MMR005D001",
        "name": "\u1005\u1005\u103a\u1000\u102d\u102f\u1004\u103a\u1038\u1001\u101b\u102d\u102f\u1004\u103a",
        "name:ca": "Districte de Sagaing",
        "name:en": "Sagaing District",
        "name:my": "\u1005\u1005\u103a\u1000\u102d\u102f\u1004\u103a\u1038\u1001\u101b\u102d\u102f\u1004\u103a",
        "name:pl": "Sikong",
        "name:ur": "\u0633\u06af\u06cc\u0646\u06af \u0636\u0644\u0639",
        "name:zh": "\u5b9e\u7686\u53bf",
        "type": "boundary",
        "wikidata": "Q7398942",
        "wikipedia": "en:Sagaing District",
        "parent_id": "5996484"
      }
    },
    {
      "type": "rel",
      "id": 5996550,
      "tags": {
        "admin_level": "6",
        "alt_name": "Shwebo",
        "boundary": "administrative",
        "dt_pcode_1": "MMR005D002",
        "name": "\u101b\u103d\u103e\u1031\u1018\u102d\u102f\u1001\u101b\u102d\u102f\u1004\u103a",
        "name:ca": "Districte de Shwebo",
        "name:en": "Shwebo District",
        "name:pl": "Shwebo",
        "name:zh": "\u745e\u6ce2\u53bf",
        "type": "boundary",
        "wikidata": "Q7505842",
        "wikipedia": "en:Shwebo District",
        "parent_id": "5996484"
      }
    },
    {
      "type": "rel",
      "id": 5996554,
      "tags": {
        "admin_level": "6",
        "alt_name": "Tamu",
        "boundary": "administrative",
        "dt_pcode_1": "MMR005D006",
        "name": "\u1010\u1019\u1030\u1038\u1001\u101b\u102d\u102f\u1004\u103a",
        "name:en": "Tamu District",
        "name:my": "\u1010\u1019\u1030\u1038\u1001\u101b\u102d\u102f\u1004\u103a",
        "name:pl": "Tamu",
        "name:sv": "Tamu District",
        "name:zh": "\u5fb7\u7a46\u53bf",
        "type": "boundary",
        "wikidata": "Q7681885",
        "wikipedia": "en:Tamu District",
        "parent_id": "5996484"
      }
    },
    {
      "type": "rel",
      "id": 5996566,
      "tags": {
        "admin_level": "6",
        "alt_name": "Yinmabin",
        "boundary": "administrative",
        "dt_pcode_1": "MMR005D009",
        "name": "\u101a\u1004\u103a\u1038\u1019\u102c\u1015\u1004\u103a\u1001\u101b\u102d\u102f\u1004\u103a",
        "name:en": "Yinmabin District",
        "name:zh": "\u56e0\u9a6c\u5bbe\u53bf",
        "type": "boundary",
        "wikidata": "Q19718662",
        "wikipedia": "en:Yinmabin District",
        "parent_id": "5996484"
      }
    },
    {
      "type": "rel",
      "id": 7183862,
      "tags": {
        "admin_level": "6",
        "boundary": "administrative",
        "dt_pcode_1": "MMR005D005",
        "name": "\u1014\u102c\u1002 \u1000\u102d\u102f\u101a\u103a\u1015\u102d\u102f\u1004\u103a\u1021\u102f\u1015\u103a\u1001\u103b\u102f\u1015\u103a\u1001\u103d\u1004\u1037\u103a\u101b \u1012\u1031\u101e",
        "name:en": "Naga Self-Administered Zone",
        "name:it": "Zona auto-amministrata Naga",
        "name:ja": "\u30ca\u30ac\u81ea\u6cbb\u533a",
        "name:ko": "\ub098\uac00 \uc790\uce58\uad6c",
        "name:my": "\u1014\u102c\u1002 \u1000\u102d\u102f\u101a\u103a\u1015\u102d\u102f\u1004\u103a\u1021\u102f\u1015\u103a\u1001\u103b\u102f\u1015\u103a\u1001\u103d\u1004\u1037\u103a\u101b\u1012\u1031\u101e",
        "name:no": "Naga-sonen",
        "name:ru": "\u0441\u0430\u043c\u043e\u0443\u043f\u0440\u0430\u0432\u043b\u044f\u0435\u043c\u0430\u044f \u0437\u043e\u043d\u0430 \u041d\u0430\u0433\u0430",
        "name:th": "\u0e1e\u0e37\u0e49\u0e19\u0e17\u0e35\u0e48\u0e1b\u0e01\u0e04\u0e23\u0e2d\u0e07\u0e15\u0e19\u0e40\u0e2d\u0e07\u0e19\u0e32\u0e04\u0e32",
        "name:uk": "\u0441\u0430\u043c\u043e\u0432\u0440\u044f\u0434\u043d\u0430 \u0437\u043e\u043d\u0430 \u041d\u0430\u0433\u0430",
        "name:zh": "\u90a3\u52a0\u81ea\u6cbb\u533a",
        "type": "boundary",
        "wikidata": "Q2701988",
        "wikipedia": "en:Naga Self-Administered Zone",
        "parent_id": "5996484"
      }
    },
    {
      "type": "rel",
      "id": 7184253,
      "tags": {
        "admin_level": "6",
        "alt_name": "Kanbalu",
        "boundary": "administrative",
        "name": "\u1000\u1014\u103a\u1037\u1018\u101c\u1030",
        "name:en": "Kanbalu District",
        "name:my": "\u1000\u1014\u1037\u103a\u1018\u101c\u1030\u1019\u103c\u102d\u102f\u1037\u1014\u101a\u103a",
        "name:zh": "\u7518\u52c3\u5362\u53bf",
        "type": "boundary",
        "wikidata": "Q28476524",
        "wikipedia": "en:Kanbalu District",
        "parent_id": "5996484"
      }
    },
    {
      "type": "rel",
      "id": 5996498,
      "tags": {
        "admin_level": "6",
        "alt_name": "Gangaw",
        "boundary": "administrative",
        "dt_pcode_1": "MMR009D005",
        "name": "\u1002\u1014\u1037\u103a\u1002\u1031\u102b\u1001\u101b\u102d\u102f\u1004\u103a",
        "name:en": "Gangaw District",
        "name:my": "\u1002\u1014\u1037\u103a\u1002\u1031\u102b\u1001\u101b\u102d\u102f\u1004\u103a",
        "name:sv": "Gangaw District",
        "name:uk": "\u0490\u0430\u043d\u0491\u043e",
        "name:zh": "\u7518\u9ad8\u7e23",
        "type": "boundary",
        "wikidata": "Q5521092",
        "wikipedia": "en:Gangaw District",
        "parent_id": "5996479"
      }
    },
    {
      "type": "rel",
      "id": 5996520,
      "tags": {
        "admin_level": "6",
        "alt_name": "Magway",
        "boundary": "administrative",
        "dt_pcode_1": "MMR009D001",
        "name": "\u1019\u1000\u103d\u1031\u1038\u1001\u101b\u102d\u102f\u1004\u103a",
        "name:ca": "Districte de Magway",
        "name:en": "Magway District",
        "name:my": "\u1019\u1000\u103d\u1031\u1038\u1001\u101b\u102d\u102f\u1004\u103a",
        "name:sv": "Magway District",
        "name:zh": "\u99ac\u572d\u7e23",
        "type": "boundary",
        "wikidata": "Q6732567",
        "wikipedia": "en:Magway District",
        "parent_id": "5996479"
      }
    },
    {
      "type": "rel",
      "id": 5996528,
      "tags": {
        "admin_level": "6",
        "alt_name": "Minbu",
        "boundary": "administrative",
        "dt_pcode_1": "MMR009D002",
        "name": "\u1019\u1004\u103a\u1038\u1018\u1030\u1038\u1001\u101b\u102d\u102f\u1004\u103a",
        "name:ca": "Districte de Minbu",
        "name:en": "Minbu District",
        "name:my": "\u1019\u1004\u103a\u1038\u1018\u1030\u1038\u1001\u101b\u102d\u102f\u1004\u103a",
        "name:sv": "Minbu District",
        "name:zh": "\u654f\u5deb\u7e23",
        "type": "boundary",
        "wikidata": "Q6863305",
        "wikipedia": "en:Minbu District",
        "parent_id": "5996479"
      }
    },
    {
      "type": "rel",
      "id": 5996543,
      "tags": {
        "admin_level": "6",
        "alt_name": "Pakokku;Pagukku District",
        "boundary": "administrative",
        "dt_pcode_1": "MMR009D004",
        "name": "\u1015\u1001\u102f\u1000\u1039\u1000\u1030\u1001\u101b\u102d\u102f\u1004\u103a",
        "name:ca": "Districte de Pakokku",
        "name:en": "Pakokku District",
        "name:my": "\u1015\u1001\u102f\u1000\u1039\u1000\u1030\u1001\u101b\u102d\u102f\u1004\u103a",
        "name:sv": "Pakokku District",
        "name:zh": "\u6728\u5404\u5177\u7e23",
        "type": "boundary",
        "wikidata": "Q3826764",
        "wikipedia": "en:Pakokku District",
        "parent_id": "5996479"
      }
    },
    {
      "type": "rel",
      "id": 5996560,
      "tags": {
        "admin_level": "6",
        "alt_name": "Thayet",
        "boundary": "administrative",
        "dt_pcode_1": "MMR009D003",
        "name": "\u101e\u101b\u1000\u103a\u1001\u101b\u102d\u102f\u1004\u103a",
        "name:ca": "Districte de Thayet",
        "name:en": "Thayet District",
        "name:my": "\u101e\u101b\u1000\u103a\u1001\u101b\u102d\u102f\u1004\u103a",
        "name:sv": "Thayet District",
        "name:zh": "\u5fb7\u8036\u53bf",
        "type": "boundary",
        "wikidata": "Q7711561",
        "wikipedia": "en:Thayet District",
        "parent_id": "5996479"
      }
    },
    {
      "type": "rel",
      "id": 5996511,
      "tags": {
        "admin_level": "6",
        "alt_name": "Kyaukpyu",
        "boundary": "administrative",
        "dt_pcode_1": "MMR012D003",
        "name": "\u1000\u103b\u1031\u102c\u1000\u103a\u1016\u103c\u1030\u1001\u101b\u102d\u102f\u1004\u103a",
        "name:en": "Kyaukpyu District",
        "name:my": "\u1000\u103b\u1031\u102c\u1000\u103a\u1016\u103c\u1030\u1001\u101b\u102d\u102f\u1004\u103a",
        "name:zh": "\u768e\u6f02\u53bf",
        "type": "boundary",
        "wikidata": "Q11917391",
        "wikipedia": "en:Kyaukpyu District",
        "parent_id": "5996483"
      }
    },
    {
      "type": "rel",
      "id": 5996524,
      "tags": {
        "admin_level": "6",
        "boundary": "administrative",
        "dt_pcode_1": "MMR012D002",
        "name": "\u1019\u1031\u102c\u1004\u103a\u1010\u1031\u102c\u1001\u101b\u102d\u102f\u1004",
        "name:en": "Maungdaw District",
        "name:my": "\u1019\u1031\u102c\u1004\u103a\u1010\u1031\u102c\u1001\u101b\u102d\u102f\u1004",
        "name:zh": "\u5b5f\u90fd\u7e23",
        "type": "boundary",
        "wikidata": "Q6792575",
        "wikipedia": "zh:\u5b5f\u90fd\u7e23",
        "parent_id": "5996483"
      }
    },
    {
      "type": "rel",
      "id": 5996533,
      "tags": {
        "admin_level": "6",
        "alt_name": "Mrauk-U",
        "boundary": "administrative",
        "dt_pcode_1": "MMR012D005",
        "name": "\u1019\u103c\u1031\u102c\u1000\u103a\u1026\u1038\u1001\u101b\u102d\u102f\u1004\u103a",
        "name:en": "Mrauk-U District",
        "name:my": "\u1019\u103c\u1031\u102c\u1000\u103a\u1026\u1038\u1001\u101b\u102d\u102f\u1004\u103a",
        "name:zh": "\u5999\u4e4c\u53bf",
        "type": "boundary",
        "wikidata": "Q19718623",
        "wikipedia": "en:Mrauk-U District",
        "parent_id": "5996483"
      }
    },
    {
      "type": "rel",
      "id": 5996551,
      "tags": {
        "admin_level": "6",
        "alt_name": "Sittwe",
        "boundary": "administrative",
        "dt_pcode_1": "MMR012D001",
        "name": "\u1005\u1005\u103a\u1010\u103d\u1031\u1001\u101b\u102d\u102f\u1004\u103a",
        "name:en": "Sittwe District",
        "name:my": "\u1005\u1005\u103a\u1010\u103d\u1031\u1001\u101b\u102d\u102f\u1004\u103a",
        "name:zh": "\u5be6\u514c\u7e23",
        "type": "boundary",
        "wikidata": "Q11917411",
        "wikipedia": "en:Sittwe District",
        "parent_id": "5996483"
      }
    },
    {
      "type": "rel",
      "id": 5996557,
      "tags": {
        "admin_level": "6",
        "alt_name": "Thandwe",
        "boundary": "administrative",
        "dt_pcode_1": "MMR012D004",
        "name": "\u101e\u1036\u1010\u103d\u1032\u1001\u101b\u102d\u102f\u1004",
        "name:en": "Thandwe District",
        "name:my": "\u101e\u1036\u1010\u103d\u1032\u1001\u101b\u102d\u102f\u1004",
        "name:zh": "\u4e39\u5151\u53bf",
        "type": "boundary",
        "wikidata": "Q3826754",
        "wikipedia": "en:Thandwe District",
        "parent_id": "5996483"
      }
    },
    {
      "type": "rel",
      "id": 18936528,
      "tags": {
        "admin_level": "6",
        "boundary": "administrative",
        "name": "\u1021\u1019\u103a\u1038\u1001\u101b\u102d\u102f\u1004\u103a",
        "name:en": "Ann District",
        "name:my": "\u1021\u1019\u103a\u1038\u1001\u101b\u102d\u102f\u1004\u103a",
        "name:zh": "\u5b89\u53bf",
        "type": "boundary",
        "wikidata": "Q129676540",
        "wikipedia": "my:\u1021\u1019\u103a\u1038\u1001\u101b\u102d\u102f\u1004\u103a",
        "parent_id": "5996483"
      }
    },
    {
      "type": "rel",
      "id": 18936529,
      "tags": {
        "admin_level": "6",
        "boundary": "administrative",
        "name": "\u1010\u1031\u102c\u1004\u103a\u1000\u102f\u1010\u103a\u1001\u101b\u102d\u102f\u1004\u103a",
        "name:en": "Taungup District",
        "name:my": "\u1010\u1031\u102c\u1004\u103a\u1000\u102f\u1010\u103a\u1001\u101b\u102d\u102f\u1004\u103a",
        "name:zh": "\u6d1e\u9e3d\u53bf",
        "type": "boundary",
        "wikidata": "Q129676547",
        "wikipedia": "my:\u1010\u1031\u102c\u1004\u103a\u1000\u102f\u1010\u103a\u1001\u101b\u102d\u102f\u1004\u103a",
        "parent_id": "5996483"
      }
    },
    {
      "type": "rel",
      "id": 5996497,
      "tags": {
        "admin_level": "6",
        "alt_name": "Falam",
        "boundary": "administrative",
        "dt_pcode": "MMR004D001",
        "name": "\u1016\u101c\u1019\u103a\u1038\u1001\u101b\u102d\u102f\u1004\u103a",
        "name:en": "Falam District",
        "name:ms": "Daerah Falam",
        "name:my": "\u1016\u101c\u1019\u103a\u1038\u1001\u101b\u102d\u102f\u1004\u103a",
        "name:pl": "Falam",
        "name:zh": "\u6cd5\u5170\u53bf",
        "type": "boundary",
        "wikidata": "Q5431649",
        "wikipedia": "en:Falam District",
        "parent_id": "5996475"
      }
    },
    {
      "type": "rel",
      "id": 5996499,
      "tags": {
        "admin_level": "6",
        "alt_name": "Hakha",
        "boundary": "administrative",
        "dt_pcode_1": "MMR004D003",
        "name": "\u101f\u102c\u1038\u1001\u102b\u1038\u1001\u101b\u102d\u102f\u1004\u103a",
        "name:en": "Hakha District",
        "name:my": "\u101f\u102c\u1038\u1001\u102b\u1038\u1001\u101b\u102d\u102f\u1004\u103a",
        "name:pl": "Haka",
        "name:zh": "\u54c8\u5361\u7e23",
        "type": "boundary",
        "wikidata": "Q5640446",
        "wikipedia": "en:Hakha District",
        "parent_id": "5996475"
      }
    },
    {
      "type": "rel",
      "id": 5996529,
      "tags": {
        "admin_level": "6",
        "alt_name": "Mindat",
        "boundary": "administrative",
        "dt_pcode_1": "MMR004D002",
        "name": "\u1019\u1004\u103a\u1038\u1010\u1015\u103a\u1001\u101b\u102d\u102f\u1004\u103a",
        "name:en": "Mindat District",
        "name:my": "\u1019\u1004\u103a\u1038\u1010\u1015\u103a\u1001\u101b\u102d\u102f\u1004\u103a",
        "name:pl": "Mindat",
        "name:zh": "\u654f\u8fbe\u53bf",
        "type": "boundary",
        "wikidata": "Q6863716",
        "wikipedia": "en:Mindat District",
        "parent_id": "5996475"
      }
    },
    {
      "type": "rel",
      "id": 18934061,
      "tags": {
        "admin_level": "6",
        "boundary": "administrative",
        "name": "\u1015\u101c\u1000\u103a\u101d\u1001\u101b\u102d\u102f\u1004\u103a",
        "name:en": "Paletwa District",
        "name:my": "\u1015\u101c\u1000\u103a\u101d\u1001\u101b\u102d\u102f\u1004\u103a",
        "name:zh": "\u767e\u529b\u74e6\u53bf",
        "type": "boundary",
        "wikidata": "Q129983534",
        "wikipedia": "my:\u1015\u101c\u1000\u103a\u101d\u1001\u101b\u102d\u102f\u1004\u103a",
        "parent_id": "5996475"
      }
    },
    {
      "type": "rel",
      "id": 18934062,
      "tags": {
        "admin_level": "6",
        "boundary": "administrative",
        "name": "\u1019\u1010\u1030\u1015\u102e\u1001\u101b\u102d\u102f\u1004\u103a",
        "name:en": "Matupi District",
        "name:my": "\u1019\u1010\u1030\u1015\u102e\u1001\u101b\u102d\u102f\u1004\u103a",
        "name:zh": "\u9a6c\u675c\u6bd4\u53bf",
        "type": "boundary",
        "wikidata": "Q66739423",
        "wikipedia": "my:\u1019\u1010\u1030\u1015\u102e\u1001\u101b\u102d\u102f\u1004\u103a",
        "parent_id": "5996475"
      }
    },
    {
      "type": "rel",
      "id": 18934063,
      "tags": {
        "admin_level": "6",
        "boundary": "administrative",
        "name": "\u1010\u102e\u1038\u1010\u102d\u1014\u103a\u1001\u101b\u102d\u102f\u1004\u103a",
        "name:en": "Tedim District",
        "name:my": "\u1010\u102e\u1038\u1010\u102d\u1014\u103a\u1001\u101b\u102d\u102f\u1004\u103a",
        "name:zh": "\u68af\u9876\u53bf",
        "type": "boundary",
        "wikidata": "Q125845314",
        "wikipedia": "my:\u1010\u102e\u1038\u1010\u102d\u1014\u103a\u1001\u101b\u102d\u102f\u1004\u103a",
        "parent_id": "5996475"
      }
    },
    {
      "type": "rel",
      "id": 5996493,
      "tags": {
        "admin_level": "6",
        "alt_name": "Bago",
        "boundary": "administrative",
        "dt_pcode_1": "MMR007D001",
        "name": "\u1015\u1032\u1001\u1030\u1038\u1001\u101b\u102d\u102f\u1004\u103a",
        "name:en": "Bago District",
        "name:ko": "\ubc14\uace0\ud604",
        "name:my": "\u1015\u1032\u1001\u1030\u1038\u1001\u101b\u102d\u102f\u1004\u103a",
        "name:zh": "\u52c3\u56fa\u53bf",
        "type": "boundary",
        "wikidata": "Q4842056",
        "wikipedia": "en:Bago District",
        "parent_id": "5996474"
      }
    },
    {
      "type": "rel",
      "id": 5996547,
      "tags": {
        "admin_level": "6",
        "alt_name": "Pyay;\u1015\u103c\u100a\u103a\u1001\u101b\u102d\u102f\u1004\u103a",
        "boundary": "administrative",
        "dt_pcode_1": "MMR008D001",
        "name": "\u1015\u103c\u100a\u103a\u1001\u101b\u102d\u102f\u1004",
        "name:en": "Pyay District",
        "name:ko": "\ud504\ub86c\ud604",
        "name:my": "\u1015\u103c\u100a\u103a\u1001\u101b\u102d\u102f\u1004",
        "name:zh": "\u5351\u8c2c\u53bf",
        "type": "boundary",
        "wikidata": "Q7262887",
        "wikipedia": "en:Pyay District",
        "parent_id": "5996474"
      }
    },
    {
      "type": "rel",
      "id": 5996556,
      "tags": {
        "admin_level": "6",
        "alt_name": "Taungoo;Taungngu",
        "boundary": "administrative",
        "dt_pcode_1": "MMR007D002",
        "name": "\u1010\u1031\u102c\u1004\u103a\u1004\u1030\u1001\u101b\u102d\u102f\u1004\u103a",
        "name:en": "Taungoo District",
        "name:ko": "\ud0c0\uc6c5\uc6b0\ud604",
        "name:my": "\u1010\u1031\u102c\u1004\u103a\u1004\u1030\u1001\u101b\u102d\u102f\u1004\u103a",
        "name:zh": "\u4e1c\u5401\u53bf",
        "type": "boundary",
        "wikidata": "Q7688753",
        "wikipedia": "en:Taungoo District",
        "parent_id": "5996474"
      }
    },
    {
      "type": "rel",
      "id": 5996559,
      "tags": {
        "admin_level": "6",
        "alt_name": "Thayarwady;Tharrawaddy;Thayarwady District;\u101e\u102c\u101a\u102c\u101d\u1010\u102e\u1001\u101b\u102d\u102f\u1004\u103a",
        "boundary": "administrative",
        "dt_pcode_1": "MMR008D002",
        "name": "\u101e\u102c\u101a\u102c\u101d\u1010\u102e\u1001\u101b\u102d\u102f\u1004",
        "name:en": "Tharrawaddy District",
        "name:my": "\u101e\u102c\u101a\u102c\u101d\u1010\u102e\u1001\u101b\u102d\u102f\u1004",
        "name:zh": "\u6c99\u8036\u74e6\u5e95\u53bf",
        "type": "boundary",
        "wikidata": "Q7710822",
        "wikipedia": "en:Tharrawaddy District",
        "parent_id": "5996474"
      }
    },
    {
      "type": "rel",
      "id": 5996494,
      "tags": {
        "admin_level": "6",
        "alt_name": "Bawlakhe",
        "boundary": "administrative",
        "dt_pcode_1": "MMR002D002",
        "name": "\u1018\u1031\u102c\u103a\u101c\u1001\u1032\u1001\u101b\u102d\u102f\u1004",
        "name:en": "Bawlakhe District",
        "name:zh": "\u5305\u62c9\u514b\u53bf",
        "type": "boundary",
        "wikidata": "Q4873786",
        "wikipedia": "en:Bawlakhe District",
        "parent_id": "5996477"
      }
    },
    {
      "type": "rel",
      "id": 5996518,
      "tags": {
        "admin_level": "6",
        "alt_name": "Loikaw",
        "boundary": "administrative",
        "dt_pcode_1": "MMR002D001",
        "name": "\u101c\u103d\u102d\u102f\u1004\u103a\u1000\u1031\u102c\u103a\u200c\u1001\u101b\u102d\u102f\u1004",
        "name:en": "Loikaw District",
        "name:my": "\u101c\u103d\u102d\u102f\u1004\u103a\u1000\u1031\u102c\u103a\u200c\u1001\u101b\u102d\u102f\u1004",
        "name:zh": "\u5792\u56fa\u53bf",
        "type": "boundary",
        "wikidata": "Q6668095",
        "wikipedia": "en:Loikaw District",
        "parent_id": "5996477"
      }
    },
    {
      "type": "rel",
      "id": 18933803,
      "tags": {
        "admin_level": "6",
        "boundary": "administrative",
        "name": "\u1019\u101a\u103a\u1005\u1032\u1037\u1001\u101b\u102d\u102f\u1004\u103a",
        "name:en": "Mese District",
        "name:my": "\u1019\u101a\u103a\u1005\u1032\u1037\u1001\u101b\u102d\u102f\u1004\u103a",
        "name:zh": "\u6885\u585e\u53bf",
        "type": "boundary",
        "wikidata": "Q113252332",
        "wikipedia": "my:\u1019\u101a\u103a\u1005\u1032\u1037\u1001\u101b\u102d\u102f\u1004\u103a",
        "parent_id": "5996477"
      }
    },
    {
      "type": "rel",
      "id": 18933804,
      "tags": {
        "admin_level": "6",
        "boundary": "administrative",
        "name": "\u1012\u102e\u1038\u1019\u1031\u102c\u1037\u1006\u102d\u102f\u1001\u101b\u102d\u102f\u1004\u103a",
        "name:en": "Demoso District",
        "name:zh": "\u4ee3\u83ab\u7d22\u53bf",
        "type": "boundary",
        "wikidata": "Q113252191",
        "wikipedia": "my:\u1012\u102e\u1038\u1019\u1031\u102c\u1037\u1006\u102d\u102f\u1001\u101b\u102d\u102f\u1004\u103a",
        "parent_id": "5996477"
      }
    },
    {
      "type": "rel",
      "id": 7204160,
      "tags": {
        "admin_level": "6",
        "alt_name:en": "North Naypyidaw;Oke Ta Ra",
        "alt_name:zh": "\u5317\u5185\u6bd4\u90fd\u53bf",
        "boundary": "administrative",
        "dt_pcode_1": "MMR018D001",
        "name": "\u1025\u1010\u1039\u1010\u101b\u1001\u101b\u102d\u102f\u1004\u103a",
        "name:en": "Ottara District",
        "name:my": "\u1025\u1010\u1039\u1010\u101b\u1001\u101b\u102d\u102f\u1004\u103a",
        "name:zh": "\u6b27\u5854\u62c9\u53bf",
        "type": "boundary",
        "wikidata": "Q31870571",
        "wikipedia": "zh:\u6b27\u5854\u62c9\u53bf",
        "parent_id": "5996482"
      }
    },
    {
      "type": "rel",
      "id": 18738528,
      "tags": {
        "admin_level": "6",
        "boundary": "administrative",
        "name": "\u101c\u101a\u103a\u101d\u1031\u1038\u1001\u101b\u102d\u102f\u1004\u103a",
        "name:en": "Lewe District",
        "name:my": "\u101c\u101a\u103a\u101d\u1031\u1038\u1001\u101b\u102d\u102f\u1004\u103a",
        "name:zh": "\u83b1\u97e6\u53bf",
        "type": "boundary",
        "wikidata": "Q129496783",
        "wikipedia": "zh:\u83b1\u97e6\u53bf",
        "parent_id": "5996482"
      }
    },
    {
      "type": "rel",
      "id": 18738529,
      "tags": {
        "admin_level": "6",
        "boundary": "administrative",
        "name": "\u1015\u103b\u1009\u103a\u1038\u1019\u1014\u102c\u1038\u1001\u101b\u102d\u102f\u1004\u103a",
        "name:en": "Pyinmana District",
        "name:my": "\u1015\u103b\u1009\u103a\u1038\u1019\u1014\u102c\u1038\u1001\u101b\u102d\u102f\u1004\u103a",
        "name:zh": "\u5f6c\u9a6c\u90a3\u53bf",
        "type": "boundary",
        "wikidata": "Q108840521",
        "wikipedia": "my:\u1015\u103b\u1009\u103a\u1038\u1019\u1014\u102c\u1038\u1001\u101b\u102d\u102f\u1004\u103a",
        "parent_id": "5996482"
      }
    },
    {
      "type": "rel",
      "id": 18738530,
      "tags": {
        "admin_level": "6",
        "boundary": "administrative",
        "name": "\u1007\u1031\u101a\u103b\u102c\u101e\u102e\u101b\u102d\u1001\u101b\u102d\u102f\u1004\u103a",
        "name:en": "Zeyathiri District",
        "name:my": "\u1007\u1031\u101a\u103b\u102c\u101e\u102e\u101b\u102d\u1001\u101b\u102d\u102f\u1004\u103a",
        "name:zh": "\u6770\u96c5\u63d0\u91cc\u53bf",
        "type": "boundary",
        "wikidata": "Q129495392",
        "wikipedia": "zh:\u6770\u96c5\u63d0\u91cc\u53bf",
        "parent_id": "5996482"
      }
    },
    {
      "type": "rel",
      "id": 5996509,
      "tags": {
        "admin_level": "6",
        "alt_name": "Kengtung;Keng Tung",
        "boundary": "administrative",
        "dt_pcode_1": "MMR016D001",
        "name": "\u1000\u103b\u102d\u102f\u1004\u103a\u1038\u1010\u102f\u1036\u1001\u101b\u102d\u102f\u1004\u103a",
        "name:en": "Kengtung District",
        "name:my": "\u1000\u103b\u102d\u102f\u1004\u103a\u1038\u1010\u102f\u1036\u1001\u101b\u102d\u102f\u1004\u103a",
        "name:sv": "Kengtung District",
        "name:th": "\u0e08\u0e31\u0e07\u0e2b\u0e27\u0e31\u0e14\u0e40\u0e0a\u0e35\u0e22\u0e07\u0e15\u0e38\u0e07",
        "name:zh": "\u666f\u680b\u53bf",
        "name:zh-Hant": "\u666f\u68df\u7e23",
        "type": "boundary",
        "wikidata": "Q6389198",
        "wikipedia": "en:Kengtung District",
        "parent_id": "5996485"
      }
    },
    {
      "type": "rel",
      "id": 5996510,
      "tags": {
        "admin_level": "6",
        "alt_name": "Kyaukme",
        "alt_name:zh": "\u768e\u8109\u53bf",
        "boundary": "administrative",
        "dt_pcode_1": "MMR015D003",
        "name": "\u1000\u103b\u1031\u102c\u1000\u103a\u1019\u1032\u1001\u101b\u102d\u102f\u1004\u103a",
        "name:en": "Kyaukme District",
        "name:my": "\u1000\u103b\u1031\u102c\u1000\u103a\u1019\u1032\u1001\u101b\u102d\u102f\u1004\u103a",
        "name:sv": "Kyaukme District",
        "name:zh": "\u768e\u6885\u53bf",
        "name:zh-Hans": "\u768e\u6885\u53bf",
        "name:zh-Hant": "\u768e\u6885\u7e23",
        "type": "boundary",
        "wikidata": "Q6450766",
        "wikipedia": "en:Kyaukme District",
        "parent_id": "5996485"
      }
    },
    {
      "type": "rel",
      "id": 5996514,
      "tags": {
        "admin_level": "6",
        "alt_name": "Langkho",
        "boundary": "administrative",
        "dt_pcode_1": "MMR014D003",
        "name": "\u101c\u1004\u103a\u1038\u1001\u1031\u1038\u1001\u101b\u102d\u102f\u1004\u103a",
        "name:en": "Langhko District",
        "name:my": "\u101c\u1004\u103a\u1038\u1001\u1031\u1038\u1001\u101b\u102d\u102f\u1004\u103a",
        "name:sv": "Langhko District",
        "name:uk": "\u041b\u0430\u043d\u043a\u0445\u043e",
        "name:zh": "\u6717\u79d1\u7e23",
        "type": "boundary",
        "wikidata": "Q6486085",
        "wikipedia": "en:Langhko District",
        "parent_id": "5996485"
      }
    },
    {
      "type": "rel",
      "id": 5996519,
      "tags": {
        "admin_level": "6",
        "alt_name": "Loilen",
        "boundary": "administrative",
        "dt_pcode_1": "MMR014D002",
        "name": "\u101c\u103d\u102d\u102f\u1004\u103a\u101c\u1004\u103a\u1001\u101b\u102d\u102f\u1004\u103a",
        "name:en": "Loilen District",
        "name:my": "\u101c\u103d\u102d\u102f\u1004\u103a\u101c\u1004\u103a\u1001\u101b\u102d\u102f\u1004\u103a",
        "name:uk": "\u041b\u043e\u0456\u043b\u0435\u043d",
        "name:zh": "\u83b1\u6797\u53bf",
        "type": "boundary",
        "wikidata": "Q6668104",
        "wikipedia": "en:Loilen District",
        "parent_id": "5996485"
      }
    },
    {
      "type": "rel",
      "id": 5996522,
      "tags": {
        "admin_level": "6",
        "alt_name": "Matman;Metman",
        "boundary": "administrative",
        "dt_pcode_1": "MMR015D007",
        "name": "\u1019\u1000\u103a\u1019\u1014\u103a\u1038\u1001\u101b\u102d\u102f\u1004\u103a",
        "name:en": "Matman District",
        "name:fa": "\u0646\u0627\u062d\u06cc\u0647 \u0645\u0627\u062a\u0645\u0627\u0646",
        "name:my": "\u1019\u1000\u103a\u1019\u1014\u103a\u1038\u1001\u101b\u102d\u102f\u1004\u103a",
        "name:zh": "\u9a6c\u66fc\u53bf",
        "name:zh-Hans": "\u9a6c\u66fc\u53bf",
        "name:zh-Hant": "\u99ac\u66fc\u7e23",
        "type": "boundary",
        "wikidata": "Q18357953",
        "wikipedia": "en:Matman District",
        "parent_id": "5996485"
      }
    },
    {
      "type": "rel",
      "id": 5996531,
      "tags": {
        "admin_level": "6",
        "alt_name": "Monghsat;Mongsat;Mongsat District",
        "boundary": "administrative",
        "dt_pcode_1": "MMR016D002",
        "name": "\u1019\u102d\u102f\u1004\u103a\u1038\u1006\u1010\u103a\u1001\u101b\u102d\u102f\u1004\u103a",
        "name:en": "Mong Hsat District",
        "name:my": "\u1019\u102d\u102f\u1004\u103a\u1038\u1006\u1010\u103a\u1001\u101b\u102d\u102f\u1004\u103a",
        "name:sv": "Mong Hsat District",
        "name:zh": "\u52d0\u8428\u53bf",
        "name:zh-Hans": "\u52d0\u8428\u53bf",
        "name:zh-Hant": "\u52d0\u85a9\u7e23",
        "type": "boundary",
        "wikidata": "Q15255093",
        "wikipedia": "en:Mong Hsat District",
        "parent_id": "5996485"
      }
    },
    {
      "type": "rel",
      "id": 5996552,
      "tags": {
        "admin_level": "6",
        "boundary": "administrative",
        "dt_pcode_1": "MMR016D003",
        "name": "\u1010\u102c\u1001\u103b\u102e\u101c\u102d\u1010\u103a\u1001\u101b\u102d\u102f\u1004\u103a",
        "name:en": "Tachileik District",
        "name:my": "\u1010\u102c\u1001\u103b\u102e\u101c\u102d\u1010\u103a\u1001\u101b\u102d\u102f\u1004\u103a",
        "name:th": "\u0e17\u0e48\u0e32\u0e02\u0e35\u0e49\u0e40\u0e2b\u0e25\u0e47\u0e01",
        "name:zh": "\u5927\u5176\u529b\u53bf",
        "type": "boundary",
        "wikidata": "Q7673734",
        "wikipedia": "zh:\u5927\u5176\u529b\u7e23",
        "parent_id": "5996485"
      }
    },
    {
      "type": "rel",
      "id": 5996555,
      "tags": {
        "admin_level": "6",
        "alt_name": "Taunggyi",
        "boundary": "administrative",
        "dt_pcode_1": "MMR014D001",
        "name": "\u1010\u1031\u102c\u1004\u103a\u1000\u103c\u102e\u1038\u1001\u101b\u102d\u102f\u1004",
        "name:en": "Taunggyi District",
        "name:my": "\u1010\u1031\u102c\u1004\u103a\u1000\u103c\u102e\u1038\u1001\u101b\u102d\u102f\u1004\u103a",
        "name:sv": "Taunggyi District",
        "name:zh": "\u6771\u679d\u7e23",
        "name:zh-Hans": "\u4e1c\u679d\u53bf",
        "name:zh-Hant": "\u6771\u679d\u7e23",
        "type": "boundary",
        "wikidata": "Q7688742",
        "wikipedia": "en:Taunggyi District",
        "parent_id": "5996485"
      }
    },
    {
      "type": "rel",
      "id": 7200536,
      "tags": {
        "admin_level": "6",
        "boundary": "administrative",
        "name": "\u1013\u1014\u102f\u1000\u102d\u102f\u101a\u103a\u1015\u102d\u102f\u1004\u103a\u1021\u102f\u1015\u103a\u1001\u103b\u102f\u1015\u103a\u1001\u103d\u1004\u1037\u103a\u101b\u1012\u1031\u101e",
        "name:en": "Danu Self-Administered Zone",
        "name:it": "Zona auto-amministrata Danu",
        "name:ja": "\u30c0\u30cc\u81ea\u6cbb\u533a",
        "name:ko": "\ub2e4\ub204 \uc790\uce58\uad6c",
        "name:my": "\u1013\u1014\u102f\u1000\u102d\u102f\u101a\u103a\u1015\u102d\u102f\u1004\u103a\u1021\u102f\u1015\u103a\u1001\u103b\u102f\u1015\u103a\u1001\u103d\u1004\u1037\u103a\u101b\u1012\u1031\u101e",
        "name:no": "Danu-sonen",
        "name:ru": "\u0441\u0430\u043c\u043e\u0443\u043f\u0440\u0430\u0432\u043b\u044f\u0435\u043c\u0430\u044f \u0437\u043e\u043d\u0430 \u0414\u0430\u043d\u0443",
        "name:th": "\u0e1e\u0e37\u0e49\u0e19\u0e17\u0e35\u0e48\u0e1b\u0e01\u0e04\u0e23\u0e2d\u0e07\u0e15\u0e19\u0e40\u0e2d\u0e07\u0e14\u0e30\u0e19\u0e39",
        "name:uk": "\u0441\u0430\u043c\u043e\u0432\u0440\u044f\u0434\u043d\u0430 \u0437\u043e\u043d\u0430 \u0414\u0430\u043d\u0443",
        "name:zh": "\u5fb7\u52aa\u81ea\u6cbb\u533a",
        "type": "boundary",
        "wikidata": "Q2701995",
        "wikipedia": "en:Danu Self-Administered Zone",
        "parent_id": "5996485"
      }
    },
    {
      "type": "rel",
      "id": 7200537,
      "tags": {
        "admin_level": "6",
        "boundary": "administrative",
        "name": "\u1015\u1021\u102d\u102f\u101d\u103a\u1038\u1000\u102d\u102f\u101a\u103a\u1015\u102d\u102f\u1004\u103a\u1021\u102f\u1015\u103a\u1001\u103b\u102f\u1015\u103a\u1001\u103d\u1004\u1037\u103a\u101b\u1012\u1031\u101e",
        "name:en": "Pa'O Self-Administered Zone",
        "name:it": "Zona auto-amministrata Pa'O",
        "name:ja": "\u30d1\u30aa\u81ea\u6cbb\u533a",
        "name:ko": "\ud30c\uc624 \uc790\uce58\uad6c",
        "name:my": "\u1015\u1021\u102d\u102f\u101d\u103a\u1038\u1000\u102d\u102f\u101a\u103a\u1015\u102d\u102f\u1004\u103a\u1021\u102f\u1015\u103a\u1001\u103b\u102f\u1015\u103a\u1001\u103d\u1004\u1037\u103a\u101b\u1012\u1031\u101e",
        "name:no": "Pa-O-sonen",
        "name:ru": "\u0441\u0430\u043c\u043e\u0443\u043f\u0440\u0430\u0432\u043b\u044f\u0435\u043c\u0430\u044f \u0437\u043e\u043d\u0430 \u041f\u0430\u043e",
        "name:th": "\u0e1e\u0e37\u0e49\u0e19\u0e17\u0e35\u0e48\u0e1b\u0e01\u0e04\u0e23\u0e2d\u0e07\u0e15\u0e19\u0e40\u0e2d\u0e07\u0e1b\u0e30\u0e42\u0e2d",
        "name:uk": "\u0441\u0430\u043c\u043e\u0432\u0440\u044f\u0434\u043d\u0430 \u0437\u043e\u043d\u0430 \u041f\u0430\u043e",
        "name:zh": "\u52c3\u6b27\u81ea\u6cbb\u533a",
        "name:zh-Hant": "\u52c3\u6b50\u81ea\u6cbb\u5340",
        "type": "boundary",
        "wikidata": "Q2614061",
        "wikipedia": "en:Pa'O Self-Administered Zone",
        "parent_id": "5996485"
      }
    },
    {
      "type": "rel",
      "id": 7200768,
      "tags": {
        "OBJECTID": "163",
        "admin_level": "6",
        "alt_name": "Mong Mit",
        "boundary": "administrative",
        "name": "\u1019\u102d\u102f\u1038\u1019\u102d\u1010\u103a\u1001\u101b\u102d\u102f\u1004\u103a",
        "name:en": "Mong Mit District",
        "name:my": "\u1019\u102d\u102f\u1038\u1019\u102d\u1010\u103a\u1001\u101b\u102d\u102f\u1004\u103a",
        "name:zh": "\u5b5f\u5bc6\u53bf",
        "type": "boundary",
        "wikidata": "Q25112849",
        "wikipedia": "en:Mongmit District",
        "parent_id": "5996485"
      }
    },
    {
      "type": "rel",
      "id": 14006889,
      "tags": {
        "admin_level": "6",
        "boundary": "administrative",
        "name": "Kaung Ho Pang \u5bcc\u90a6\u53bf",
        "name:en": "Hopang County",
        "name:my": "\u101f\u102d\u102f\u1015\u1014\u103a\u1001\u101b\u102d\u102f\u1004\u103a",
        "name:prk": "Kaung Ho Pang",
        "name:shn": "\u1078\u1084\u1088\u1010\u103d\u107c\u103a\u1088\u1081\u1030\u101d\u103a\u1015\u1062\u1004\u103a\u1087",
        "name:zh": "\u5bcc\u90a6\u53bf",
        "name:zh-Hant": "\u5bcc\u90a6\u7e23",
        "old_name": "\u6237\u677f\u53bf",
        "type": "boundary",
        "wikidata": "Q126598970",
        "wikipedia": "zh:\u5bcc\u90a6\u53bf",
        "parent_id": "5996485"
      }
    },
    {
      "type": "rel",
      "id": 14007121,
      "tags": {
        "admin_level": "6",
        "boundary": "administrative",
        "name": "Meung' Mau \u52d0\u5192\u53bf",
        "name:en": "Meungmau County",
        "name:prk": "Meung' Mau",
        "name:zh": "\u52d0\u5192\u53bf",
        "name:zh-Hant": "\u52d0\u5192\u7e23",
        "type": "boundary",
        "wikidata": "Q126598991",
        "wikipedia": "zh:\u52d0\u5192\u7e23",
        "parent_id": "5996485"
      }
    },
    {
      "type": "rel",
      "id": 14035206,
      "tags": {
        "admin_level": "6",
        "boundary": "administrative",
        "name": "Mang' Leen' \u52d0\u80fd\u53bf",
        "name:en": "Mangleen County",
        "name:prk": "Mang' Leen'",
        "name:zh": "\u52d0\u80fd\u53bf",
        "name:zh-Hant": "\u52d0\u80fd\u7e23",
        "type": "boundary",
        "wikidata": "Q15889046",
        "wikipedia": "zh:\u52d0\u80fd\u7e23",
        "parent_id": "5996485"
      }
    },
    {
      "type": "rel",
      "id": 14039305,
      "tags": {
        "admin_level": "6",
        "boundary": "administrative",
        "name": "Veng Ting' Pang Kham \u90a6\u5eb7\u7279\u533a",
        "name:en": "Pangkham Special District",
        "name:prk": "Veng Ting' Pang Kham",
        "name:zh": "\u90a6\u5eb7\u7279\u533a",
        "name:zh-Hant": "\u90a6\u5eb7\u7279\u5340",
        "type": "boundary",
        "wikidata": "Q2049431",
        "wikipedia": "zh:\u90a6\u5eb7\u7279\u533a",
        "parent_id": "5996485"
      }
    },
    {
      "type": "rel",
      "id": 14039309,
      "tags": {
        "admin_level": "6",
        "alt_name": "Meung' Pawk",
        "boundary": "administrative",
        "name": "Meung' Pawg \u52d0\u6ce2\u53bf",
        "name:en": "Meungpawg County",
        "name:my": "\u1019\u102d\u102f\u1004\u103a\u1038\u1015\u1031\u102b\u1000\u103a\u1019\u103c\u102d\u102f\u1037",
        "name:my-Latn": "Mong Pauk",
        "name:prk": "Meung' Pawg",
        "name:zh": "\u52d0\u6ce2\u53bf",
        "name:zh-Hant": "\u52d0\u6ce2\u7e23",
        "type": "boundary",
        "wikidata": "Q124048834",
        "wikipedia": "zh:\u52d0\u6ce2\u53bf",
        "parent_id": "5996485"
      }
    },
    {
      "type": "rel",
      "id": 16742698,
      "tags": {
        "admin_level": "6",
        "alt_name:zh-Hans": "\u52d0\u62c9\u5730\u533a",
        "boundary": "administrative",
        "name": "\u1019\u102d\u102f\u1004\u103a\u1038\u101c\u102c\u1038\u1001\u101b\u102d\u102f\u1004\u103a \u52d0\u62c9\u53bf",
        "name:my": "\u1019\u102d\u102f\u1004\u103a\u1038\u101c\u102c\u1038\u1001\u101b\u102d\u102f\u1004\u103a",
        "name:shn": "\u1022\u102d\u1030\u1004\u103a\u1087\u1019\u102d\u1030\u1004\u103a\u1038\u101c\u1083\u1038",
        "name:zh": "\u52d0\u62c9\u53bf",
        "name:zh-Hans": "\u52d0\u62c9\u53bf",
        "name:zh-Hant": "\u52d0\u62c9\u7e23",
        "type": "boundary",
        "wikidata": "Q124034383",
        "wikipedia": "zh:\u52d0\u62c9\u53bf (\u63b8\u90a6\u4e1c\u90e8\u7b2c\u56db\u7279\u533a)",
        "parent_id": "5996485"
      }
    },
    {
      "type": "rel",
      "id": 16742699,
      "tags": {
        "admin_level": "6",
        "alt_name:zh-Hans": "\u8272\u52d2\u5730\u533a",
        "boundary": "administrative",
        "name": "\u1006\u102e\u101c\u1030\u1038\u1001\u101b\u102d\u102f\u1004\u103a \u8272\u52d2\u53bf",
        "name:my": "\u1006\u102e\u101c\u1030\u1038\u1001\u101b\u102d\u102f\u1004\u103a",
        "name:shn": "\u1022\u102d\u1030\u1004\u103a\u1087\u101e\u102d\u102f\u101d\u103a\u101c\u102d\u102f\u101d\u103a\u1038",
        "name:zh": "\u8272\u52d2\u53bf",
        "name:zh-Hans": "\u8272\u52d2\u53bf",
        "name:zh-Hant": "\u8272\u52d2\u7e23",
        "type": "boundary",
        "wikidata": "Q124034363",
        "wikipedia": "zh:\u8272\u52d2\u7e23",
        "parent_id": "5996485"
      }
    },
    {
      "type": "rel",
      "id": 16742700,
      "tags": {
        "admin_level": "6",
        "alt_name:zh-Hans": "\u5357\u677f\u5730\u533a",
        "boundary": "administrative",
        "name": "\u1014\u1019\u1037\u103a\u1015\u1014\u103a\u1038\u1001\u101b\u102d\u102f\u1004\u103a \u5357\u677f\u53bf",
        "name:en": "Nim Pan District",
        "name:my": "\u1014\u1019\u1037\u103a\u1015\u1014\u103a\u1038\u1001\u101b\u102d\u102f\u1004\u103a",
        "name:shn": "\u1022\u102d\u1030\u1004\u103a\u1087\u107c\u1019\u103a\u1089\u1015\u1062\u107c\u103a\u1038",
        "name:zh": "\u5357\u677f\u53bf",
        "name:zh-Hans": "\u5357\u677f\u53bf",
        "name:zh-Hant": "\u5357\u677f\u7e23",
        "type": "boundary",
        "wikidata": "Q124034062",
        "wikipedia": "zh:\u5357\u677f\u7e23",
        "parent_id": "5996485"
      }
    },
    {
      "type": "rel",
      "id": 17020740,
      "tags": {
        "admin_level": "6",
        "boundary": "administrative",
        "name": "\u679c\u6562\u53bf",
        "name:en": "Kokang District",
        "name:my": "\u1000\u102d\u102f\u1038\u1000\u1014\u1037\u103a\u1001\u101b\u102d\u102f\u1004\u103a",
        "name:zh": "\u679c\u6562\u53bf",
        "name:zh-Hant": "\u679c\u6562\u7e23",
        "type": "boundary",
        "wikidata": "Q127004837",
        "wikipedia": "zh:\u679c\u6562\u53bf",
        "parent_id": "5996485"
      }
    },
    {
      "type": "rel",
      "id": 17020741,
      "tags": {
        "admin_level": "6",
        "boundary": "administrative",
        "name": "\u6728\u90a6\u53bf",
        "name:en": "Hsenwi District",
        "name:my": "\u101e\u102d\u1014\u1039\u1014\u102e\u1001\u101b\u102d\u102f\u1004\u103a",
        "name:zh": "\u6728\u90a6\u53bf",
        "name:zh-Hant": "\u6728\u90a6\u7e23",
        "type": "boundary",
        "wikidata": "Q127545635",
        "wikipedia": "zh:\u6728\u90a6\u53bf",
        "parent_id": "5996485"
      }
    },
    {
      "type": "rel",
      "id": 17020742,
      "tags": {
        "admin_level": "6",
        "boundary": "administrative",
        "name": "\u8d35\u6982\u53bf",
        "name:en": "Kutkai District",
        "name:my": "\u1000\u103d\u1010\u103a\u1001\u102d\u102f\u1004\u103a\u1001\u101b\u102d\u102f\u1004\u103a",
        "name:zh": "\u8d35\u6982\u53bf",
        "name:zh-Hant": "\u8cb4\u6982\u7e23",
        "type": "boundary",
        "wikidata": "Q127545457",
        "wikipedia": "zh:\u8d35\u6982\u53bf (\u7f05\u7538\u8054\u90a6\u7b2c\u4e00\u7279\u533a)",
        "parent_id": "5996485"
      }
    },
    {
      "type": "rel",
      "id": 17020743,
      "tags": {
        "admin_level": "6",
        "boundary": "administrative",
        "name": "\u52d0\u53e4\u53bf",
        "name:en": "Mong Ko District",
        "name:my": "\u1019\u102f\u1036\u1038\u1000\u102d\u102f\u1038\u1001\u101b\u102d\u102f\u1004\u103a",
        "name:zh": "\u52d0\u53e4\u53bf",
        "name:zh-Hant": "\u52d0\u53e4\u7e23",
        "type": "boundary",
        "wikidata": "Q124268900",
        "wikipedia": "zh:\u52d0\u53e4\u7e23",
        "parent_id": "5996485"
      }
    },
    {
      "type": "rel",
      "id": 17021660,
      "tags": {
        "admin_level": "6",
        "alt_name:zh-Hans": "\u52d0\u6d0b\u53bf\uff08\u5b9e\u63a7\uff09",
        "boundary": "administrative",
        "name": "\u1019\u102d\u102f\u1004\u103a\u1038\u101a\u1014\u103a\u1038\u1001\u101b\u102d\u102f\u1004\u103a (\u1021\u1019\u103e\u1014\u103a\u1010\u1000\u101a\u103a)",
        "name:en": "Mong Yang District (de facto)",
        "name:zh": "\u52d0\u517b\u53bf\uff08\u5b9e\u63a7\uff09",
        "name:zh-Hans": "\u52d0\u517b\u53bf\uff08\u5b9e\u63a7\uff09",
        "name:zh-Hant": "\u52d0\u990a\u7e23\uff08\u5be6\u63a7\uff09",
        "start_date": "2022-04-30",
        "type": "boundary",
        "parent_id": "5996485"
      }
    },
    {
      "type": "rel",
      "id": 17632959,
      "tags": {
        "admin_level": "6",
        "boundary": "administrative",
        "name": "\u8001\u8857\u5e02",
        "name:en": "Laukkaing City",
        "name:my": "\u101c\u1031\u102c\u1000\u103a\u1000\u102d\u102f\u1004\u103a\u1019\u103c\u102d\u102f\u1037",
        "name:zh": "\u8001\u8857\u5e02",
        "name:zh-Hans": "\u8001\u8857\u5e02",
        "type": "boundary",
        "wikidata": "Q6498277",
        "wikipedia": "zh:\u8001\u8857\u5e02 (\u7f05\u7538\u8054\u90a6\u7b2c\u4e00\u7279\u533a)",
        "parent_id": "5996485"
      }
    },
    {
      "type": "rel",
      "id": 17826180,
      "tags": {
        "admin_level": "6",
        "boundary": "administrative",
        "name": "\u1010\u1014\u103a\u1003\u1014\u103a\u1038",
        "name:en": "Wa State Tangyang District",
        "name:zh": "\u5f53\u9633\u5730\u533a",
        "type": "boundary",
        "parent_id": "5996485"
      }
    },
    {
      "type": "rel",
      "id": 17945417,
      "tags": {
        "admin_level": "6",
        "boundary": "administrative",
        "name": "\u1010\u1014\u1037\u103a\u101a\u1014\u103a\u1038\u1001\u101b\u102d\u102f\u1004\u103a",
        "name:en": "Tangyan District",
        "name:my": "\u1010\u1014\u1037\u103a\u101a\u1014\u103a\u1038\u1001\u101b\u102d\u102f\u1004\u103a",
        "name:zh": "\u5f53\u9633\u53bf",
        "type": "boundary",
        "wikidata": "Q117061336",
        "wikipedia": "my:\u1010\u1014\u1037\u103a\u101a\u1014\u103a\u1038\u1001\u101b\u102d\u102f\u1004\u103a",
        "parent_id": "5996485"
      }
    },
    {
      "type": "rel",
      "id": 18169002,
      "tags": {
        "admin_level": "6",
        "alt_name": "Mongyawng",
        "boundary": "administrative",
        "name": "\u1019\u102d\u102f\u1004\u103a\u1038\u101a\u1031\u102c\u1004\u103a\u1038\u1001\u101b\u102d\u102f\u1004\u103a (\u1021\u1019\u103e\u1014\u103a\u1010\u1000\u101a\u103a)",
        "name:en": "Mong Yawng District (de facto)",
        "name:my": "\u1019\u102d\u102f\u1004\u103a\u1038\u101a\u1031\u102c\u1004\u103a\u1038\u1001\u101b\u102d\u102f\u1004\u103a (\u1021\u1019\u103e\u1014\u103a\u1010\u1000\u101a\u103a)",
        "name:zh": "\u52d0\u6c38\u53bf\uff08\u5b9e\u63a7\uff09",
        "name:zh-Hant": "\u52d0\u6c38\u7e23\uff08\u5be6\u63a7\uff09",
        "type": "boundary",
        "parent_id": "5996485"
      }
    },
    {
      "type": "rel",
      "id": 18915910,
      "tags": {
        "admin_level": "6",
        "boundary": "administrative",
        "name": "\u1019\u102d\u102f\u1004\u103a\u1038\u1010\u102f\u1036\u1001\u101b\u102d\u102f\u1004\u103a",
        "name:en": "Mong Ton District",
        "name:my": "\u1019\u102d\u102f\u1004\u103a\u1038\u1010\u102f\u1036\u1001\u101b\u102d\u102f\u1004\u103a",
        "name:zh": "\u52d0\u6566\u53bf",
        "type": "boundary",
        "wikidata": "Q117035068",
        "wikipedia": "my:\u1019\u102d\u102f\u1004\u103a\u1038\u1010\u102f\u1036\u1001\u101b\u102d\u102f\u1004\u103a",
        "parent_id": "5996485"
      }
    },
    {
      "type": "rel",
      "id": 18916740,
      "tags": {
        "admin_level": "6",
        "boundary": "administrative",
        "name": "\u1000\u101c\u1031\u102c\u1001\u101b\u102d\u102f\u1004\u103a",
        "name:en": "Kalaw District",
        "name:my": "\u1000\u101c\u1031\u102c\u1001\u101b\u102d\u102f\u1004\u103a",
        "name:zh": "\u683c\u52b3\u53bf",
        "type": "boundary",
        "wikidata": "Q117085278",
        "wikipedia": "my:\u1000\u101c\u1031\u102c\u1001\u101b\u102d\u102f\u1004\u103a",
        "parent_id": "5996485"
      }
    },
    {
      "type": "rel",
      "id": 18916894,
      "tags": {
        "admin_level": "6",
        "boundary": "administrative",
        "name": "\u1019\u102d\u102f\u1004\u103a\u1038\u101b\u103e\u1030\u1038\u1001\u101b\u102d\u102f\u1004\u103a",
        "name:en": "Mong Hsu District",
        "name:my": "\u1019\u102d\u102f\u1004\u103a\u1038\u101b\u103e\u1030\u1038\u1001\u101b\u102d\u102f\u1004\u103a",
        "name:zh": "\u52d0\u901f\u53bf",
        "type": "boundary",
        "wikidata": "Q117085275",
        "wikipedia": "my:\u1019\u102d\u102f\u1004\u103a\u1038\u101b\u103e\u1030\u1038\u1001\u101b\u102d\u102f\u1004\u103a",
        "parent_id": "5996485"
      }
    },
    {
      "type": "rel",
      "id": 18916895,
      "tags": {
        "admin_level": "6",
        "boundary": "administrative",
        "name": "\u1014\u1019\u1037\u103a\u1005\u1014\u103a\u1001\u101b\u102d\u102f\u1004\u103a",
        "name:en": "Namsang District",
        "name:my": "\u1014\u1019\u1037\u103a\u1005\u1014\u103a\u1001\u101b\u102d\u102f\u1004\u103a",
        "name:zh": "\u5357\u6851\u53bf",
        "type": "boundary",
        "wikidata": "Q117085269",
        "wikipedia": "my:\u1014\u1019\u1037\u103a\u1005\u1014\u103a\u1001\u101b\u102d\u102f\u1004\u103a",
        "parent_id": "5996485"
      }
    },
    {
      "type": "rel",
      "id": 5996514,
      "tags": {
        "admin_level": "6",
        "alt_name": "Langkho",
        "boundary": "administrative",
        "dt_pcode_1": "MMR014D003",
        "name": "\u101c\u1004\u103a\u1038\u1001\u1031\u1038\u1001\u101b\u102d\u102f\u1004\u103a",
        "name:en": "Langhko District",
        "name:my": "\u101c\u1004\u103a\u1038\u1001\u1031\u1038\u1001\u101b\u102d\u102f\u1004\u103a",
        "name:sv": "Langhko District",
        "name:uk": "\u041b\u0430\u043d\u043a\u0445\u043e",
        "name:zh": "\u6717\u79d1\u7e23",
        "type": "boundary",
        "wikidata": "Q6486085",
        "wikipedia": "en:Langhko District",
        "parent_id": "9399860"
      }
    },
    {
      "type": "rel",
      "id": 5996531,
      "tags": {
        "admin_level": "6",
        "alt_name": "Monghsat;Mongsat;Mongsat District",
        "boundary": "administrative",
        "dt_pcode_1": "MMR016D002",
        "name": "\u1019\u102d\u102f\u1004\u103a\u1038\u1006\u1010\u103a\u1001\u101b\u102d\u102f\u1004\u103a",
        "name:en": "Mong Hsat District",
        "name:my": "\u1019\u102d\u102f\u1004\u103a\u1038\u1006\u1010\u103a\u1001\u101b\u102d\u102f\u1004\u103a",
        "name:sv": "Mong Hsat District",
        "name:zh": "\u52d0\u8428\u53bf",
        "name:zh-Hans": "\u52d0\u8428\u53bf",
        "name:zh-Hant": "\u52d0\u85a9\u7e23",
        "type": "boundary",
        "wikidata": "Q15255093",
        "wikipedia": "en:Mong Hsat District",
        "parent_id": "9399860"
      }
    },
    {
      "type": "rel",
      "id": 5996552,
      "tags": {
        "admin_level": "6",
        "boundary": "administrative",
        "dt_pcode_1": "MMR016D003",
        "name": "\u1010\u102c\u1001\u103b\u102e\u101c\u102d\u1010\u103a\u1001\u101b\u102d\u102f\u1004\u103a",
        "name:en": "Tachileik District",
        "name:my": "\u1010\u102c\u1001\u103b\u102e\u101c\u102d\u1010\u103a\u1001\u101b\u102d\u102f\u1004\u103a",
        "name:th": "\u0e17\u0e48\u0e32\u0e02\u0e35\u0e49\u0e40\u0e2b\u0e25\u0e47\u0e01",
        "name:zh": "\u5927\u5176\u529b\u53bf",
        "type": "boundary",
        "wikidata": "Q7673734",
        "wikipedia": "zh:\u5927\u5176\u529b\u7e23",
        "parent_id": "9399860"
      }
    },
    {
      "type": "rel",
      "id": 18915910,
      "tags": {
        "admin_level": "6",
        "boundary": "administrative",
        "name": "\u1019\u102d\u102f\u1004\u103a\u1038\u1010\u102f\u1036\u1001\u101b\u102d\u102f\u1004\u103a",
        "name:en": "Mong Ton District",
        "name:my": "\u1019\u102d\u102f\u1004\u103a\u1038\u1010\u102f\u1036\u1001\u101b\u102d\u102f\u1004\u103a",
        "name:zh": "\u52d0\u6566\u53bf",
        "type": "boundary",
        "wikidata": "Q117035068",
        "wikipedia": "my:\u1019\u102d\u102f\u1004\u103a\u1038\u1010\u102f\u1036\u1001\u101b\u102d\u102f\u1004\u103a",
        "parent_id": "9399860"
      }
    },
    {
      "type": "rel",
      "id": 5996512,
      "tags": {
        "admin_level": "6",
        "alt_name": "Kyaukse",
        "boundary": "administrative",
        "dt_pcode_1": "MMR010D003",
        "name": "\u1000\u103b\u1031\u102c\u1000\u103a\u1006\u100a\u103a\u1001\u101b\u102d\u102f\u1004\u103a",
        "name:ca": "Districte de Kyaukse",
        "name:en": "Kyaukse District",
        "name:my": "\u1000\u103b\u1031\u102c\u1000\u103a\u1006\u100a\u103a\u1001\u101b\u102d\u102f\u1004\u103a",
        "name:pl": "Kyaukse",
        "name:sv": "Kyaukse District",
        "name:zh": "\u768e\u65bd\u53bf",
        "source": "Bing",
        "type": "boundary",
        "wikidata": "Q6450781",
        "wikipedia": "en:Kyaukse District",
        "parent_id": "5996480"
      }
    },
    {
      "type": "rel",
      "id": 5996527,
      "tags": {
        "admin_level": "6",
        "alt_name": "Meiktila",
        "boundary": "administrative",
        "dt_pcode_1": "MMR010D007",
        "name": "\u1019\u102d\u1010\u1039\u1011\u102e\u101c\u102c\u1001\u101b\u102d\u102f\u1004\u103a",
        "name:ca": "Districte de Meiktila",
        "name:en": "Meiktila District",
        "name:my": "\u1019\u102d\u1010\u1039\u1011\u102e\u101c\u102c\u1001\u101b\u102d\u102f\u1004\u103a",
        "name:pl": "Miktila",
        "name:sv": "Meiktila District",
        "name:zh": "\u5bc6\u94c1\u62c9\u53bf",
        "type": "boundary",
        "wikidata": "Q6810080",
        "wikipedia": "en:Meiktila District",
        "parent_id": "5996480"
      }
    },
    {
      "type": "rel",
      "id": 5996541,
      "tags": {
        "admin_level": "6",
        "alt_name": "Myingyan",
        "boundary": "administrative",
        "dt_pcode_1": "MMR010D004",
        "name": "\u1019\u103c\u1004\u103a\u1038\u1001\u103c\u1036\u1001\u101b\u102d\u102f\u1004\u103a",
        "name:ca": "Districte de Myingyan",
        "name:en": "Myingyan District",
        "name:my": "\u1019\u103c\u1004\u103a\u1038\u1001\u103c\u1036\u1001\u101b\u102d\u102f\u1004\u103a",
        "name:sv": "Myingyan District",
        "name:zh": "\u654f\u5efa\u53bf",
        "type": "boundary",
        "wikidata": "Q13651432",
        "wikipedia": "en:Myingyan District",
        "parent_id": "5996480"
      }
    },
    {
      "type": "rel",
      "id": 5996542,
      "tags": {
        "admin_level": "6",
        "alt_name": "Nyaung-U",
        "boundary": "administrative",
        "dt_pcode_1": "MMR010D005",
        "name": "\u100a\u1031\u102c\u1004\u103a\u1026\u1038\u1001\u101b\u102d\u102f\u1004\u103a",
        "name:de": "Nyaung U Distrikt",
        "name:en": "Nyaung-U District",
        "name:sv": "Nyaung-U District",
        "name:zh": "\u826f\u4e4c\u53bf",
        "type": "boundary",
        "wikidata": "Q959083",
        "wikipedia": "my:\u100a\u1031\u102c\u1004\u103a\u1026\u1038\u1001\u101b\u102d\u102f\u1004\u103a",
        "parent_id": "5996480"
      }
    },
    {
      "type": "rel",
      "id": 5996548,
      "tags": {
        "admin_level": "6",
        "alt_name": "Pyinoolwin;Pyinoolwin District",
        "boundary": "administrative",
        "dt_pcode_1": "MMR010D002",
        "name": "\u1015\u103c\u1004\u103a\u1026\u1038\u101c\u103d\u1004\u103a\u1001\u101b\u102d\u102f\u1004\u103a",
        "name:en": "Pyin Oo Lwin District",
        "name:my": "\u1015\u103c\u1004\u103a\u1026\u1038\u101c\u103d\u1004\u103a\u1001\u101b\u102d\u102f\u1004\u103a",
        "name:pl": "Pyin U Lwin",
        "name:sv": "Pyin Oo Lwin District",
        "name:zh": "\u5f6c\u4e4c\u4f26\u53bf",
        "type": "boundary",
        "wikidata": "Q7263053",
        "wikipedia": "en:Pyin Oo Lwin District",
        "parent_id": "5996480"
      }
    },
    {
      "type": "rel",
      "id": 5996561,
      "tags": {
        "admin_level": "6",
        "alt_name": "Yamethin",
        "boundary": "administrative",
        "dt_pcode_1": "MMR010D006",
        "name": "\u101b\u1019\u100a\u103a\u1038\u101e\u1004\u103a\u1038\u1001\u101b\u102d\u102f\u1004\u103a",
        "name:ca": "Districte de Yamethin",
        "name:en": "Yamethin District",
        "name:my": "\u101b\u1019\u100a\u103a\u1038\u101e\u1004\u103a\u1038\u1001\u101b\u102d\u102f\u1004\u103a",
        "name:sv": "Yamethin District",
        "name:uk": "\u042f\u043c\u0435\u0442\u0456\u043d \u0440\u0430\u0439\u043e\u043d",
        "name:zh": "\u592e\u7c73\u4e01\u53bf",
        "type": "boundary",
        "wikidata": "Q8048034",
        "wikipedia": "en:Yamethin District",
        "parent_id": "5996480"
      }
    },
    {
      "type": "rel",
      "id": 18738545,
      "tags": {
        "admin_level": "6",
        "boundary": "administrative",
        "name": "\u1010\u1036\u1010\u102c\u1038\u1026\u1038\u1001\u101b\u102d\u102f\u1004\u103a",
        "name:en": "Tada-U District",
        "name:my": "\u1010\u1036\u1010\u102c\u1038\u1026\u1038\u1001\u101b\u102d\u102f\u1004\u103a",
        "name:zh": "\u5fb7\u8fbe\u4e4c\u53bf",
        "type": "boundary",
        "wikidata": "Q113227658",
        "wikipedia": "my:\u1010\u1036\u1010\u102c\u1038\u1026\u1038\u1001\u101b\u102d\u102f\u1004\u103a",
        "parent_id": "5996480"
      }
    },
    {
      "type": "rel",
      "id": 18738546,
      "tags": {
        "admin_level": "6",
        "boundary": "administrative",
        "name": "\u101e\u1015\u102d\u1010\u103a\u1000\u103b\u1004\u103a\u1038\u1001\u101b\u102d\u102f\u1004\u103a",
        "name:en": "Thabeikkyin District",
        "name:my": "\u101e\u1015\u102d\u1010\u103a\u1000\u103b\u1004\u103a\u1038\u1001\u101b\u102d\u102f\u1004\u103a",
        "name:zh": "\u5fb7\u8d1d\u91d1\u53bf",
        "type": "boundary",
        "wikidata": "Q113227377",
        "wikipedia": "my:\u101e\u1015\u102d\u1010\u103a\u1000\u103b\u1004\u103a\u1038\u1001\u101b\u102d\u102f\u1004\u103a",
        "parent_id": "5996480"
      }
    },
    {
      "type": "rel",
      "id": 18738547,
      "tags": {
        "admin_level": "6",
        "alt_name": "\u963f\u9a6c\u62c9\u5e03\u62c9\u53bf",
        "boundary": "administrative",
        "name": "\u1021\u1019\u101b\u1015\u1030\u101b\u1001\u101b\u102d\u102f\u1004\u103a",
        "name:en": "Amarapura District",
        "name:my": "\u1021\u1019\u101b\u1015\u1030\u101b\u1001\u101b\u102d\u102f\u1004\u103a",
        "name:zh": "\u963f\u739b\u62c9\u666e\u62c9\u53bf",
        "type": "boundary",
        "wikidata": "Q113224472",
        "wikipedia": "my:\u1021\u1019\u101b\u1015\u1030\u101b\u1001\u101b\u102d\u102f\u1004\u103a",
        "parent_id": "5996480"
      }
    },
    {
      "type": "rel",
      "id": 18738548,
      "tags": {
        "admin_level": "6",
        "boundary": "administrative",
        "name": "\u1021\u1031\u102c\u1004\u103a\u1019\u103c\u1031\u101e\u102c\u1005\u1036\u1001\u101b\u102d\u102f\u1004\u103a",
        "name:en": "Aungmyaythazan District",
        "name:my": "\u1021\u1031\u102c\u1004\u103a\u1019\u103c\u1031\u101e\u102c\u1005\u1036\u1001\u101b\u102d\u102f\u1004\u103a",
        "name:zh": "\u6602\u6885\u8fbe\u8d5e\u53bf",
        "type": "boundary",
        "wikidata": "Q113197954",
        "wikipedia": "my:\u1021\u1031\u102c\u1004\u103a\u1019\u103c\u1031\u101e\u102c\u1005\u1036\u1001\u101b\u102d\u102f\u1004\u103a",
        "parent_id": "5996480"
      }
    },
    {
      "type": "rel",
      "id": 18738549,
      "tags": {
        "admin_level": "6",
        "alt_name": "Maha Aungmye District",
        "boundary": "administrative",
        "name": "\u1019\u101f\u102c\u1021\u1031\u102c\u1004\u103a\u1019\u103c\u1031\u1001\u101b\u102d\u102f\u1004\u103a",
        "name:en": "Mahaaungmyay District",
        "name:my": "\u1019\u101f\u102c\u1021\u1031\u102c\u1004\u103a\u1019\u103c\u1031\u1001\u101b\u102d\u102f\u1004\u103a",
        "name:zh": "\u9a6c\u54c8\u6602\u6885\u53bf",
        "type": "boundary",
        "wikidata": "Q113225687",
        "wikipedia": "my:\u1019\u101f\u102c\u1021\u1031\u102c\u1004\u103a\u1019\u103c\u1031\u1001\u101b\u102d\u102f\u1004\u103a",
        "parent_id": "5996480"
      }
    },
    {
      "type": "rel",
      "id": 5996509,
      "tags": {
        "admin_level": "6",
        "alt_name": "Kengtung;Keng Tung",
        "boundary": "administrative",
        "dt_pcode_1": "MMR016D001",
        "name": "\u1000\u103b\u102d\u102f\u1004\u103a\u1038\u1010\u102f\u1036\u1001\u101b\u102d\u102f\u1004\u103a",
        "name:en": "Kengtung District",
        "name:my": "\u1000\u103b\u102d\u102f\u1004\u103a\u1038\u1010\u102f\u1036\u1001\u101b\u102d\u102f\u1004\u103a",
        "name:sv": "Kengtung District",
        "name:th": "\u0e08\u0e31\u0e07\u0e2b\u0e27\u0e31\u0e14\u0e40\u0e0a\u0e35\u0e22\u0e07\u0e15\u0e38\u0e07",
        "name:zh": "\u666f\u680b\u53bf",
        "name:zh-Hant": "\u666f\u68df\u7e23",
        "type": "boundary",
        "wikidata": "Q6389198",
        "wikipedia": "en:Kengtung District",
        "parent_id": "9399861"
      }
    },
    {
      "type": "rel",
      "id": 5996522,
      "tags": {
        "admin_level": "6",
        "alt_name": "Matman;Metman",
        "boundary": "administrative",
        "dt_pcode_1": "MMR015D007",
        "name": "\u1019\u1000\u103a\u1019\u1014\u103a\u1038\u1001\u101b\u102d\u102f\u1004\u103a",
        "name:en": "Matman District",
        "name:fa": "\u0646\u0627\u062d\u06cc\u0647 \u0645\u0627\u062a\u0645\u0627\u0646",
        "name:my": "\u1019\u1000\u103a\u1019\u1014\u103a\u1038\u1001\u101b\u102d\u102f\u1004\u103a",
        "name:zh": "\u9a6c\u66fc\u53bf",
        "name:zh-Hans": "\u9a6c\u66fc\u53bf",
        "name:zh-Hant": "\u99ac\u66fc\u7e23",
        "type": "boundary",
        "wikidata": "Q18357953",
        "wikipedia": "en:Matman District",
        "parent_id": "9399861"
      }
    },
    {
      "type": "rel",
      "id": 14006889,
      "tags": {
        "admin_level": "6",
        "boundary": "administrative",
        "name": "Kaung Ho Pang \u5bcc\u90a6\u53bf",
        "name:en": "Hopang County",
        "name:my": "\u101f\u102d\u102f\u1015\u1014\u103a\u1001\u101b\u102d\u102f\u1004\u103a",
        "name:prk": "Kaung Ho Pang",
        "name:shn": "\u1078\u1084\u1088\u1010\u103d\u107c\u103a\u1088\u1081\u1030\u101d\u103a\u1015\u1062\u1004\u103a\u1087",
        "name:zh": "\u5bcc\u90a6\u53bf",
        "name:zh-Hant": "\u5bcc\u90a6\u7e23",
        "old_name": "\u6237\u677f\u53bf",
        "type": "boundary",
        "wikidata": "Q126598970",
        "wikipedia": "zh:\u5bcc\u90a6\u53bf",
        "parent_id": "9399861"
      }
    },
    {
      "type": "rel",
      "id": 14007121,
      "tags": {
        "admin_level": "6",
        "boundary": "administrative",
        "name": "Meung' Mau \u52d0\u5192\u53bf",
        "name:en": "Meungmau County",
        "name:prk": "Meung' Mau",
        "name:zh": "\u52d0\u5192\u53bf",
        "name:zh-Hant": "\u52d0\u5192\u7e23",
        "type": "boundary",
        "wikidata": "Q126598991",
        "wikipedia": "zh:\u52d0\u5192\u7e23",
        "parent_id": "9399861"
      }
    },
    {
      "type": "rel",
      "id": 14035206,
      "tags": {
        "admin_level": "6",
        "boundary": "administrative",
        "name": "Mang' Leen' \u52d0\u80fd\u53bf",
        "name:en": "Mangleen County",
        "name:prk": "Mang' Leen'",
        "name:zh": "\u52d0\u80fd\u53bf",
        "name:zh-Hant": "\u52d0\u80fd\u7e23",
        "type": "boundary",
        "wikidata": "Q15889046",
        "wikipedia": "zh:\u52d0\u80fd\u7e23",
        "parent_id": "9399861"
      }
    },
    {
      "type": "rel",
      "id": 14039305,
      "tags": {
        "admin_level": "6",
        "boundary": "administrative",
        "name": "Veng Ting' Pang Kham \u90a6\u5eb7\u7279\u533a",
        "name:en": "Pangkham Special District",
        "name:prk": "Veng Ting' Pang Kham",
        "name:zh": "\u90a6\u5eb7\u7279\u533a",
        "name:zh-Hant": "\u90a6\u5eb7\u7279\u5340",
        "type": "boundary",
        "wikidata": "Q2049431",
        "wikipedia": "zh:\u90a6\u5eb7\u7279\u533a",
        "parent_id": "9399861"
      }
    },
    {
      "type": "rel",
      "id": 14039309,
      "tags": {
        "admin_level": "6",
        "alt_name": "Meung' Pawk",
        "boundary": "administrative",
        "name": "Meung' Pawg \u52d0\u6ce2\u53bf",
        "name:en": "Meungpawg County",
        "name:my": "\u1019\u102d\u102f\u1004\u103a\u1038\u1015\u1031\u102b\u1000\u103a\u1019\u103c\u102d\u102f\u1037",
        "name:my-Latn": "Mong Pauk",
        "name:prk": "Meung' Pawg",
        "name:zh": "\u52d0\u6ce2\u53bf",
        "name:zh-Hant": "\u52d0\u6ce2\u7e23",
        "type": "boundary",
        "wikidata": "Q124048834",
        "wikipedia": "zh:\u52d0\u6ce2\u53bf",
        "parent_id": "9399861"
      }
    },
    {
      "type": "rel",
      "id": 17826180,
      "tags": {
        "admin_level": "6",
        "boundary": "administrative",
        "name": "\u1010\u1014\u103a\u1003\u1014\u103a\u1038",
        "name:en": "Wa State Tangyang District",
        "name:zh": "\u5f53\u9633\u5730\u533a",
        "type": "boundary",
        "parent_id": "9399861"
      }
    },
    {
      "type": "rel",
      "id": 17945417,
      "tags": {
        "admin_level": "6",
        "boundary": "administrative",
        "name": "\u1010\u1014\u1037\u103a\u101a\u1014\u103a\u1038\u1001\u101b\u102d\u102f\u1004\u103a",
        "name:en": "Tangyan District",
        "name:my": "\u1010\u1014\u1037\u103a\u101a\u1014\u103a\u1038\u1001\u101b\u102d\u102f\u1004\u103a",
        "name:zh": "\u5f53\u9633\u53bf",
        "type": "boundary",
        "wikidata": "Q117061336",
        "wikipedia": "my:\u1010\u1014\u1037\u103a\u101a\u1014\u103a\u1038\u1001\u101b\u102d\u102f\u1004\u103a",
        "parent_id": "9399861"
      }
    },
    {
      "type": "rel",
      "id": 5996495,
      "tags": {
        "admin_level": "6",
        "alt_name": "Bhamo",
        "boundary": "administrative",
        "dt_pcode_1": "MMR001D003",
        "name": "\u1017\u1014\u103a\u1038\u1019\u1031\u102c\u103a\u1001\u101b\u102d\u102f\u1004\u103a",
        "name:ca": "Districte de Bhamo",
        "name:en": "Bhamo District",
        "name:fr": "District de Bhamo",
        "name:my": "\u1017\u1014\u103a\u1038\u1019\u1031\u102c\u103a\u1001\u101b\u102d\u102f\u1004\u103a",
        "name:pl": "Banmaw",
        "name:sv": "Bhamo",
        "name:zh": "\u516b\u83ab\u53bf",
        "type": "boundary",
        "wikidata": "Q4900952",
        "wikipedia": "en:Bhamo District",
        "parent_id": "5996476"
      }
    },
    {
      "type": "rel",
      "id": 5996530,
      "tags": {
        "admin_level": "6",
        "alt_name": "Mohnyin",
        "boundary": "administrative",
        "dt_pcode_1": "MMR001D002",
        "name": "\u1019\u102d\u102f\u1038\u100a\u103e\u1004\u103a\u1038\u1001\u101b\u102d\u102f\u1004\u103a",
        "name:en": "Mohnyin District",
        "name:my": "\u1019\u102d\u102f\u1038\u100a\u103e\u1004\u103a\u1038\u1001\u101b\u102d\u102f\u1004\u103a",
        "name:pl": "Mohnyin",
        "name:sv": "Mohnyin",
        "name:zh": "\u83ab\u5b81\u53bf",
        "type": "boundary",
        "wikidata": "Q6894270",
        "wikipedia": "en:Mohnyin District",
        "parent_id": "5996476"
      }
    },
    {
      "type": "rel",
      "id": 5996538,
      "tags": {
        "admin_level": "6",
        "alt_name": "Myitkyina",
        "boundary": "administrative",
        "dt_pcode_1": "MMR001D001",
        "name": "\u1019\u103c\u1005\u103a\u1000\u103c\u102e\u1038\u1014\u102c\u1038\u1001\u101b\u102d\u102f\u1004\u103a",
        "name:ca": "Districte de Myitkyina",
        "name:en": "Myitkyina District",
        "name:ko": "\ubbf8\uce58\ub098\uad6c",
        "name:my": "\u1019\u103c\u1005\u103a\u1000\u103c\u102e\u1038\u1014\u102c\u1038\u1001\u101b\u102d\u102f\u1004\u103a",
        "name:pl": "Myitkyina",
        "name:sv": "Myitkyina",
        "name:zh": "\u5bc6\u652f\u90a3\u53bf",
        "type": "boundary",
        "wikidata": "Q11917400",
        "wikipedia": "en:Myitkyina District",
        "parent_id": "5996476"
      }
    },
    {
      "type": "rel",
      "id": 5996545,
      "tags": {
        "admin_level": "6",
        "alt_name": "Putao;Puta-O",
        "boundary": "administrative",
        "dt_pcode_1": "MMR001D004",
        "name": "\u1015\u1030\u1010\u102c\u1021\u102d\u102f\u1001\u101b\u102d\u102f\u1004\u103a",
        "name:en": "Putao District",
        "name:my": "\u1015\u1030\u1010\u102c\u1021\u102d\u102f\u1001\u101b\u102d\u102f\u1004\u103a",
        "name:pl": "Pudao",
        "name:sv": "Putao",
        "name:zh": "\u8461\u8404\u53bf",
        "name:zh-Hans": "\u8461\u8404\u53bf",
        "name:zh-Hant": "\u8461\u8404\u7e23",
        "type": "boundary",
        "wikidata": "Q7262178",
        "wikipedia": "en:Putao District",
        "parent_id": "5996476"
      }
    },
    {
      "type": "rel",
      "id": 18933350,
      "tags": {
        "admin_level": "6",
        "boundary": "administrative",
        "name": "\u1010\u1014\u102d\u102f\u1004\u103a\u1038\u1001\u101b\u102d\u102f\u1004\u103a",
        "name:en": "Tanai District",
        "name:my": "\u1010\u1014\u102d\u102f\u1004\u103a\u1038\u1001\u101b\u102d\u102f\u1004\u103a",
        "name:zh": "\u5fb7\u4e43\u53bf",
        "type": "boundary",
        "wikidata": "Q129978658",
        "wikipedia": "my:\u1010\u1014\u102d\u102f\u1004\u103a\u1038\u1001\u101b\u102d\u102f\u1004\u103a",
        "parent_id": "5996476"
      }
    },
    {
      "type": "rel",
      "id": 18933351,
      "tags": {
        "admin_level": "6",
        "boundary": "administrative",
        "name": "\u1001\u103b\u102e\u1016\u103d\u1031\u1001\u101b\u102d\u102f\u1004\u103a",
        "name:en": "Chipwi District",
        "name:my": "\u1001\u103b\u102e\u1016\u103d\u1031\u1001\u101b\u102d\u102f\u1004\u103a",
        "name:zh": "\u5176\u57f9\u53bf",
        "type": "boundary",
        "wikidata": "Q129978644",
        "wikipedia": "my:\u1001\u103b\u102e\u1016\u103d\u1031\u1001\u101b\u102d\u102f\u1004\u103a",
        "parent_id": "5996476"
      }
    },
    {
      "type": "rel",
      "id": 18738551,
      "tags": {
        "addr:district": "Mong Hsat District",
        "addr:postcode:source": "06292",
        "addr:region": "East Shan State",
        "addr:state": "Shan State",
        "addr:township": "Mong Ton Township",
        "admin_level": "8",
        "boundary": "administrative",
        "name": "\u1015\u102f\u1036\u1015\u102b\u1000\u103b\u1004\u103a\u1019\u103c\u102d\u102f\u1037\u1014\u101a\u103a\u1001\u103d\u1032",
        "name:en": "Ponparkyin Sub-Township",
        "name:my": "\u1015\u102f\u1036\u1015\u102b\u1000\u103b\u1004\u103a\u1019\u103c\u102d\u102f\u1037\u1014\u101a\u103a\u1001\u103d\u1032",
        "name:zh": "\u73ed\u5df4\u91d1\u5206\u9547\u533a",
        "type": "boundary",
        "parent_id": "18915910"
      }
    },
    {
      "type": "rel",
      "id": 18169000,
      "tags": {
        "admin_level": "8",
        "boundary": "administrative",
        "name": "\u1014\u1019\u1037\u103a\u1001\u1015\u103a\u1012\u102d\u102f\u1004\u103a\u1014\u101a\u103a \u5357\u4f67\u4e61",
        "name:my": "\u1014\u1019\u1037\u103a\u1001\u1015\u103a\u1012\u102d\u102f\u1004\u103a\u1014\u101a\u103a",
        "name:zh": "\u5357\u4f67\u4e61",
        "name:zh-Hant": "\u5357\u4f67\u9109",
        "type": "boundary",
        "wikidata": "Q130395787",
        "wikipedia": "zh:\u5357\u4f67\u4e61",
        "parent_id": "16742699"
      }
    },
    {
      "type": "rel",
      "id": 18169001,
      "tags": {
        "admin_level": "8",
        "boundary": "administrative",
        "name": "\u101d\u1019\u103a\u1001\u102d\u102f\u1038\u1012\u102d\u102f\u1004\u103a\u1014\u101a\u103a \u4e07\u79d1\u4e61",
        "name:my": "\u101d\u1019\u103a\u1001\u102d\u102f\u1038\u1012\u102d\u102f\u1004\u103a\u1014\u101a\u103a",
        "name:zh": "\u4e07\u79d1\u4e61",
        "name:zh-Hant": "\u842c\u79d1\u9109",
        "type": "boundary",
        "wikidata": "Q130393882",
        "wikipedia": "zh:\u4e07\u79d1\u4e61",
        "parent_id": "16742700"
      }
    }
  ]
}