{
  "version": 0.6,
  "generator": "Overpass API 0.7.62.8 e802775f",
  "osm3s": {
    "timestamp_osm_base": "2025-10-03T16:16:02Z",
    "timestamp_areas_base": "2025-10-03T13:36:01Z",
    "copyright": "The data included in this document is from www.openstreetmap.org. The data is made available under ODbL."
  },
  "elements": [
    {
      "type": "relation",
      "id": 51239,
      "tags": {
        "admin_level": "2",
        "boundary": "administrative",
        "name": "Deutschland \u2014 Schweiz / Suisse / Svizerra",
        "name:ca": "Alemanya - Su\u00efssa",
        "name:de": "Deutschland \u2014 Schweiz",
        "name:en": "Germany \u2014 Switzerland",
        "name:fr": "Allemagne \u2014 Suisse",
        "name:it": "Germania \u2014 Svizzera",
        "name:lt": "Vokietija \u2014 \u0160veicarija",
        "name:nl": "Duitsland \u2014 Zwitserland",
        "name:pl": "Niemcy \u2014 Szwajcaria",
        "name:ru": "\u0413\u0435\u0440\u043c\u0430\u043d\u0438\u044f \u2014 \u0428\u0432\u0435\u0439\u0446\u0430\u0440\u0438\u044f",
        "type": "multilinestring",
        "wikidata": "Q1991810",
        "wikipedia": "de:Grenze zwischen Deutschland und der Schweiz"
      }
    }
  ]
}