{
  "version": 0.6,
  "generator": "Overpass API 0.7.62.8 e802775f",
  "osm3s": {
    "timestamp_osm_base": "2025-10-03T17:28:44Z",
    "timestamp_areas_base": "2025-10-03T13:36:01Z",
    "copyright": "The data included in this document is from www.openstreetmap.org. The data is made available under ODbL."
  },
  "elements": [
    {
      "type": "relation",
      "id": 90124,
      "tags": {
        "admin_level": "2",
        "boundary": "administrative",
        "name": "France - Schweiz/Suisse/Svizzera/Svizra",
        "name:ca": "Fran\u00e7a - Su\u00efssa",
        "name:de": "Frankreich - Schweiz",
        "name:en": "France - Switzerland",
        "name:fr": "France - Suisse",
        "name:it": "Francia - Svizzera",
        "name:lt": "Pranc\u016bzija \u2014 \u0160veicarija",
        "name:ru": "\u0424\u0440\u0430\u043d\u0446\u0438\u044f - \u0428\u0432\u0435\u0439\u0446\u0430\u0440\u0438\u044f",
        "note": "For explanations please read https://wiki.openstreetmap.org/wiki/France_boundary_pyramidal_construction",
        "type": "multilinestring",
        "wikidata": "Q1991697"
      }
    }
  ]
}