{
  "version": 0.6,
  "generator": "Overpass API 0.7.62.8 e802775f",
  "osm3s": {
    "timestamp_osm_base": "2025-10-03T16:24:26Z",
    "timestamp_areas_base": "2025-10-03T13:36:01Z",
    "copyright": "The data included in this document is from www.openstreetmap.org. The data is made available under ODbL."
  },
  "elements": [
    {
      "type": "relation",
      "id": 52822,
      "tags": {
        "ISO3166-1": "SE",
        "ISO3166-1:alpha2": "SE",
        "ISO3166-1:alpha3": "SWE",
        "ISO3166-1:numeric": "752",
        "admin_level": "2",
        "alt_name:eo": "Svedujo",
        "boundary": "administrative",
        "default_language": "sv",
        "driving_side": "right",
        "flag": "https://upload.wikimedia.org/wikipedia/commons/4/4c/Flag_of_Sweden.svg",
        "int_name": "Sweden",
        "name": "Sverige",
        "name:ab": "\u0428\u0432\u0435\u0446\u0438\u0430",
        "name:ace": "Sw\u00e8dia",
        "name:af": "Swede",
        "name:ak": "Sweden",
        "name:als": "Schweden",
        "name:am": "\u1235\u12ca\u12f5\u1295",
        "name:an": "Suecia",
        "name:ang": "Sw\u0113oland",
        "name:ar": "\u0627\u0644\u0633\u0648\u064a\u062f",
        "name:arc": "\u0723\u0718\u071d\u0715",
        "name:arz": "\u0627\u0644\u0633\u0648\u064a\u062f",
        "name:ast": "Suecia",
        "name:az": "\u0130sve\u00e7",
        "name:ba": "\u0428\u0432\u0435\u0446\u0438\u044f",
        "name:bar": "Schwedn",
        "name:bat-smg": "\u0160ved\u0117j\u0117",
        "name:bcl": "Suesya",
        "name:be": "\u0428\u0432\u0435\u0446\u044b\u044f",
        "name:be-tarask": "\u0428\u0432\u044d\u0446\u044b\u044f",
        "name:bg": "\u0428\u0432\u0435\u0446\u0438\u044f",
        "name:bi": "Sweden",
        "name:bm": "Swedi",
        "name:bn": "\u09b8\u09c1\u0987\u09a1\u09c7\u09a8",
        "name:bo": "\u0f66\u0f72\u0f0b\u0f5d\u0f7a\u0f0b\u0f51\u0f7a\u0f53\u0f0d",
        "name:bpy": "\u09b8\u09c1\u0987\u09a1\u09c7\u09a8",
        "name:br": "Sveden",
        "name:bs": "\u0160vedska",
        "name:bxr": "\u0428\u0432\u0435\u0434",
        "name:ca": "Su\u00e8cia",
        "name:cdo": "S\u00f4i-di\u0113ng",
        "name:ce": "\u0428\u0432\u0435\u0446\u0438",
        "name:ceb": "Suwesya",
        "name:chr": "\u13cd\u13eb\u13d5\u13c2",
        "name:ckb": "\u0633\u0648\u06cc\u062f",
        "name:co": "Svezia",
        "name:crh": "\u0130sve\u00e7",
        "name:cs": "\u0160v\u00e9dsko",
        "name:csb": "Szwedzk\u00f4",
        "name:cu": "\u0421\u0432\u0454\u043d\u044c\u0441\u043a\u043e",
        "name:cv": "\u0428\u0432\u0435\u0446\u0438",
        "name:cy": "Sweden",
        "name:da": "Sverige",
        "name:de": "Schweden",
        "name:diq": "\u0130swec",
        "name:dsb": "\u0160wedska",
        "name:dv": "\u0790\u07aa\u0788\u07a8\u0791\u07a6\u0782\u07b0",
        "name:dz": "\u0f66\u0f74\u0f60\u0f72\u0f0b\u0f4c\u0f53\u0f0b",
        "name:ee": "Sweden",
        "name:el": "\u03a3\u03bf\u03c5\u03b7\u03b4\u03af\u03b1",
        "name:en": "Sweden",
        "name:eo": "Svedio",
        "name:es": "Suecia",
        "name:et": "Rootsi",
        "name:eu": "Suedia",
        "name:ext": "Su\u00e9cia",
        "name:fa": "\u0633\u0648\u0626\u062f",
        "name:fi": "Ruotsi",
        "name:fo": "Sv\u00f8r\u00edki",
        "name:fr": "Su\u00e8de",
        "name:frp": "Su\u00e8de",
        "name:frr": "Sw\u00e4rik",
        "name:fur": "Svezie",
        "name:fy": "Sweden",
        "name:ga": "An tSualainn",
        "name:gag": "\u015eve\u021biya",
        "name:gan": "\u745e\u5178",
        "name:gd": "An t-Suain",
        "name:gl": "Suecia",
        "name:gn": "Suesia",
        "name:gsw": "Schwede",
        "name:gu": "\u0ab8\u0acd\u0ab5\u0abf\u0aa1\u0aa8",
        "name:gv": "Yn Toolynn",
        "name:hak": "Shu\u00ec-ti\u00e9n",
        "name:haw": "Kuekene",
        "name:he": "\u05e9\u05d1\u05d3\u05d9\u05d4",
        "name:hi": "\u0938\u094d\u0935\u0940\u0921\u0928",
        "name:hif": "Sweden",
        "name:hr": "\u0160vedska",
        "name:hsb": "\u0160wedska",
        "name:ht": "Sy\u00e8d",
        "name:hu": "Sv\u00e9dorsz\u00e1g",
        "name:hy": "\u0547\u057e\u0565\u0564\u056b\u0561",
        "name:ia": "Svedia",
        "name:id": "Swedia",
        "name:ie": "Svedia",
        "name:ilo": "Su\u00e9sia",
        "name:io": "Suedia",
        "name:is": "Sv\u00ed\u00fej\u00f3\u00f0",
        "name:it": "Svezia",
        "name:iu": "\u1505\u1557\u1546\u146d",
        "name:ja": "\u30b9\u30a6\u30a7\u30fc\u30c7\u30f3",
        "name:jbo": "sueriges",
        "name:jv": "Sw\u00e9dia",
        "name:ka": "\u10e8\u10d5\u10d4\u10d3\u10d4\u10d7\u10d8",
        "name:kaa": "Shvetsiya",
        "name:kab": "Sswid",
        "name:kbd": "\u0428\u0443\u044d\u0446",
        "name:kg": "Suedi",
        "name:ki": "Sweden",
        "name:kk": "\u0428\u0432\u0435\u0446\u0438\u044f",
        "name:kl": "Svenskit Nunaat",
        "name:km": "\u179f\u17ca\u17bb\u1799\u17a2\u17c2\u178f",
        "name:kn": "\u0cb8\u0ccd\u0cb5\u0cc0\u0ca1\u0ca8\u0ccd",
        "name:ko": "\uc2a4\uc6e8\ub374",
        "name:koi": "\u0428\u0432\u0435\u0434\u043c\u0443",
        "name:krc": "\u0428\u0432\u0435\u0446\u0438\u044f",
        "name:krl": "Ruo\u010d\u010di",
        "name:ku": "Sw\u00ead",
        "name:kv": "\u0428\u0432\u0435\u0446\u0438\u044f",
        "name:kw": "Swedherwyk",
        "name:ky": "\u0428\u0432\u0435\u0446\u0438\u044f",
        "name:la": "Suecia",
        "name:lad": "Suesia",
        "name:lb": "Schweden",
        "name:lez": "\u0428\u0432\u0435\u0446\u0438\u044f",
        "name:lg": "Swiiden",
        "name:li": "Zwede",
        "name:lij": "Sve\u00e7ia",
        "name:lmo": "Svezia",
        "name:ln": "Sw\u00e9di",
        "name:lt": "\u0160vedija",
        "name:ltg": "\u0160vedeja",
        "name:lv": "Zviedrija",
        "name:lzh": "\u745e\u5178",
        "name:mdf": "\u0428\u0432\u0435\u0434\u043c\u0430\u0441\u0442\u043e\u0440",
        "name:mg": "Soeda",
        "name:mhr": "\u0428\u0432\u0435\u0446\u0438\u0439",
        "name:mi": "Hu\u012btene",
        "name:mk": "\u0428\u0432\u0435\u0434\u0441\u043a\u0430",
        "name:ml": "\u0d38\u0d4d\u0d35\u0d40\u0d21\u0d7b",
        "name:mn": "\u0428\u0432\u0435\u0434",
        "name:mr": "\u0938\u094d\u0935\u0940\u0921\u0928",
        "name:ms": "Sweden",
        "name:mt": "\u017bvezja",
        "name:my": "\u1006\u103d\u102e\u1012\u1004\u103a\u1014\u102d\u102f\u1004\u103a\u1004\u1036",
        "name:myv": "\u0428\u0432\u0435\u0446\u0438\u044f \u041c\u0430\u0441\u0442\u043e\u0440",
        "name:mzn": "\u0633\u0648\u0626\u062f",
        "name:na": "Widen",
        "name:nah": "Suecia",
        "name:nan": "S\u016bi-ti\u00e1n",
        "name:nap": "Sguezia",
        "name:nds": "Sweden",
        "name:nds-nl": "Sveden",
        "name:ne": "\u0938\u094d\u0935\u0940\u0921\u0947\u0928",
        "name:new": "\u0938\u094d\u0935\u093f\u0926\u0947\u0928",
        "name:nl": "Zweden",
        "name:nn": "Sverige",
        "name:no": "Sverige",
        "name:nov": "Suedia",
        "name:nrm": "Su\u00e8de",
        "name:oc": "Su\u00e8cia",
        "name:or": "\u0b38\u0b4d\u0b35\u0b3f\u0b21\u0b47\u0b28",
        "name:os": "\u0428\u0432\u0435\u0446\u0438",
        "name:pa": "\u0a38\u0a35\u0a40\u0a21\u0a28",
        "name:pag": "Suesia",
        "name:pam": "Sweden",
        "name:pap": "Suecia",
        "name:pcd": "Su\u00e8de",
        "name:pih": "Swiiden",
        "name:pl": "Szwecja",
        "name:pms": "Svessia",
        "name:pnb": "\u0633\u0648\u06cc\u0688\u0646",
        "name:pnt": "\u03a3\u03bf\u03c5\u03b7\u03b4\u03af\u03b1",
        "name:ps": "\u0633\u0648\u064a\u0689\u0646",
        "name:pt": "Su\u00e9cia",
        "name:qu": "Suwidsuyu",
        "name:rm": "Svezia",
        "name:ro": "Suedia",
        "name:roa-rup": "Suidia",
        "name:roa-tara": "Svezzie",
        "name:ru": "\u0428\u0432\u0435\u0446\u0438\u044f",
        "name:rue": "\u0428\u0432\u0435\u0446\u0456\u044f",
        "name:rw": "Suwede",
        "name:sa": "\u0938\u094d\u0935\u0940\u0921\u0928",
        "name:sah": "\u0428\u0432\u0435\u0446\u0438\u044f",
        "name:sc": "Isvetzia",
        "name:scn": "Svezzia",
        "name:sco": "Swaden",
        "name:se": "Ruo\u0167\u0167a",
        "name:sh": "\u0160vedska",
        "name:sje": "Sverrje",
        "name:sk": "\u0160v\u00e9dsko",
        "name:sl": "\u0160vedska",
        "name:sm": "Sweden",
        "name:sma": "Sveerje",
        "name:smn": "Ruot\u00e2",
        "name:sms": "Ru\u00f5cc",
        "name:so": "Iswiidhan",
        "name:sq": "Suedia",
        "name:sr": "\u0428\u0432\u0435\u0434\u0441\u043a\u0430",
        "name:ss": "ISwideni",
        "name:stq": "Sweeden",
        "name:su": "Sw\u00e9dia",
        "name:sv": "Sverige",
        "name:sw": "Uswidi",
        "name:szl": "Szwedyj\u014f",
        "name:ta": "\u0b9a\u0bc1\u0bb5\u0bc0\u0b9f\u0ba9\u0bcd",
        "name:te": "\u0c38\u0c4d\u0c35\u0c40\u0c21\u0c28\u0c4d",
        "name:tet": "Su\u00e9sia",
        "name:tg": "\u0428\u0432\u0435\u0442\u0441\u0438\u044f",
        "name:th": "\u0e1b\u0e23\u0e30\u0e40\u0e17\u0e28\u0e2a\u0e27\u0e35\u0e40\u0e14\u0e19",
        "name:tk": "\u015ewesi\u00fda",
        "name:tl": "Suwesya",
        "name:tok": "ma Wensa",
        "name:tpi": "Suwidan",
        "name:tr": "\u0130sve\u00e7",
        "name:tt": "\u0428\u0432\u0435\u0446\u0438\u044f",
        "name:tw": "Sweden",
        "name:tzl": "Sveiria",
        "name:udm": "\u0428\u0432\u0435\u0446\u0438\u044f",
        "name:ug": "\u0634\u06cb\u06d0\u062a\u0633\u0649\u064a\u06d5",
        "name:uk": "\u0428\u0432\u0435\u0446\u0456\u044f",
        "name:ur": "\u0633\u0648\u06cc\u0688\u0646",
        "name:uz": "Shvetsiya",
        "name:vec": "Sv\u00e8sia",
        "name:vep": "Ro\u010dinma",
        "name:vi": "Th\u1ee5y \u0110i\u1ec3n",
        "name:vls": "Zweedn",
        "name:vo": "Sved\u00e4n",
        "name:vro": "Roodsi",
        "name:wa": "Suwedwesse",
        "name:war": "Suwesya",
        "name:wo": "Suweed",
        "name:wuu": "\u745e\u5178",
        "name:xal": "\u0421\u0432\u0435\u0434\u0438\u043d \u041d\u0443\u0442\u0433",
        "name:xmf": "\u10e8\u10d5\u10d4\u10d3\u10d4\u10d7\u10d8",
        "name:yi": "\u05e9\u05d5\u05d5\u05e2\u05d3\u05df",
        "name:yo": "Sw\u00edd\u00ecn",
        "name:yue": "\u745e\u5178",
        "name:zea": "Zweden",
        "name:zh": "\u745e\u5178",
        "name:zh-Hans": "\u745e\u5178",
        "name:zu": "ISwidi",
        "official_name": "Konungariket Sverige",
        "official_name:be": "\u041a\u0430\u0440\u0430\u043b\u0435\u045e\u0441\u0442\u0432\u0430 \u0428\u0432\u0435\u0446\u044b\u044f",
        "official_name:ca": "Regne de Su\u00e8cia",
        "official_name:cs": "\u0160v\u00e9dsk\u00e9 kr\u00e1lovstv\u00ed",
        "official_name:de": "K\u00f6nigreich Schweden",
        "official_name:el": "\u0392\u03b1\u03c3\u03af\u03bb\u03b5\u03b9\u03bf \u03c4\u03b7\u03c2 \u03a3\u03bf\u03c5\u03b7\u03b4\u03af\u03b1\u03c2",
        "official_name:eo": "Re\u011dlando Svedio",
        "official_name:pl": "Kr\u00f3lestwo Szwecji",
        "official_name:sv": "Konungariket Sverige",
        "timezone": "Europe/Stockholm",
        "type": "boundary",
        "wikidata": "Q34",
        "wikipedia": "sv:Sverige"
      }
    },
    {
      "type": "relation",
      "id": 52824,
      "tags": {
        "ISO3166-2": "SE-BD",
        "admin_level": "4",
        "alt_name:fi": "Pohjoispohjan l\u00e4\u00e4ni",
        "boundary": "administrative",
        "name": "Norrbottens l\u00e4n",
        "name:ar": "\u0645\u062d\u0627\u0641\u0638\u0629 \u0646\u0648\u0631\u0628\u0648\u062a\u0646",
        "name:da": "Norrbotten len",
        "name:de": "Provinz Norrbotten",
        "name:en": "Norrbotten County",
        "name:es": "Provincia de Norrbotten",
        "name:fi": "Norrbottenin l\u00e4\u00e4ni",
        "name:fr": "Comt\u00e9 de Norrbotten",
        "name:hu": "Norrbotten megye",
        "name:lt": "Norboteno l\u0117nas",
        "name:ro": "Comitatul Norrbotten",
        "name:ru": "\u041d\u043e\u0440\u0440\u0431\u043e\u0442\u0442\u0435\u043d",
        "name:sv": "Norrbottens l\u00e4n",
        "population": "249285",
        "population:date": "2022-11-01",
        "ref": "BD",
        "ref:fips": "SW14",
        "ref:nuts": "SE332",
        "ref:nuts:3": "SE332",
        "ref:se:scb": "25",
        "source:population": "SCB 2022",
        "type": "boundary",
        "wikidata": "Q103686",
        "wikipedia": "sv:Norrbottens l\u00e4n"
      }
    },
    {
      "type": "relation",
      "id": 52825,
      "tags": {
        "ISO3166-2": "SE-AC",
        "admin_level": "4",
        "boundary": "administrative",
        "name": "V\u00e4sterbottens l\u00e4n",
        "name:ar": "\u0645\u062d\u0627\u0641\u0638\u0629 \u0648\u0633\u062a\u0631\u0628\u0648\u062a\u0646",
        "name:da": "V\u00e4sterbotten len",
        "name:de": "Provinz Westbottnien",
        "name:en": "V\u00e4sterbotten County",
        "name:es": "Provincia de V\u00e4sterbotten",
        "name:fi": "V\u00e4sterbottenin l\u00e4\u00e4ni",
        "name:fr": "Comt\u00e9 de V\u00e4sterbotten",
        "name:hu": "V\u00e4sterbotten megye",
        "name:lt": "Vesterboteno l\u0117nas",
        "name:ro": "Comitatul V\u00e4sterbotten",
        "name:ru": "\u0412\u0435\u0441\u0442\u0435\u0440\u0431\u043e\u0442\u0442\u0435\u043d",
        "name:sv": "V\u00e4sterbottens l\u00e4n",
        "population": "276136",
        "population:date": "2022-11-01",
        "ref": "AC",
        "ref:fips": "SW23",
        "ref:nuts": "SE331",
        "ref:nuts:3": "SE331",
        "ref:se:scb": "24",
        "source:population": "SCB 2022",
        "type": "boundary",
        "wikidata": "Q104877",
        "wikipedia": "sv:V\u00e4sterbottens l\u00e4n"
      }
    },
    {
      "type": "relation",
      "id": 52826,
      "tags": {
        "ISO3166-2": "SE-Z",
        "admin_level": "4",
        "boundary": "administrative",
        "name": "J\u00e4mtlands l\u00e4n",
        "name:ar": "\u0645\u062d\u0627\u0641\u0638\u0629 \u064a\u0645\u062a\u0644\u0627\u0646\u062f",
        "name:bs": "Kotar J\u00e4mtland",
        "name:ca": "Comtat de J\u00e4mtland",
        "name:da": "J\u00e4mtland len",
        "name:de": "Provinz J\u00e4mtland",
        "name:en": "J\u00e4mtland County",
        "name:es": "Provincia de J\u00e4mtland",
        "name:et": "J\u00e4mtlandi l\u00e4\u00e4n",
        "name:eu": "J\u00e4mtlandeko konderria",
        "name:fa": "\u0634\u0647\u0631\u0633\u062a\u0627\u0646 \u06cc\u0645\u062a\u0644\u0627\u0646\u062f",
        "name:fi": "J\u00e4mtlandin l\u00e4\u00e4ni",
        "name:fr": "Comt\u00e9 de J\u00e4mtland",
        "name:gl": "Condado de J\u00e4mtland",
        "name:he": "\u05d9\u05de\u05d8\u05dc\u05e0\u05d3",
        "name:hi": "\u092f\u0947\u092e\u094d\u0924\u0932\u093e\u0928\u094d\u0926 \u0932\u0948\u0928",
        "name:hr": "\u017dupanija J\u00e4mtland",
        "name:hu": "J\u00e4mtland megye",
        "name:id": "Daerah J\u00e4mtland",
        "name:is": "Jamtaland",
        "name:it": "Contea di J\u00e4mtland",
        "name:ja": "\u30a4\u30a7\u30e0\u30c8\u30e9\u30f3\u30c9\u770c",
        "name:ko": "\uc618\ud2c0\ub780\ub4dc \uc8fc",
        "name:kw": "Konteth J\u00e4mtland",
        "name:lt": "Jemtlando l\u0117nas",
        "name:lv": "Jemtlandes l\u0113ne",
        "name:ms": "Daerah J\u00e4mtland",
        "name:no": "J\u00e4mtlands l\u00e4n",
        "name:pl": "J\u00e4mtland",
        "name:ro": "Comitatul J\u00e4mtland",
        "name:ru": "\u0415\u043c\u0442\u043b\u0430\u043d\u0434",
        "name:se": "J\u00e4mtl\u00e1ndda leatna",
        "name:sv": "J\u00e4mtlands l\u00e4n",
        "name:tr": "J\u00e4mtland ili",
        "name:ur": "\u062c\u0627\u0645\u062a\u0644\u0646\u0688 \u06a9\u0627\u0624\u0646\u0679\u06cc",
        "name:zh": "\u8036\u59c6\u7279\u5170\u7701",
        "population": "132484",
        "population:date": "2022-11-01",
        "ref": "Z",
        "ref:fips": "SW07",
        "ref:nuts": "SE322",
        "ref:nuts:3": "SE322",
        "ref:se:scb": "23",
        "source:population": "SCB 2022",
        "type": "boundary",
        "wikidata": "Q103679",
        "wikipedia": "sv:J\u00e4mtlands l\u00e4n"
      }
    },
    {
      "type": "relation",
      "id": 52827,
      "tags": {
        "ISO3166-2": "SE-Y",
        "admin_level": "4",
        "boundary": "administrative",
        "name": "V\u00e4sternorrlands l\u00e4n",
        "name:ar": "\u0645\u062d\u0627\u0641\u0638\u0629 \u0648\u0633\u062a\u0631\u0646\u0648\u0631\u0644\u0627\u0646\u062f",
        "name:da": "V\u00e4sternorrland len",
        "name:de": "Provinz V\u00e4sternorrland",
        "name:en": "V\u00e4sternorrland County",
        "name:es": "Provincia de V\u00e4sternorrland",
        "name:fi": "V\u00e4sternorrlandin l\u00e4\u00e4ni",
        "name:fr": "Comt\u00e9 de V\u00e4sternorrland",
        "name:hu": "V\u00e4sternorrland megye",
        "name:id": "Daerah V\u00e4sternorrland",
        "name:lt": "Vesternorlando l\u0117nas",
        "name:ro": "Comitatul V\u00e4sternorrland",
        "name:ru": "\u0412\u0435\u0441\u0442\u0435\u0440\u043d\u043e\u0440\u0440\u043b\u0430\u043d\u0434",
        "name:sv": "V\u00e4sternorrlands l\u00e4n",
        "population": "243334",
        "population:date": "2022-11-01",
        "ref": "Y",
        "ref:fips": "SW24",
        "ref:nuts": "SE321",
        "ref:nuts:3": "SE321",
        "ref:se:scb": "22",
        "source:population": "SCB 2022",
        "type": "boundary",
        "wikidata": "Q104891",
        "wikipedia": "sv:V\u00e4sternorrlands l\u00e4n"
      }
    },
    {
      "type": "relation",
      "id": 52832,
      "tags": {
        "ISO3166-2": "SE-X",
        "admin_level": "4",
        "boundary": "administrative",
        "name": "G\u00e4vleborgs l\u00e4n",
        "name:ar": "\u0645\u0642\u0627\u0637\u0639\u0629 \u064a\u0627\u0641\u0644\u0628\u0648\u0631\u063a",
        "name:be": "\u0415\u045e\u043b\u0435\u0431\u0430\u0440\u0433",
        "name:bs": "Kotar G\u00e4vleborg",
        "name:ca": "Comtat de G\u00e4vleborg",
        "name:cs": "G\u00e4vleborg",
        "name:da": "G\u00e4vleborg len",
        "name:de": "Provinz G\u00e4vleborg",
        "name:en": "G\u00e4vleborg County",
        "name:es": "Provincia de G\u00e4vleborg",
        "name:et": "G\u00e4vleborgi l\u00e4\u00e4n",
        "name:eu": "G\u00e4vleborgeko konderria",
        "name:fa": "\u0634\u0647\u0631\u0633\u062a\u0627\u0646 \u06cc\u0648\u0644\u0628\u0648\u0631\u06cc",
        "name:fi": "G\u00e4vleborgin l\u00e4\u00e4ni",
        "name:fr": "Comt\u00e9 de G\u00e4vleborg",
        "name:gl": "Condado de G\u00e4vleborg",
        "name:he": "\u05d9\u05d1\u05dc\u05d1\u05d5\u05e8\u05d2",
        "name:hi": "\u092f\u0948\u0935\u094d\u0932\u0947\u092c\u0949\u0930\u094d\u092f \u0932\u0948\u0928",
        "name:hr": "\u017dupanija G\u00e4vleborg",
        "name:hu": "G\u00e4vleborg megye",
        "name:id": "Daerah G\u00e4vleborg",
        "name:it": "Contea di G\u00e4vleborg",
        "name:ja": "\u30a4\u30a7\u30f4\u30ec\u30dc\u30ea\u770c",
        "name:ko": "\uc608\ube14\ub808\ubcf4\ub9ac \uc8fc",
        "name:kw": "Konteth G\u00e4vleborg",
        "name:la": "G\u00e4vleborg Comitatus",
        "name:lt": "Jevleborgas",
        "name:lv": "J\u0113vleborjas l\u0113ne",
        "name:mk": "\u0408\u0435\u0432\u043b\u0435\u0431\u043e\u0440\u0433",
        "name:ms": "Daerah G\u00e4vleborg",
        "name:pl": "G\u00e4vleborg",
        "name:pt": "G\u00e4vleborg",
        "name:ro": "Comitatul G\u00e4vleborg",
        "name:ru": "\u0415\u0432\u043b\u0435\u0431\u043e\u0440\u0433",
        "name:se": "G\u00e4vleborgga leatna",
        "name:sv": "G\u00e4vleborgs l\u00e4n",
        "name:tr": "G\u00e4vleborg ili",
        "name:ur": "\u06cc\u0627\u0648\u0644\u06cc\u0628\u0648\u0631\u06cc \u06a9\u0627\u0624\u0646\u0679\u06cc",
        "name:vo": "G\u00e4vleborgi\u00e4n",
        "name:zh": "\u8036\u592b\u52d2\u5821\u7701",
        "population": "287431",
        "population:date": "2022-11-01",
        "ref": "X",
        "ref:fips": "SW03",
        "ref:nuts": "SE313",
        "ref:nuts:3": "SE313",
        "ref:se:scb": "21",
        "source:population": "SCB 2022",
        "type": "boundary",
        "wikidata": "Q103699",
        "wikipedia": "sv:G\u00e4vleborgs l\u00e4n"
      }
    },
    {
      "type": "relation",
      "id": 52834,
      "tags": {
        "ISO3166-2": "SE-W",
        "admin_level": "4",
        "alt_name:en": "Dalecarlia",
        "boundary": "administrative",
        "name": "Dalarnas l\u00e4n",
        "name:ar": "\u0645\u0642\u0627\u0637\u0639\u0629 \u062f\u0627\u0644\u0631\u0646\u0627\u0633",
        "name:da": "Dalarna len",
        "name:de": "Provinz Dalarna",
        "name:en": "Dalarna County",
        "name:es": "Provincia de Dalarna",
        "name:fi": "Taalainmaan l\u00e4\u00e4ni",
        "name:fr": "Comt\u00e9 de Dal\u00e9carlie",
        "name:hu": "Dalarna megye",
        "name:is": "Dalir",
        "name:lt": "Dalarnos l\u0117nas",
        "name:ro": "Comitatul Dalarna",
        "name:ru": "\u0414\u0430\u043b\u0430\u0440\u043d\u0430",
        "name:se": "Dalarna leatna",
        "name:sv": "Dalarnas l\u00e4n",
        "old_name": "Dalarne",
        "population": "288343",
        "population:date": "2022-11-01",
        "ref": "W",
        "ref:fips": "SW10",
        "ref:nuts": "SE312",
        "ref:nuts:3": "SE312",
        "ref:se:scb": "20",
        "short_name": "Dalarna",
        "source:population": "SCB 2022",
        "type": "boundary",
        "wikidata": "Q103732",
        "wikipedia": "sv:Dalarnas l\u00e4n"
      }
    },
    {
      "type": "relation",
      "id": 54220,
      "tags": {
        "ISO3166-2": "SE-C",
        "admin_level": "4",
        "boundary": "administrative",
        "name": "Uppsala l\u00e4n",
        "name:ar": "\u0645\u062d\u0627\u0641\u0638\u0629 \u0627\u0648\u0628\u0633\u0627\u0644\u0627",
        "name:da": "Uppsala len",
        "name:de": "Provinz Uppsala",
        "name:en": "Uppsala County",
        "name:es": "Provincia de Upsala",
        "name:fi": "Uppsalan l\u00e4\u00e4ni",
        "name:fr": "Comt\u00e9 d'Uppsala",
        "name:hu": "Uppsala megye",
        "name:ro": "Comitatul Uppsala",
        "name:ru": "\u0423\u043f\u043f\u0441\u0430\u043b\u0430",
        "name:sv": "Uppsala l\u00e4n",
        "population": "400070",
        "population:date": "2022-11-01",
        "ref": "C",
        "ref:fips": "SW21",
        "ref:nuts": "SE121",
        "ref:nuts:3": "SE121",
        "ref:se:scb": "03",
        "source:population": "SCB 2022",
        "type": "boundary",
        "wikidata": "Q104926",
        "wikipedia": "sv:Uppsala l\u00e4n"
      }
    },
    {
      "type": "relation",
      "id": 54221,
      "tags": {
        "ISO3166-2": "SE-U",
        "admin_level": "4",
        "boundary": "administrative",
        "name": "V\u00e4stmanlands l\u00e4n",
        "name:ar": "\u0645\u0642\u0627\u0637\u0639\u0629 \u0641\u0633\u062a\u0645\u0627\u0646\u0644\u0627\u0646\u062f",
        "name:bg": "\u041e\u043a\u0440\u044a\u0433 \u0412\u0435\u0441\u0442\u043c\u0430\u043d\u043b\u0430\u043d\u0434",
        "name:bs": "Kotar V\u00e4stmanland",
        "name:ca": "Comtat de V\u00e4stmanland",
        "name:cs": "V\u00e4stmanland",
        "name:da": "V\u00e4stmanland len",
        "name:de": "Provinz V\u00e4stmanland",
        "name:en": "V\u00e4stmanland County",
        "name:es": "Provincia de V\u00e4stmanland",
        "name:et": "V\u00e4stmanlandi l\u00e4\u00e4n",
        "name:eu": "V\u00e4stmanlandeko konderria",
        "name:fa": "\u0634\u0647\u0631\u0633\u062a\u0627\u0646 \u0648\u0633\u062a\u0645\u0627\u0646\u0644\u0627\u0646\u062f",
        "name:fi": "V\u00e4stmanlandin l\u00e4\u00e4ni",
        "name:fr": "Comt\u00e9 de V\u00e4stmanland",
        "name:gl": "Condado de V\u00e4stmanland",
        "name:hi": "\u0935\u0947\u0938\u094d\u0924\u092e\u093e\u0928\u0932\u093e\u0928\u094d\u0926 \u0932\u0948\u0928",
        "name:hr": "\u017dupanija V\u00e4stmanland",
        "name:hu": "V\u00e4stmanland megye",
        "name:id": "Daerah V\u00e4stmanland",
        "name:it": "Contea di V\u00e4stmanland",
        "name:ja": "\u30f4\u30a7\u30b9\u30c8\u30de\u30f3\u30e9\u30f3\u30c9\u770c",
        "name:ko": "\ubca0\uc2a4\ud2b8\ub9cc\ub780\ub4dc \uc8fc",
        "name:kw": "Konteth V\u00e4stmanland",
        "name:la": "Vestmanniae Comitatus",
        "name:lt": "Vestmanlandas",
        "name:lv": "Vestmanlandes l\u0113ne",
        "name:ms": "Daerah V\u00e4stmanland",
        "name:pl": "V\u00e4stmanland",
        "name:pt": "V\u00e4stmanland (condado)",
        "name:ro": "Comitatul V\u00e4stmanland",
        "name:ru": "\u0412\u0435\u0441\u0442\u043c\u0430\u043d\u043b\u0430\u043d\u0434",
        "name:se": "V\u00e4stmanl\u00e1ndda leatna",
        "name:sv": "V\u00e4stmanlands l\u00e4n",
        "name:tr": "V\u00e4stmanland ili",
        "name:ur": "\u0648\u06cc\u0633\u062a\u0645\u0627\u0646\u0644\u0627\u0646\u062f \u06a9\u0627\u0624\u0646\u0679\u06cc",
        "name:zh": "\u897f\u66fc\u5170\u7701",
        "population": "280584",
        "population:date": "2022-11-01",
        "ref": "U",
        "ref:fips": "SW25",
        "ref:nuts": "SE125",
        "ref:nuts:3": "SE125",
        "ref:se:scb": "19",
        "source:population": "SCB 2022",
        "type": "boundary",
        "wikidata": "Q105075",
        "wikipedia": "sv:V\u00e4stmanlands l\u00e4n"
      }
    },
    {
      "type": "relation",
      "id": 54222,
      "tags": {
        "ISO3166-2": "SE-T",
        "admin_level": "4",
        "boundary": "administrative",
        "name": "\u00d6rebro l\u00e4n",
        "name:ar": "\u0645\u062d\u0627\u0641\u0638\u0629 \u0627\u0648\u0631\u0628\u0631\u0648",
        "name:bs": "Kotar \u00d6rebro",
        "name:ca": "Comtat d'\u00d6rebro",
        "name:da": "\u00d6rebro len",
        "name:de": "Provinz \u00d6rebro",
        "name:en": "\u00d6rebro County",
        "name:es": "Provincia de \u00d6rebro",
        "name:et": "\u00d6rebro l\u00e4\u00e4n",
        "name:eu": "\u00d6rebroko konderria",
        "name:fa": "\u0634\u0647\u0631\u0633\u062a\u0627\u0646 \u0627\u0648\u0631\u0628\u0631\u0648",
        "name:fi": "\u00d6rebron l\u00e4\u00e4ni",
        "name:fr": "Comt\u00e9 d'\u00d6rebro",
        "name:gl": "Condado de \u00d6rebro",
        "name:he": "\u05d0\u05e8\u05d1\u05e8\u05d5 (\u05de\u05d7\u05d5\u05d6)",
        "name:hi": "\u0913\u0930\u0947\u092c\u094d\u0930\u094b \u0932\u0948\u0928",
        "name:hr": "\u017dupanija \u00d6rebro",
        "name:hu": "\u00d6rebro megye",
        "name:id": "Daerah \u00d6rebro",
        "name:it": "Contea di \u00d6rebro",
        "name:ja": "\u30a8\u30ec\u30d6\u30eb\u30fc\u770c",
        "name:ko": "\uc678\ub808\ube0c\ub85c \uc8fc",
        "name:kw": "Konteth \u00d6rebro",
        "name:lt": "Erebru l\u0117nas",
        "name:lv": "Erebr\u016b l\u0113ne",
        "name:ms": "Daerah \u00d6rebro",
        "name:ro": "Comitatul \u00d6rebro",
        "name:ru": "\u042d\u0440\u0435\u0431\u0440\u0443",
        "name:se": "\u00d6rebro leatna",
        "name:sv": "\u00d6rebro l\u00e4n",
        "name:tr": "\u00d6rebro ili",
        "name:ur": "\u0627\u0648\u0631\u06cc\u0628\u0631\u0648 \u06a9\u0627\u0624\u0646\u0679\u06cc",
        "name:vo": "L\u00f6rebroi\u00e4n",
        "name:zh": "\u5384\u52d2\u5e03\u9c81\u7701",
        "population": "307656",
        "population:date": "2022-11-01",
        "ref": "T",
        "ref:fips": "SW15",
        "ref:nuts": "SE124",
        "ref:nuts:3": "SE124",
        "ref:se:scb": "18",
        "source:population": "SCB 2022",
        "type": "boundary",
        "wikidata": "Q104257",
        "wikipedia": "sv:\u00d6rebro l\u00e4n"
      }
    },
    {
      "type": "relation",
      "id": 54223,
      "tags": {
        "ISO3166-2": "SE-S",
        "admin_level": "4",
        "boundary": "administrative",
        "name": "V\u00e4rmlands l\u00e4n",
        "name:ar": "\u0645\u062d\u0627\u0641\u0638\u0629 \u0648\u0631\u0645\u0644\u0627\u0646\u062f",
        "name:bs": "Kotar V\u00e4rmland",
        "name:ca": "Comtat de V\u00e4rmland",
        "name:da": "V\u00e4rmland len",
        "name:de": "Provinz V\u00e4rmland",
        "name:el": "\u039a\u03bf\u03bc\u03b7\u03c4\u03b5\u03af\u03b1 \u0392\u03ad\u03c1\u03bc\u03bb\u03b1\u03bd\u03c4",
        "name:en": "V\u00e4rmland County",
        "name:es": "Provincia de V\u00e4rmland",
        "name:et": "V\u00e4rmlandi l\u00e4\u00e4n",
        "name:eu": "V\u00e4rmlandeko konderria",
        "name:fa": "\u0634\u0647\u0631\u0633\u062a\u0627\u0646 \u0648\u0631\u0645\u0644\u0627\u0646\u062f",
        "name:fi": "V\u00e4rmlannin l\u00e4\u00e4ni",
        "name:fr": "Comt\u00e9 de V\u00e4rmland",
        "name:gl": "Condado de V\u00e4rmland",
        "name:he": "\u05d5\u05e8\u05de\u05dc\u05e0\u05d3",
        "name:hi": "\u0935\u0948\u0930\u094d\u092e\u0932\u093e\u0928\u094d\u0926 \u0932\u0948\u0928",
        "name:hr": "\u017dupanija V\u00e4rmland",
        "name:hu": "V\u00e4rmland megye",
        "name:id": "Daerah V\u00e4rmland",
        "name:it": "Contea di V\u00e4rmland",
        "name:ja": "\u30f4\u30a7\u30eb\u30e0\u30e9\u30f3\u30c9\u770c",
        "name:ko": "\ubca0\ub984\ub780\ub4dc \uc8fc",
        "name:kw": "Konteth V\u00e4rmland",
        "name:la": "Varmelandiae Comitatus",
        "name:lt": "Vermlandas",
        "name:lv": "Vermlandes l\u0113ne",
        "name:ms": "Daerah V\u00e4rmland",
        "name:pl": "V\u00e4rmland",
        "name:ro": "Comitatul V\u00e4rmland",
        "name:ru": "\u0412\u0435\u0440\u043c\u043b\u0430\u043d\u0434",
        "name:se": "V\u00e4rml\u00e1ndda leatna",
        "name:sk": "V\u00e4rmland (provincia)",
        "name:su": "County V\u00e4rmland",
        "name:sv": "V\u00e4rmlands l\u00e4n",
        "name:tr": "V\u00e4rmland ili",
        "name:ur": "\u0648\u0627\u0631\u0645\u0644\u0627\u0646\u062f \u06a9\u0627\u0624\u0646\u0679\u06cc",
        "name:zh": "\u97e6\u59c6\u5170\u7701",
        "population": "283951",
        "population:date": "2022-11-01",
        "ref": "S",
        "ref:fips": "SW22",
        "ref:nuts": "SE311",
        "ref:nuts:3": "SE311",
        "ref:se:scb": "17",
        "source:population": "SCB 2022",
        "type": "boundary",
        "wikidata": "Q106789",
        "wikipedia": "sv:V\u00e4rmlands l\u00e4n"
      }
    },
    {
      "type": "relation",
      "id": 54367,
      "tags": {
        "ISO3166-2": "SE-O",
        "admin_level": "4",
        "boundary": "administrative",
        "name": "V\u00e4stra G\u00f6talands l\u00e4n",
        "name:ar": "\u0645\u062d\u0627\u0641\u0638\u0629 \u0648\u0633\u062a\u0631\u0627 \u064a\u0648\u062a\u0627\u0644\u0627\u0646\u062f",
        "name:be": "\u0412\u0435\u0441\u0442\u0440\u0430-\u0413\u0451\u0442\u0430\u043b\u0430\u043d\u0434",
        "name:bs": "Kotar V\u00e4stra G\u00f6taland",
        "name:ca": "V\u00e4stra G\u00f6taland",
        "name:cs": "V\u00e4stra G\u00f6taland",
        "name:da": "V\u00e4stra G\u00f6taland len",
        "name:de": "Provinz V\u00e4stra G\u00f6taland",
        "name:el": "\u039a\u03bf\u03bc\u03b7\u03c4\u03b5\u03af\u03b1 \u0392\u03ad\u03c3\u03c4\u03c1\u03b1 \u0393\u03ba\u03ad\u03c4\u03b1\u03bb\u03b1\u03bd\u03c4",
        "name:en": "V\u00e4stra G\u00f6taland County",
        "name:es": "Provincia de V\u00e4stra G\u00f6taland",
        "name:et": "V\u00e4stra G\u00f6talandi l\u00e4\u00e4n",
        "name:eu": "V\u00e4stra G\u00f6talandeko konderria",
        "name:fa": "\u0634\u0647\u0631\u0633\u062a\u0627\u0646 \u0648\u0633\u062a\u0631\u0627 \u06cc\u0648\u062a\u0644\u0627\u0646\u062f",
        "name:fi": "L\u00e4nsi-G\u00f6tanmaan l\u00e4\u00e4ni",
        "name:fr": "Comt\u00e9 de V\u00e4stra G\u00f6taland",
        "name:gl": "Condado de V\u00e4stra G\u00f6taland",
        "name:he": "\u05d5\u05e1\u05d8\u05e8\u05d4 \u05d9\u05d9\u05d8\u05dc\u05e0\u05d3",
        "name:hi": "\u0935\u0947\u0938\u094d\u0924\u094d\u0930\u093e \u092f\u094b\u0924\u093e\u0932\u093e\u0928\u094d\u0926 \u0932\u0948\u0928",
        "name:hr": "\u017dupanija V\u00e4stra G\u00f6taland",
        "name:hu": "V\u00e4stra G\u00f6taland megye",
        "name:id": "Daerah V\u00e4stra G\u00f6taland",
        "name:it": "Contea di V\u00e4stra G\u00f6taland",
        "name:ja": "\u30f4\u30a7\u30b9\u30c8\u30e9\u30fb\u30a4\u30a7\u30fc\u30bf\u30e9\u30f3\u30c9\u770c",
        "name:ko": "\ubca0\uc2a4\ud2b8\ub77c\uc608\ud0c8\ub780\ub4dc \uc8fc",
        "name:kw": "Konteth V\u00e4stra G\u00f6taland",
        "name:la": "Gothiae Occidentalis Comitatus",
        "name:lt": "Vestra Jotalandas",
        "name:lv": "Vesterj\u0113tlandes l\u0113ne",
        "name:ms": "Daerah V\u00e4stra G\u00f6taland",
        "name:os": "\u0412\u0435\u0441\u0442\u0440\u00e6-\u0413\u0451\u0442\u0430\u043b\u0430\u043d\u0434",
        "name:pl": "V\u00e4stra G\u00f6taland",
        "name:ro": "Comitatul V\u00e4stra G\u00f6taland",
        "name:ru": "\u0412\u0435\u0441\u0442\u0440\u0430-\u0413\u0451\u0442\u0430\u043b\u0430\u043d\u0434",
        "name:sk": "V\u00e4stra G\u00f6taland",
        "name:sv": "V\u00e4stra G\u00f6talands l\u00e4n",
        "name:tr": "V\u00e4stra G\u00f6taland ili",
        "name:uk": "\u0412\u0435\u0441\u0442\u0440\u0430-\u0419\u043e\u0442\u0430\u043b\u0430\u043d\u0434",
        "name:ur": "\u0648\u0627\u0633\u062a\u0631\u0627 \u06cc\u0648\u062a\u0627\u0644\u0627\u0646\u062f \u06a9\u0627\u0624\u0646\u0679\u06cc",
        "name:vo": "G\u00f6tal\u00e4ni\u00e4n Ves\u00fcdik",
        "name:zh": "\u897f\u7ea6\u5854\u5170\u7701",
        "population": "1757225",
        "population:date": "2022-11-01",
        "ref": "O",
        "ref:fips": "SW28",
        "ref:nuts": "SE232",
        "ref:nuts:3": "SE232",
        "ref:se:scb": "14",
        "source:population": "SCB 2022",
        "type": "boundary",
        "wikidata": "Q103093",
        "wikipedia": "sv:V\u00e4stra G\u00f6talands l\u00e4n"
      }
    },
    {
      "type": "relation",
      "id": 54374,
      "tags": {
        "ISO3166-2": "SE-F",
        "admin_level": "4",
        "boundary": "administrative",
        "name": "J\u00f6nk\u00f6pings l\u00e4n",
        "name:ar": "\u0645\u062d\u0627\u0641\u0638\u0629 \u064a\u0648\u0646\u0634\u0648\u0628\u064a\u0646\u063a",
        "name:bs": "Kotar J\u00f6nk\u00f6ping",
        "name:ca": "Comtat de J\u00f6nk\u00f6ping",
        "name:da": "J\u00f6nk\u00f6ping len",
        "name:de": "Provinz J\u00f6nk\u00f6ping",
        "name:en": "J\u00f6nk\u00f6ping County",
        "name:es": "Provincia de J\u00f6nk\u00f6ping",
        "name:et": "J\u00f6nk\u00f6pingi l\u00e4\u00e4n",
        "name:eu": "J\u00f6nk\u00f6pingeko konderria",
        "name:fa": "\u0634\u0647\u0631\u0633\u062a\u0627\u0646 \u06cc\u0648\u0646\u0634\u0648\u067e\u06cc\u0646\u06af",
        "name:fi": "J\u00f6nk\u00f6pingin l\u00e4\u00e4ni",
        "name:fr": "Comt\u00e9 de J\u00f6nk\u00f6ping",
        "name:gl": "Condado de J\u00f6nk\u00f6ping",
        "name:he": "\u05de\u05d7\u05d5\u05d6 \u05d9\u05e0\u05e9\u05e4\u05d9\u05e0\u05d2",
        "name:hi": "\u092f\u094b\u0928\u0936\u094b\u092a\u093f\u0902\u0917 \u0932\u0948\u0928",
        "name:hr": "\u017dupanija J\u00f6nk\u00f6ping",
        "name:hu": "J\u00f6nk\u00f6ping megye",
        "name:id": "Daerah J\u00f6nk\u00f6ping",
        "name:it": "Contea di J\u00f6nk\u00f6ping",
        "name:ja": "\u30e8\u30f3\u30b7\u30e7\u30fc\u30d4\u30f3\u30b0\u770c",
        "name:ko": "\uc60c\uc170\ud551\uc8fc",
        "name:kw": "Konteth J\u00f6nk\u00f6ping",
        "name:la": "Iunecopiae Comitatus",
        "name:lt": "Jon\u0161iopingo l\u0117nas",
        "name:lv": "Jen\u0161\u0113pingas l\u0113ne",
        "name:ms": "Daerah J\u00f6nk\u00f6ping",
        "name:ro": "Comitatul J\u00f6nk\u00f6ping",
        "name:ru": "\u0419\u0451\u043d\u0447\u0451\u043f\u0438\u043d\u0433",
        "name:sv": "J\u00f6nk\u00f6pings l\u00e4n",
        "name:tr": "J\u00f6nk\u00f6ping ili",
        "name:ur": "\u06cc\u0648\u0646\u0634\u0648\u067e\u0646\u06af \u06a9\u0627\u0624\u0646\u0679\u06cc",
        "name:vo": "Y\u00f6nk\u00f6pingi\u00e4n",
        "name:zh": "\u5ef6\u96ea\u5e73\u7701",
        "population": "368963",
        "population:date": "2022-11-01",
        "ref": "F",
        "ref:fips": "SW08",
        "ref:nuts": "SE211",
        "ref:nuts:3": "SE211",
        "ref:se:scb": "06",
        "source:population": "SCB 2022",
        "type": "boundary",
        "wikidata": "Q103672",
        "wikipedia": "sv:J\u00f6nk\u00f6pings l\u00e4n"
      }
    },
    {
      "type": "relation",
      "id": 54386,
      "tags": {
        "ISO3166-2": "SE-D",
        "admin_level": "4",
        "boundary": "administrative",
        "name": "S\u00f6dermanlands l\u00e4n",
        "name:ar": "\u0645\u062d\u0627\u0641\u0638\u0629 \u0633\u0648\u062f\u0631\u0645\u0627\u0646\u0644\u0627\u0646\u062f",
        "name:bs": "Kotar S\u00f6dermanland",
        "name:ca": "Comtat de S\u00f6dermanland",
        "name:cs": "S\u00f6dermanland",
        "name:da": "S\u00f6dermanland len",
        "name:de": "Provinz S\u00f6dermanland",
        "name:en": "S\u00f6dermanland County",
        "name:es": "Provincia de S\u00f6dermanland",
        "name:et": "S\u00f6dermanlandi l\u00e4\u00e4n",
        "name:eu": "S\u00f6dermanlandeko konderria",
        "name:fa": "\u0634\u0647\u0631\u0633\u062a\u0627\u0646 \u0633\u0648\u062f\u0631\u0645\u0627\u0646\u0644\u0627\u0646\u062f",
        "name:fi": "S\u00f6dermanlandin l\u00e4\u00e4ni",
        "name:fr": "Comt\u00e9 de S\u00f6dermanland",
        "name:gl": "Condado de S\u00f6dermanland",
        "name:hi": "\u0938\u094b\u0926\u0930\u092e\u093e\u0928\u0932\u093e\u0928\u094d\u0926 \u0932\u0948\u0928",
        "name:hr": "\u017dupanija S\u00f6dermanland",
        "name:hu": "S\u00f6dermanland megye",
        "name:id": "Daerah S\u00f6dermanland",
        "name:it": "Contea di S\u00f6dermanland",
        "name:ja": "\u30bb\u30fc\u30c7\u30eb\u30de\u30f3\u30e9\u30f3\u30c9\u770c",
        "name:ko": "\uc1e0\ub370\ub974\ub9cc\ub780\ub4dc \uc8fc",
        "name:kw": "Konteth S\u00f6dermanland",
        "name:la": "Sudermanniae Comitatus",
        "name:lt": "Siodermanlando l\u0117nas",
        "name:lv": "S\u0113dermanlandes l\u0113ne",
        "name:ms": "Daerah S\u00f6dermanland",
        "name:pl": "S\u00f6dermanland",
        "name:pt": "S\u00f6dermanland (condado)",
        "name:ro": "Comitatul S\u00f6dermanland",
        "name:ru": "\u0421\u0451\u0434\u0435\u0440\u043c\u0430\u043d\u043b\u0430\u043d\u0434",
        "name:se": "S\u00f6dermanl\u00e1ndda leatna",
        "name:sv": "S\u00f6dermanlands l\u00e4n",
        "name:tr": "S\u00f6dermanland ili",
        "name:ur": "\u0633\u0648\u062f\u0631\u0645\u0646\u0644\u0627\u0646\u062f \u06a9\u0627\u0624\u0646\u0679\u06cc",
        "name:zh": "\u5357\u66fc\u5170\u7701",
        "population": "302473",
        "population:date": "2022-11-01",
        "ref": "D",
        "ref:fips": "SW18",
        "ref:nuts": "SE122",
        "ref:nuts:3": "SE122",
        "ref:se:scb": "04",
        "source:population": "SCB 2022",
        "type": "boundary",
        "wikidata": "Q106915",
        "wikipedia": "sv:S\u00f6dermanlands l\u00e4n"
      }
    },
    {
      "type": "relation",
      "id": 54391,
      "tags": {
        "ISO3166-2": "SE-AB",
        "admin_level": "4",
        "boundary": "administrative",
        "name": "Stockholms l\u00e4n",
        "name:ar": "\u0645\u062d\u0627\u0641\u0638\u0629 \u0633\u062a\u0648\u0643\u0647\u0648\u0644\u0645",
        "name:da": "Stockholm len",
        "name:de": "Provinz Stockholm",
        "name:en": "Stockholm County",
        "name:es": "Provincia de Estocolmo",
        "name:fi": "Tukholman l\u00e4\u00e4ni",
        "name:fr": "Comt\u00e9 de Stockholm",
        "name:gl": "Provincia de Estocolmo",
        "name:hu": "Stockholm megye",
        "name:ro": "Comitatul Stockholm",
        "name:ru": "\u0421\u0442\u043e\u043a\u0433\u043e\u043b\u044c\u043c",
        "name:sk": "\u0160tokholmsk\u00fd kraj",
        "name:sv": "Stockholms l\u00e4n",
        "name:zh": "\u65af\u5fb7\u54e5\u723e\u6469\u7701",
        "name:zh-Hans": "\u65af\u5fb7\u54e5\u5c14\u6469\u7701",
        "name:zh-Hant": "\u65af\u5fb7\u54e5\u723e\u6469\u7701",
        "population": "2437158",
        "population:date": "2022-11-01",
        "ref": "AB",
        "ref:fips": "SW26",
        "ref:nuts:2": "SE11",
        "ref:nuts:3": "SE110",
        "ref:se:scb": "01",
        "source:population": "SCB 2022",
        "type": "boundary",
        "wikidata": "Q104231",
        "wikipedia": "sv:Stockholms l\u00e4n"
      }
    },
    {
      "type": "relation",
      "id": 54403,
      "tags": {
        "ISO3166-2": "SE-N",
        "admin_level": "4",
        "boundary": "administrative",
        "name": "Hallands l\u00e4n",
        "name:ar": "\u0645\u062d\u0627\u0641\u0638\u0629 \u0647\u0627\u0644\u0644\u0627\u0646\u062f",
        "name:bs": "Kotar Halland",
        "name:ca": "Comtat de Halland",
        "name:cs": "Halland",
        "name:da": "Hallands len",
        "name:de": "Provinz Halland",
        "name:en": "Halland County",
        "name:es": "Provincia de Halland",
        "name:et": "Hallandi l\u00e4\u00e4n",
        "name:eu": "Hallandeko konderria",
        "name:fa": "\u0634\u0647\u0631\u0633\u062a\u0627\u0646 \u0647\u0627\u0644\u0644\u0627\u0646\u062f",
        "name:fi": "Hallandin l\u00e4\u00e4ni",
        "name:fr": "Comt\u00e9 de Halland",
        "name:gl": "Condado de Halland",
        "name:he": "\u05d4\u05dc\u05e0\u05d3",
        "name:hi": "\u0939\u0932\u094d\u0932\u093e\u0928\u094d\u0926 \u0932\u0948\u0928",
        "name:hr": "\u017dupanija Halland",
        "name:hu": "Halland megye",
        "name:id": "Daerah Halland",
        "name:it": "Contea di Halland",
        "name:ja": "\u30cf\u30c3\u30e9\u30f3\u30c9\u770c",
        "name:ko": "\ud560\ub780\ub4dc \uc8fc",
        "name:kw": "Konteth Halland",
        "name:la": "Hallandiae Comitatus",
        "name:lt": "Halando l\u0117nas",
        "name:lv": "Hallandes l\u0113ne",
        "name:ms": "Daerah Halland",
        "name:pt": "Hal\u00e2ndia (condado)",
        "name:ro": "Comitatul Halland",
        "name:ru": "\u0425\u0430\u043b\u043b\u0430\u043d\u0434",
        "name:se": "Hall\u00e1ndda leatna",
        "name:sv": "Hallands l\u00e4n",
        "name:tr": "Halland ili",
        "name:ur": "\u06c1\u0627\u0644\u0627\u0646\u062f \u06a9\u0627\u0624\u0646\u0679\u06cc",
        "name:vi": "Halland (h\u1ea1t)",
        "name:vo": "Hall\u00e4ni\u00e4n (provin)",
        "name:zh": "\u54c8\u5170\u7701",
        "population": "342658",
        "population:date": "2022-11-01",
        "ref": "N",
        "ref:fips": "SW06",
        "ref:nuts": "SE231",
        "ref:nuts:3": "SE231",
        "ref:se:scb": "13",
        "source:population": "SCB 2022",
        "type": "boundary",
        "wikidata": "Q103691",
        "wikipedia": "sv:Hallands l\u00e4n"
      }
    },
    {
      "type": "relation",
      "id": 54409,
      "tags": {
        "ISO3166-2": "SE-M",
        "admin_level": "4",
        "alt_name:pl": "Region Skania",
        "boundary": "administrative",
        "gns_classification": "ADM1",
        "gns_uni": "6257520",
        "name": "Sk\u00e5ne l\u00e4n",
        "name:ar": "\u0645\u062d\u0627\u0641\u0638\u0629 \u0627\u0633\u0643\u0648\u0646\u0647",
        "name:bs": "Kotar Sk\u00e5ne",
        "name:ca": "Comtat d'Esc\u00e0nia",
        "name:cs": "Sk\u00e5ne",
        "name:da": "Sk\u00e5ne len",
        "name:de": "Provinz Schonen",
        "name:en": "Sk\u00e5ne County",
        "name:es": "Provincia de Escania",
        "name:et": "Sk\u00e5ne l\u00e4\u00e4n",
        "name:eu": "Eskaniako konderria",
        "name:fa": "\u0634\u0647\u0631\u0633\u062a\u0627\u0646 \u0627\u0633\u06a9\u0648\u0646\u0647",
        "name:fi": "Sk\u00e5nen l\u00e4\u00e4ni",
        "name:fr": "Comt\u00e9 de Scanie",
        "name:gl": "Condado de Escania",
        "name:he": "\u05de\u05d7\u05d5\u05d6 \u05e1\u05e7\u05d5\u05e0\u05d4",
        "name:hi": "\u0938\u094d\u0915\u0949\u0928\u0947 \u0932\u0948\u0928",
        "name:hr": "\u017dupanija Sk\u00e5ne",
        "name:hu": "Sk\u00e5ne megye",
        "name:id": "County Sk\u00e5ne",
        "name:is": "Sk\u00e1nn",
        "name:it": "Contea della Scania",
        "name:ja": "\u30b9\u30b3\u30fc\u30cd\u770c",
        "name:ka": "\u10e1\u10d9\u10dd\u10dc\u10d4 (\u10da\u10d4\u10dc\u10d8)",
        "name:ko": "\uc2a4\ucf54\ub124 \uc8fc",
        "name:kw": "Konteth Sk\u00e5ne",
        "name:la": "Scania",
        "name:lt": "Skon\u0117",
        "name:lv": "Skones l\u0113ne",
        "name:ms": "Daerah Sk\u00e5ne",
        "name:os": "\u0421\u043a\u043e\u043d\u0435 (\u043b\u0435\u043d)",
        "name:pl": "Skania",
        "name:pt": "Esc\u00e2nia",
        "name:ro": "Comitatul Sk\u00e5ne",
        "name:ru": "\u0421\u043a\u043e\u043d\u0435",
        "name:se": "Sk\u00e5ne leatna",
        "name:sq": "Qarku Sk\u00e5ne",
        "name:sv": "Sk\u00e5ne l\u00e4n",
        "name:th": "\u0e40\u0e17\u0e28\u0e21\u0e13\u0e11\u0e25\u0e2a\u0e01\u0e31\u0e27\u0e40\u0e19\u0e2d",
        "name:tr": "Sk\u00e5ne ili",
        "name:ur": "\u0633\u06a9\u0648\u0646\u06c1 \u06a9\u0627\u0624\u0646\u0679\u06cc",
        "name:zh": "\u65af\u79d1\u8bb7\u7701",
        "population": "1413080",
        "population:date": "2022-11-01",
        "ref": "M",
        "ref:fips": "SW27",
        "ref:nuts": "SE224",
        "ref:nuts:3": "SE224",
        "ref:se:scb": "12",
        "short_name": "Sk\u00e5ne",
        "source:population": "SCB 2022",
        "type": "boundary",
        "wikidata": "Q103659",
        "wikipedia": "sv:Sk\u00e5ne l\u00e4n"
      }
    },
    {
      "type": "relation",
      "id": 54412,
      "tags": {
        "ISO3166-2": "SE-G",
        "admin_level": "4",
        "boundary": "administrative",
        "name": "Kronobergs l\u00e4n",
        "name:ar": "\u0645\u062d\u0627\u0641\u0638\u0629 \u0643\u0631\u0648\u0646\u0648\u0628\u0631\u064a",
        "name:be": "\u041a\u0440\u0443\u043d\u0443\u0431\u0435\u0440\u0433",
        "name:bs": "Kotar Kronoberg",
        "name:ca": "Comtat de Kronoberg",
        "name:cs": "Kronoberg",
        "name:da": "Kronoberg len",
        "name:de": "Provinz Kronoberg",
        "name:en": "Kronoberg County",
        "name:es": "Provincia de Kronoberg",
        "name:et": "Kronobergi l\u00e4\u00e4n",
        "name:eu": "Kronobergeko konderria",
        "name:fa": "\u0634\u0647\u0631\u0633\u062a\u0627\u0646 \u06a9\u0631\u0648\u0646\u0648\u0628\u0631\u06cc",
        "name:fi": "Kronobergin l\u00e4\u00e4ni",
        "name:fr": "Comt\u00e9 de Kronoberg",
        "name:gl": "Condado de Kronoberg",
        "name:hi": "\u0915\u094d\u0930\u0942\u0928\u0941\u092c\u0948\u0930\u094d\u092f \u0932\u0948\u0928",
        "name:hr": "\u017dupanija Kronoberg",
        "name:hu": "Kronoberg megye",
        "name:id": "Daerah Kronoberg",
        "name:it": "Contea di Kronoberg",
        "name:ja": "\u30af\u30ed\u30ce\u30d9\u30ea\u770c",
        "name:ko": "\ud06c\ub85c\ub178\ubca0\ub9ac \uc8fc",
        "name:kw": "Konteth Kronoberg",
        "name:la": "Cronobergiae Comitatus",
        "name:lt": "Kronobergo l\u0117nas",
        "name:lv": "Kr\u016bnuberjas l\u0113ne",
        "name:ms": "Daerah Kronoberg",
        "name:os": "\u041a\u0440\u0443\u043d\u0443\u0431\u0435\u0440\u0433",
        "name:pl": "Kronoberg",
        "name:ro": "Comitatul Kronoberg",
        "name:ru": "\u041a\u0440\u0443\u043d\u0443\u0431\u0435\u0440\u0433",
        "name:se": "Kronobergga leatna",
        "name:sv": "Kronobergs l\u00e4n",
        "name:tr": "Kronoberg ili",
        "name:uk": "\u041a\u0440\u0443\u043d\u0443\u0431\u0435\u0440\u0433",
        "name:ur": "\u06a9\u0631\u0648\u0646\u0648\u0628\u0631\u06cc \u06a9\u0627\u0624\u0646\u0679\u06cc",
        "name:vo": "Kronobergi\u00e4n",
        "name:zh": "\u514b\u9c81\u52aa\u8d1d\u91cc\u7701",
        "population": "204257",
        "population:date": "2022-11-01",
        "ref": "G",
        "ref:fips": "SW12",
        "ref:nuts": "SE212",
        "ref:nuts:3": "SE212",
        "ref:se:scb": "07",
        "source:population": "SCB 2022",
        "type": "boundary",
        "wikidata": "Q104746",
        "wikipedia": "sv:Kronobergs l\u00e4n"
      }
    },
    {
      "type": "relation",
      "id": 54413,
      "tags": {
        "ISO3166-2": "SE-K",
        "admin_level": "4",
        "boundary": "administrative",
        "name": "Blekinge l\u00e4n",
        "name:ar": "\u0645\u0642\u0627\u0637\u0639\u0629 \u0628\u0644\u064a\u0643\u064a\u0646\u062c",
        "name:bs": "Kotar Blekinge",
        "name:ca": "Comtat de Blekinge",
        "name:cv": "\u0411\u043b\u0435\u043a\u0438\u043d\u0433\u0435 \u043b\u0435\u043d\u0115",
        "name:da": "Blekinge len",
        "name:de": "Provinz Blekinge",
        "name:en": "Blekinge County",
        "name:es": "Provincia de Blekinge",
        "name:et": "Blekinge l\u00e4\u00e4n",
        "name:eu": "Blekingeko konderria",
        "name:fa": "\u0634\u0647\u0631\u0633\u062a\u0627\u0646 \u0628\u0644\u06a9\u06cc\u0646\u06af\u0647",
        "name:fi": "Blekingen l\u00e4\u00e4ni",
        "name:fr": "Comt\u00e9 de Blekinge",
        "name:gl": "Condado de Blekinge",
        "name:hi": "\u092c\u094d\u0932\u0915\u093f\u0902\u0917\u0947 \u0932\u0948\u0928",
        "name:hr": "\u017dupanija Blekinge",
        "name:hu": "Blekinge megye",
        "name:id": "Daerah Blekinge",
        "name:it": "Contea di Blekinge",
        "name:ja": "\u30d6\u30ec\u30fc\u30ad\u30f3\u30b2\u770c",
        "name:ko": "\ube14\ub808\ud0b9\uc5d0 \uc8fc",
        "name:kw": "Konteth Blekinge",
        "name:la": "Blekingiae Comitatus",
        "name:lt": "Bleking\u0117s l\u0117nas",
        "name:lv": "Bl\u0113kinges l\u0113ne",
        "name:ms": "Daerah Blekinge",
        "name:pl": "Blekinge",
        "name:ro": "Comitatul Blekinge",
        "name:ru": "\u0411\u043b\u0435\u043a\u0438\u043d\u0433\u0435",
        "name:se": "Blekinge leatna",
        "name:sv": "Blekinge l\u00e4n",
        "name:th": "\u0e40\u0e17\u0e28\u0e21\u0e13\u0e11\u0e25\u0e40\u0e1a\u0e25\u0e35\u0e22\u0e01\u0e34\u0e07\u0e40\u0e07\u0e2d",
        "name:tr": "Blekinge ili",
        "name:ur": "\u0628\u0644\u06cc\u06a9\u06cc\u0646\u06d2 \u06a9\u0627\u0624\u0646\u0679\u06cc",
        "name:zh": "\u5e03\u840a\u91d1\u5384\u7701",
        "population": "158876",
        "population:date": "2022-11-01",
        "ref": "K",
        "ref:fips": "SW02",
        "ref:nuts": "SE221",
        "ref:nuts:3": "SE221",
        "ref:se:scb": "10",
        "source:population": "SCB 2022",
        "type": "boundary",
        "wikidata": "Q102377",
        "wikipedia": "sv:Blekinge l\u00e4n"
      }
    },
    {
      "type": "relation",
      "id": 54417,
      "tags": {
        "ISO3166-2": "SE-H",
        "admin_level": "4",
        "boundary": "administrative",
        "name": "Kalmar l\u00e4n",
        "name:ar": "\u0645\u0642\u0627\u0637\u0639\u0629 \u0643\u0627\u0644\u0645\u0627\u0631",
        "name:da": "Kalmar len",
        "name:de": "Provinz Kalmar",
        "name:en": "Kalmar County",
        "name:es": "Provincia de Kalmar",
        "name:fi": "Kalmarin l\u00e4\u00e4ni",
        "name:fr": "Comt\u00e9 de Kalmar",
        "name:gl": "Condado de Kalmar",
        "name:hi": "\u0915\u0932\u094d\u092e\u093e\u0930 \u0932\u0948\u0928",
        "name:hr": "\u017dupanija Kalmar",
        "name:hu": "Kalmar megye",
        "name:id": "Daerah Kalmar",
        "name:it": "Contea di Kalmar",
        "name:ja": "\u30ab\u30eb\u30de\u30eb\u770c",
        "name:ko": "\uce7c\ub9c8\ub974 \uc8fc",
        "name:kw": "Konteth Kalmar",
        "name:la": "Calmariae Comitatus",
        "name:lt": "Kalmaro l\u0117nas",
        "name:lv": "Kalmaras l\u0113ne",
        "name:ms": "Daerah Kalmar",
        "name:ro": "Comitatul Kalmar",
        "name:ru": "\u041a\u0430\u043b\u044c\u043c\u0430\u0440",
        "name:se": "Kalmara leatna",
        "name:sv": "Kalmar l\u00e4n",
        "name:vo": "Kalmari\u00e4n",
        "population": "247791",
        "population:date": "2022-11-01",
        "ref": "H",
        "ref:fips": "SW09",
        "ref:nuts": "SE213",
        "ref:nuts:3": "SE213",
        "ref:se:scb": "08",
        "source:population": "SCB 2022",
        "type": "boundary",
        "wikidata": "Q103707",
        "wikipedia": "sv:Kalmar l\u00e4n"
      }
    },
    {
      "type": "relation",
      "id": 940675,
      "tags": {
        "ISO3166-2": "SE-E",
        "admin_level": "4",
        "boundary": "administrative",
        "name": "\u00d6sterg\u00f6tlands l\u00e4n",
        "name:ar": "\u0645\u0642\u0627\u0637\u0639\u0629 \u0623\u0648\u0633\u062a\u0631\u063a\u0648\u062a\u0644\u0627\u0646\u062f",
        "name:bs": "Kotar \u00d6sterg\u00f6tland",
        "name:ca": "Comtat d'\u00d6sterg\u00f6tland",
        "name:cs": "\u00d6sterg\u00f6tland",
        "name:da": "\u00d6sterg\u00f6tland len",
        "name:de": "Provinz \u00d6sterg\u00f6tland",
        "name:en": "\u00d6sterg\u00f6tland County",
        "name:es": "Provincia de \u00d6sterg\u00f6tland",
        "name:et": "\u00d6sterg\u00f6tlandi l\u00e4\u00e4n",
        "name:eu": "\u00d6sterg\u00f6tlandeko konderria",
        "name:fa": "\u0634\u0647\u0631\u0633\u062a\u0627\u0646 \u0627\u0648\u0633\u062a\u0631\u06cc\u0648\u062a\u0644\u0627\u0646\u062f",
        "name:fi": "It\u00e4-G\u00f6tanmaan l\u00e4\u00e4ni",
        "name:fr": "Comt\u00e9 d'\u00d6sterg\u00f6tland",
        "name:gl": "Condado de \u00d6sterg\u00f6tland",
        "name:he": "\u05d0\u05e1\u05d8\u05e8\u05d9\u05d9\u05d8\u05dc\u05e0\u05d3",
        "name:hi": "\u0913\u0938\u094d\u0924\u0930\u092f\u094b\u0924\u0932\u093e\u0928\u094d\u0926 \u0932\u0948\u0928",
        "name:hr": "\u017dupanija \u00d6sterg\u00f6tland",
        "name:hu": "\u00d6sterg\u00f6tland megye",
        "name:id": "Daerah \u00d6sterg\u00f6tland",
        "name:it": "Contea di \u00d6sterg\u00f6tland",
        "name:ja": "\u30a8\u30b9\u30c6\u30eb\u30a4\u30a7\u30fc\u30bf\u30e9\u30f3\u30c9\u770c",
        "name:ko": "\uc678\uc2a4\ud14c\ub974\uc608\ud2c0\ub780\ub4dc \uc8fc",
        "name:kw": "Konteth \u00d6sterg\u00f6tland",
        "name:la": "Gothiae Orientalis Comitatus",
        "name:lt": "Esterjotlando l\u0117nas",
        "name:lv": "Esterj\u0113tlandes l\u0113ne",
        "name:ms": "Daerah \u00d6sterg\u00f6tland",
        "name:pl": "\u00d6sterg\u00f6tland",
        "name:ro": "Comitatul \u00d6sterg\u00f6tland",
        "name:ru": "\u042d\u0441\u0442\u0435\u0440\u0433\u0451\u0442\u043b\u0430\u043d\u0434",
        "name:se": "Nuortag\u00f6tl\u00e1ndda leatna",
        "name:sv": "\u00d6sterg\u00f6tlands l\u00e4n",
        "name:tr": "\u00d6sterg\u00f6tland ili",
        "name:ur": "\u0627\u0648\u0633\u062a\u0631\u06cc\u0648\u062a\u0644\u0627\u0646\u062f \u06a9\u0627\u0624\u0646\u0679\u06cc",
        "name:zh": "\u4e1c\u7ea6\u7279\u5170\u7701",
        "population": "471797",
        "population:date": "2022-11-01",
        "ref": "E",
        "ref:fips": "SW16",
        "ref:nuts": "SE123",
        "ref:nuts:3": "SE123",
        "ref:se:scb": "05",
        "source:population": "SCB 2022",
        "type": "boundary",
        "wikidata": "Q104940",
        "wikipedia": "sv:\u00d6sterg\u00f6tlands l\u00e4n"
      }
    },
    {
      "type": "relation",
      "id": 941530,
      "tags": {
        "ISO3166-2": "SE-I",
        "admin_level": "4",
        "boundary": "administrative",
        "name": "Gotlands l\u00e4n",
        "name:bg": "\u0413\u043e\u0442\u043b\u0430\u043d\u0434",
        "name:da": "Gotland len",
        "name:de": "Provinz Gotland",
        "name:en": "Gotland County",
        "name:es": "Provincia de Gotland",
        "name:fi": "Gotlannin l\u00e4\u00e4ni",
        "name:fr": "Comt\u00e9 de Gotland",
        "name:hu": "Gotland megye",
        "name:ko": "\uace0\ud2c0\ub780\ub4dc\uc8fc",
        "name:lt": "Gotlando l\u0117nas",
        "name:mk": "\u0413\u043e\u0442\u043b\u0430\u043d\u0434",
        "name:ro": "Comitatul Gotland",
        "name:ru": "\u0413\u043e\u0442\u043b\u0430\u043d\u0434",
        "name:sv": "Gotlands l\u00e4n",
        "name:zh": "\u54e5\u5f97\u5170\u7701",
        "name:zh-Hans": "\u54e5\u5f97\u5170\u7701",
        "name:zh-Hant": "\u54e5\u5f97\u862d\u7701",
        "population": "61167",
        "population:date": "2022-11-01",
        "ref": "I",
        "ref:fips": "SW05",
        "ref:nuts": "SE214",
        "ref:nuts:3": "SE214",
        "ref:se:scb": "09",
        "source:population": "SCB 2022",
        "type": "boundary",
        "wikidata": "Q103738",
        "wikipedia": "sv:Gotlands l\u00e4n"
      }
    }
  ]
}