{
  "version": 0.6,
  "generator": "Overpass API 0.7.62.8 e802775f",
  "osm3s": {
    "timestamp_osm_base": "2025-10-04T19:10:00Z",
    "timestamp_areas_base": "2025-10-04T15:40:00Z",
    "copyright": "The data included in this document is from www.openstreetmap.org. The data is made available under ODbL."
  },
  "elements": [
    {
      "type": "relation",
      "id": 186382,
      "tags": {
        "ISO3166-1": "BG",
        "ISO3166-1:alpha2": "BG",
        "ISO3166-1:alpha3": "BGR",
        "ISO3166-1:numeric": "100",
        "admin_level": "2",
        "alt_name:ba": "\u0411\u043e\u043b\u0493\u0430\u0440\u0441\u0442\u0430\u043d",
        "alt_name:ckb": "\u0628\u0648\u0644\u06af\u0627\u0631\u0633\u062a\u0627\u0646",
        "alt_name:eo": "Bulgarujo",
        "alt_name:gd": "A' Bhulgair;Bulgaria",
        "alt_name:ht": "Boulgari",
        "alt_name:jbo": "bulgarias",
        "alt_name:kk": "\u0411\u04b1\u043b\u0493\u0430\u0440\u0438\u044f",
        "alt_name:lij": "Burgaja",
        "alt_name:mzn": "\u0628\u0644\u063a\u0627\u0631\u0633\u062a\u0627\u0646",
        "alt_name:nan": "P\u00f3-ka-l\u012b-\u00e1",
        "alt_name:rmy": "Dasikanipe",
        "alt_name:rw": "Buligariya",
        "alt_name:ta": "\u0baa\u0bb2\u0bcd\u0b95\u0bbe\u0bb0\u0bbf\u0baf\u0bbe",
        "alt_name:tk": "Bolgarystan",
        "boundary": "administrative",
        "default_language": "bg",
        "flag": "https://upload.wikimedia.org/wikipedia/commons/9/9a/Flag_of_Bulgaria.svg",
        "int_name": "Bulgaria",
        "name": "\u0411\u044a\u043b\u0433\u0430\u0440\u0438\u044f",
        "name:ab": "\u0411\u043e\u043b\u0433\u0430\u0301\u0440\u0438\u0430",
        "name:ace": "Bulgaria",
        "name:ady": "\u0411\u0443\u043b\u0433\u0430\u0440\u0438\u0435",
        "name:af": "Bulgarye",
        "name:ak": "Bulgaria",
        "name:als": "Bulgarie",
        "name:am": "\u1261\u120d\u130b\u122a\u12eb",
        "name:an": "Bulgaria",
        "name:ang": "Pulgaraland",
        "name:ar": "\u0628\u0644\u063a\u0627\u0631\u064a\u0627",
        "name:arc": "\u0712\u0718\u0720\u0713\u0710\u072a\u071d\u0710",
        "name:arz": "\u0628\u0644\u062c\u0627\u0631\u064a\u0627",
        "name:ast": "Bulgaria",
        "name:av": "\u0411\u043e\u043b\u0433\u0430\u0301\u0440\u0438\u044f",
        "name:ay": "Bulkariya",
        "name:az": "Bolqar\u0131stan",
        "name:azb": "\u0628\u0648\u0644\u063a\u0627\u0631\u06cc\u0633\u062a\u0627\u0646",
        "name:ba": "\u0411\u043e\u043b\u0433\u0430\u0301\u0440\u0438\u044f",
        "name:bar": "Buigarien",
        "name:bat-smg": "Bulgar\u0117j\u0117",
        "name:bcl": "Bulgarya",
        "name:be": "\u0411\u0430\u043b\u0433\u0430\u0440\u044b\u044f",
        "name:be-tarask": "\u0411\u0430\u045e\u0433\u0430\u0440\u044b\u044f",
        "name:bg": "\u0411\u044a\u043b\u0433\u0430\u0440\u0438\u044f",
        "name:bh": "\u092c\u0941\u0932\u094d\u0917\u093e\u0930\u093f\u092f\u093e",
        "name:bi": "Bulgaria",
        "name:bn": "\u09ac\u09c1\u09b2\u0997\u09c7\u09b0\u09bf\u09af\u09bc\u09be",
        "name:bo": "\u0f54\u0f74\u0f0b\u0f62\u0f0b\u0f42\u0f0b\u0f62\u0f72\u0f0b\u0f61\u0f0d",
        "name:bpy": "\u09ac\u09c1\u09b2\u0997\u09c7\u09b0\u09bf\u09af\u09bc\u09be",
        "name:br": "Bulgaria",
        "name:bs": "Bugarska",
        "name:bxr": "\u0411\u043e\u043b\u0433\u0430\u0440\u0438",
        "name:ca": "Bulg\u00e0ria",
        "name:cbk-zam": "Bulgaria",
        "name:cdo": "B\u014d\u0324-g\u0103-l\u00ea-\u0101",
        "name:ce": "\u0411\u043e\u043b\u0433\u0430\u0301\u0440\u0438",
        "name:ceb": "Bulgaria",
        "name:ch": "Bulgaria",
        "name:chr": "\u13ca\u13b5\u13a8\u13b5\u13a0",
        "name:ckb": "\u0628\u0648\u0644\u06af\u0627\u0631\u06cc\u0627",
        "name:cnr": "Bugarska",
        "name:co": "Bulgaria",
        "name:crh": "Bul\u011faristan",
        "name:cs": "Bulharsko",
        "name:csb": "B\u00f9lgarsk\u00f4",
        "name:cu": "\u0411\u043b\u044a\u0433\u0430\u0440\u0457\ua657",
        "name:cv": "\u041f\u0103\u043b\u0445\u0430\u0440\u0115",
        "name:cy": "Bwlgaria",
        "name:da": "Bulgarien",
        "name:de": "Bulgarien",
        "name:diq": "Bul\u011far\u0131stan",
        "name:dsb": "Bulgarska",
        "name:dty": "\u092c\u0941\u0932\u094d\u0917\u0947\u0930\u093f\u092f\u093e",
        "name:dv": "\u0784\u07a6\u078d\u07b0\u078e\u07ad\u0783\u07a8\u0787\u07a7",
        "name:ee": "Bulgaria",
        "name:el": "\u0392\u03bf\u03c5\u03bb\u03b3\u03b1\u03c1\u03af\u03b1",
        "name:eml": "Bulgar\u00ee",
        "name:en": "Bulgaria",
        "name:eo": "Bulgario",
        "name:es": "Bulgaria",
        "name:et": "Bulgaaria",
        "name:eu": "Bulgaria",
        "name:ext": "Bulg\u00e1ria",
        "name:fa": "\u0628\u0644\u063a\u0627\u0631\u0633\u062a\u0627\u0646",
        "name:ff": "Bulgariya",
        "name:fi": "Bulgaria",
        "name:fo": "Bulgaria",
        "name:fr": "Bulgarie",
        "name:frp": "Bulgarie",
        "name:frr": "Bulgarien",
        "name:fur": "Bulgarie",
        "name:fy": "Bulgarije",
        "name:ga": "an Bhulg\u00e1ir",
        "name:gag": "Bulgariya",
        "name:gd": "Bulg\u00e0iria",
        "name:gl": "Bulgaria",
        "name:gn": "Vugaria",
        "name:gom": "\u092c\u0932\u094d\u0917\u0947\u0930\u093f\u092f\u093e",
        "name:got": "\ud800\udf31\ud800\udf3f\ud800\udf3b\ud800\udf32\ud800\udf30\ud800\udf42\ud800\udf39\ud800\udf30",
        "name:gu": "\u0aac\u0ab2\u0acd\u0a97\u0ac7\u0ab0\u0abf\u0aaf\u0abe",
        "name:gv": "yn Vulgeyr",
        "name:ha": "Bulgairiya",
        "name:hak": "P\u00f3-k\u00e2-li-\u00e2",
        "name:haw": "Pulukalia",
        "name:he": "\u05d1\u05bc\u05d5\u05bc\u05dc\u05b0\u05d2\u05b7\u05e8\u05b0\u05d9\u05b8\u05d4",
        "name:hi": "\u092c\u0941\u0932\u094d\u0917\u093e\u0930\u093f\u092f\u093e",
        "name:hif": "Bulgaria",
        "name:hr": "Bugarska",
        "name:hsb": "Bo\u0142harska",
        "name:ht": "Bilgari",
        "name:hu": "Bulg\u00e1ria",
        "name:hy": "\u0532\u0578\u0582\u056c\u0572\u0561\u0580\u056b\u0561",
        "name:ia": "Bulgaria",
        "name:id": "Bulgaria",
        "name:ie": "Bulgaria",
        "name:ig": "Bulgaria",
        "name:ilo": "Bulgaria",
        "name:io": "Bulgaria",
        "name:is": "B\u00falgar\u00eda",
        "name:it": "Bulgaria",
        "name:ja": "\u30d6\u30eb\u30ac\u30ea\u30a2",
        "name:jam": "Bulgieria",
        "name:jbo": "bylgAri,as",
        "name:jv": "Bulgaria",
        "name:ka": "\u10d1\u10e3\u10da\u10d2\u10d0\u10e0\u10d4\u10d7\u10d8",
        "name:kaa": "Bolgariya",
        "name:kab": "Bulgarya",
        "name:kbd": "\u0411\u043e\u043b\u0433\u0430\u0440\u0438\u044d",
        "name:kbp": "Puligari",
        "name:kg": "Balgaria",
        "name:kk": "\u0411\u043e\u043b\u0433\u0430\u0440\u0438\u044f",
        "name:kl": "Bulgaria",
        "name:kn": "\u0cac\u0cb2\u0ccd\u0c97\u0cc7\u0cb0\u0cbf\u0caf",
        "name:ko": "\ubd88\uac00\ub9ac\uc544",
        "name:koi": "\u0411\u04e7\u043b\u0433\u0430\u0440\u0438\u044f",
        "name:krc": "\u0411\u043e\u043b\u0433\u0430\u0440\u0438\u044f",
        "name:ksh": "Bulgarije",
        "name:ku": "Bulgaristan",
        "name:kv": "\u0411\u043e\u043b\u0433\u0430\u0440\u0438\u044f",
        "name:kw": "Bulgari",
        "name:ky": "\u0411\u043e\u043b\u0433\u0430\u0440\u0438\u044f",
        "name:la": "Bulgaria",
        "name:lad": "Bulgaria",
        "name:lb": "Bulgarien",
        "name:lbe": "\u0411\u043e\u043b\u0433\u0430\u0440\u0438\u0430",
        "name:lez": "\u0411\u043e\u043b\u0433\u0430\u0440\u0438\u044f",
        "name:li": "B\u00f6lgarije",
        "name:lij": "Burgaja",
        "name:lmo": "B\u00fclgaria",
        "name:ln": "Bulgaria",
        "name:lo": "\u0e9b\u0eb0\u0ec0\u0e97\u0e94\u0e9a\u0eb9\u0e99\u0e81\u0eb2\u0ea5\u0eb5",
        "name:lrc": "\u0628\u0648\u0644\u063a\u0627\u0631\u0626\u0633\u062a\u0627\u0646",
        "name:lt": "Bulgarija",
        "name:ltg": "Bulgareja",
        "name:lv": "Bulg\u0101rija",
        "name:lzh": "\u4fdd\u52a0\u5229\u4e9e",
        "name:mai": "\u092c\u0941\u0932\u094d\u0917\u0947\u0930\u093f\u092f\u093e",
        "name:mdf": "\u0411\u043e\u043b\u0433\u0430\u0440\u0438\u0435",
        "name:mg": "Biolgaria",
        "name:mhr": "\u0411\u043e\u043b\u0433\u0430\u0440\u0438\u0439",
        "name:mi": "Puruk\u0101ria",
        "name:mk": "\u0411\u0443\u0433\u0430\u0440\u0438\u0458\u0430",
        "name:ml": "\u0d2c\u0d7e\u0d17\u0d47\u0d31\u0d3f\u0d2f",
        "name:mn": "\u0411\u043e\u043b\u0433\u0430\u0440",
        "name:mr": "\u092c\u0932\u094d\u0917\u0947\u0930\u093f\u092f\u093e",
        "name:mrj": "\u0411\u043e\u043b\u0433\u0430\u0440\u0438",
        "name:ms": "Bulgaria",
        "name:mt": "Bulgarija",
        "name:mwl": "Bulg\u00e1ria",
        "name:my": "\u1018\u1030\u101c\u103a\u1002\u1031\u1038\u101b\u102e\u1038\u101a\u102c\u1038\u1014\u102d\u102f\u1004\u103a\u1004\u1036",
        "name:myv": "\u0411\u043e\u043b\u0433\u0430\u0440\u0438\u044f \u041c\u0430\u0441\u0442\u043e\u0440",
        "name:mzn": "\u0628\u0644\u063a\u0627\u0631\u0633\u062a\u0648\u0646",
        "name:na": "Borgeriya",
        "name:nah": "Bulgaria",
        "name:nan": "Pu\u030dt-g\u00e2-l\u012b",
        "name:nap": "Bulgaria",
        "name:nds": "Bulgarien",
        "name:nds-nl": "Bulgarije",
        "name:ne": "\u092c\u0941\u0932\u094d\u0917\u0947\u0930\u093f\u092f\u093e",
        "name:new": "\u092c\u0941\u0932\u094d\u0917\u0947\u0930\u093f\u092f\u093e",
        "name:nl": "Bulgarije",
        "name:nn": "Bulgaria",
        "name:no": "Bulgaria",
        "name:nov": "Bulgaria",
        "name:nrm": "Bulgarie",
        "name:nv": "B\u00e1lgaa Bik\u00e9yah",
        "name:oc": "Bulgaria",
        "name:olo": "Bolguarii",
        "name:om": "Bulgeeriyaa",
        "name:or": "\u0b2c\u0b41\u0b32\u0b17\u0b3e\u0b30\u0b3f\u0b06",
        "name:os": "\u0411\u043e\u043b\u0433\u0430\u0440\u0438",
        "name:pa": "\u0a2c\u0a41\u0a32\u0a17\u0a3e\u0a30\u0a40\u0a06",
        "name:pag": "Bulgariya",
        "name:pam": "Bulgaria",
        "name:pap": "Bulgaria",
        "name:pcd": "Bulgarie",
        "name:pdc": "Bulgarien",
        "name:pfl": "Bulgarije",
        "name:pi": "\u092c\u0941\u0932\u094d\u0917\u093e\u0930\u093f\u092f\u093e",
        "name:pih": "Bulgeriya",
        "name:pl": "Bu\u0142garia",
        "name:pms": "Bulgar\u00eca",
        "name:pnb": "\u0628\u0644\u063a\u0627\u0631\u06cc\u06c1",
        "name:pnt": "\u0392\u03bf\u03c5\u03bb\u03b3\u03b1\u03c1\u03af\u03b1",
        "name:ps": "\u0628\u0644\u063a\u0627\u0631\u06cc\u0627",
        "name:pt": "Bulg\u00e1ria",
        "name:qu": "Bulgarya",
        "name:rm": "Bulgaria",
        "name:rmy": "Bulgariya",
        "name:rn": "Bulgaria",
        "name:ro": "Bulgaria",
        "name:roa-rup": "Vurgaria",
        "name:roa-tara": "Bulgarie",
        "name:ru": "\u0411\u043e\u043b\u0433\u0430\u0440\u0438\u044f",
        "name:rue": "\u0411\u0443\u043b\u0433\u0430\u0440\u0456\u044f",
        "name:rw": "Bulugariya",
        "name:sa": "\u092c\u0941\u0932\u094d\u0917\u093e\u0930\u093f\u092f\u093e",
        "name:sah": "\u0411\u043e\u043b\u0433\u0430\u0440\u0438\u044f",
        "name:sc": "Bulgaria",
        "name:scn": "Bulgar\u00eca",
        "name:sco": "Bulgarie",
        "name:sd": "\u0628\u0644\u063a\u0627\u0631\u064a\u0647",
        "name:se": "Bulg\u00e1ria",
        "name:sg": "Bulugar\u00efi",
        "name:sh": "Bugarska",
        "name:si": "\u0db6\u0dbd\u0dca\u0d9c\u0dda\u0dbb\u0dd2\u0dba\u0dcf\u0dc0",
        "name:sk": "Bulharsko",
        "name:sl": "Bolgarija",
        "name:sm": "Bultalia",
        "name:smn": "Bulgaria",
        "name:sms": "Bulgaria",
        "name:sn": "Bulgaria",
        "name:so": "Bulgaria",
        "name:sq": "Bullgaria",
        "name:sr": "\u0411\u0443\u0433\u0430\u0440\u0441\u043a\u0430",
        "name:sr-Latn": "Bugarska",
        "name:srn": "Bulgarikondre",
        "name:ss": "iBhulgariya",
        "name:stq": "Bulgarien",
        "name:su": "Bulgaria",
        "name:sv": "Bulgarien",
        "name:sw": "Bulgaria",
        "name:szl": "Bulgaryj\u014f",
        "name:ta": "\u0baa\u0bb2\u0bcd\u0b95\u0bc7\u0bb0\u0bbf\u0baf\u0bbe",
        "name:te": "\u0c2c\u0c32\u0c4d\u0c17\u0c47\u0c30\u0c3f\u0c2f\u0c3e",
        "name:tet": "Bulg\u00e1ria",
        "name:tg": "\u0411\u0443\u043b\u0493\u043e\u0440\u0438\u0441\u0442\u043e\u043d",
        "name:th": "\u0e1b\u0e23\u0e30\u0e40\u0e17\u0e28\u0e1a\u0e31\u0e25\u0e41\u0e01\u0e40\u0e23\u0e35\u0e22",
        "name:tk": "Bolgari\u00fda",
        "name:tl": "Bulgarya",
        "name:tok": "ma Pokasi",
        "name:tpi": "Balgeria",
        "name:tr": "Bulgaristan",
        "name:ts": "Bulgaria",
        "name:tt": "\u0411\u043e\u043b\u0433\u0430\u0440\u0438\u044f",
        "name:tum": "Bulgaria",
        "name:tw": "Bulgaria",
        "name:tzl": "B\u00fclgaria",
        "name:udm": "\u0411\u043e\u043b\u0433\u0430\u0301\u0440\u0438\u044f",
        "name:ug": "\u0628\u06c7\u0644\u063a\u0627\u0631\u0649\u064a\u06d5",
        "name:uk": "\u0411\u043e\u043b\u0433\u0430\u0301\u0440\u0456\u044f",
        "name:ur": "\u0628\u0644\u063a\u0627\u0631\u06cc\u06c1",
        "name:uz": "Bolgariya",
        "name:vec": "Bulgaria",
        "name:vep": "Bolgarii",
        "name:vi": "Bulgaria",
        "name:vls": "Bulgareye",
        "name:vo": "Bulgar\u00e4n",
        "name:vro": "Bulgaaria",
        "name:wa": "Bulg\u00e5reye",
        "name:war": "Bulgarya",
        "name:wo": "Bulgaari",
        "name:wuu": "\u4fdd\u52a0\u5229\u4e9a",
        "name:xal": "\u0411\u043e\u043b\u0433\u0430\u0440\u043c\u0443\u0434\u0438\u043d",
        "name:xmf": "\u10d1\u10e3\u10da\u10d2\u10d0\u10e0\u10d4\u10d7\u10d8",
        "name:yi": "\u05d1\u05d5\u05dc\u05d2\u05d0\u05b7\u05e8\u05d9\u05e2",
        "name:yo": "B\u00f9lg\u00e1r\u00ed\u00e0",
        "name:yue": "\u4fdd\u52a0\u5229\u4e9e",
        "name:zea": "Bulharije",
        "name:zh": "\u4fdd\u52a0\u5229\u4e9a",
        "name:zh-Hans": "\u4fdd\u52a0\u5229\u4e9a",
        "name:zh-Hant": "\u4fdd\u52a0\u5229\u4e9e",
        "name:zu": "IBulgariya",
        "official_name": "\u0420\u0435\u043f\u0443\u0300\u0431\u043b\u0438\u043a\u0430 \u0411\u044a\u043b\u0433\u0430\u0300\u0440\u0438\u044f",
        "official_name:ady": "\u0420\u0435\u0441\u043f\u0443\u0431\u043b\u0438\u043a\u044d\u0443 \u0411\u0443\u043b\u0433\u0430\u0440\u0438\u0435",
        "official_name:af": "Republiek van Bulgarye",
        "official_name:als": "Republik Bulgarie",
        "official_name:am": "\u12e8\u1261\u120d\u130b\u122a\u12eb \u122a\u1350\u1265\u120a\u12a8",
        "official_name:an": "Republica de Bulgaria",
        "official_name:ar": "\u062c\u0645\u0647\u0648\u0631\u064a\u0629 \u0628\u0644\u063a\u0627\u0631\u064a\u0627",
        "official_name:arc": "\u0729\u0718\u071b\u0722\u071d\u0718\u072c\u0710 \u0715\u0712\u0718\u0720\u0713\u0710\u072a\u071d\u0710",
        "official_name:arz": "\u062c\u0645\u0647\u0648\u0631\u064a\u0629 \u0628\u0644\u062c\u0627\u0631\u064a\u0627",
        "official_name:ast": "Rep\u00fablica de Bulgaria",
        "official_name:av": "\u0411\u043e\u043b\u0433\u0430\u0301\u0440\u0438\u044f \u0416\u0443\u043c\u0433\u044c\u0443\u0440\u0438\u044f\u0442",
        "official_name:ay": "Ripublika Bulkariya",
        "official_name:az": "Bolqar\u0131stan Respublikas\u0131",
        "official_name:azb": "\u0628\u0648\u0644\u063a\u0627\u0631\u06cc\u0633\u062a\u0627\u0646 \u062c\u0648\u0645\u0647\u0648\u0631\u06cc\u062a\u06cc",
        "official_name:ba": "\u0411\u043e\u043b\u0433\u0430\u0301\u0440\u0438\u044f \u0420\u0435\u0441\u043f\u0443\u0301\u0431\u043b\u0438\u043a\u0430\u04bb\u044b",
        "official_name:bar": "Republik Buigarien",
        "official_name:bat-smg": "Bulgar\u0117j\u0117s Respobl\u0117ka",
        "official_name:be": "\u0420\u044d\u0441\u043f\u0443\u0431\u043b\u0456\u043a\u0430 \u0411\u0430\u043b\u0433\u0430\u0440\u044b\u044f",
        "official_name:be-tarask": "\u0420\u044d\u0441\u043f\u0443\u0301\u0431\u043b\u0456\u043a\u0430 \u0411\u0430\u045e\u0433\u0430\u0301\u0440\u044b\u044f",
        "official_name:bg": "\u0420\u0435\u043f\u0443\u0300\u0431\u043b\u0438\u043a\u0430 \u0411\u044a\u043b\u0433\u0430\u0300\u0440\u0438\u044f",
        "official_name:bn": "\u09ac\u09c1\u09b2\u0997\u09c7\u09b0\u09bf\u09af\u09bc\u09be \u09aa\u09cd\u09b0\u099c\u09be\u09a4\u09a8\u09cd\u09a4\u09cd\u09b0",
        "official_name:bpy": "\u09aa\u09cd\u09b0\u099c\u09be\u09a4\u09a8\u09cd\u09a4\u09cd\u09b0\u09bf \u09ac\u09c1\u09b2\u0997\u09c7\u09b0\u09bf\u09af\u09bc\u09be",
        "official_name:br": "Republik Bulgaria",
        "official_name:bs": "Republika Bugarska",
        "official_name:bxr": "\u0411\u04af\u0433\u044d\u0434\u044d \u041d\u0430\u0439\u0440\u0430\u043c\u0434\u0430\u0445\u0430 \u0411\u043e\u043b\u0433\u0430\u0440\u0438 \u0423\u043b\u0430\u0441",
        "official_name:ca": "Rep\u00fablica de Bulg\u00e0ria",
        "official_name:ce": "\u0420\u0435\u0441\u043f\u0443\u0301\u0431\u043b\u0438\u043a\u0430 \u0411\u043e\u043b\u0433\u0430\u0301\u0440\u0438",
        "official_name:chr": "\u13cd\u13a6\u13da\u13a9 \u13be\u13bf \u13ca\u13b5\u13a8\u13b5\u13a0",
        "official_name:ckb": "\u06a9\u06c6\u0645\u0627\u0631\u06cc \u0628\u0648\u0644\u06af\u0627\u0631\u06cc\u0627",
        "official_name:cnr": "Republika Bugarska",
        "official_name:co": "Republica di Bulgaria",
        "official_name:crh": "Bul\u011faristan Cumhuriyeti",
        "official_name:cs": "Bulharsk\u00e1 republika",
        "official_name:cu": "\u0411\u043b\u044a\u0433\u0430\u0440\u0456\u0301\ua657 \u0414\u0438\u043c\u043e\u043a\u0440\u0430\u0442\u0456\u0301\ua657",
        "official_name:cv": "\u0422\u0103\u043d\u0430\u0439\u00e7\u0438 \u041f\u0103\u043b\u0445\u0430\u0440\u0115",
        "official_name:cy": "Gweriniaeth Bwlgaria",
        "official_name:da": "Republikken Bulgarien",
        "official_name:de": "Republik Bulgarien",
        "official_name:diq": "Cumhuriyet Bul\u011far\u0131stan",
        "official_name:dsb": "Republika Bulgarska",
        "official_name:el": "\u0394\u03b7\u03bc\u03bf\u03ba\u03c1\u03b1\u03c4\u03af\u03b1 \u03c4\u03b7\u03c2 \u0392\u03bf\u03c5\u03bb\u03b3\u03b1\u03c1\u03af\u03b1\u03c2",
        "official_name:en": "Republic of Bulgaria",
        "official_name:eo": "Respubliko Bulgario",
        "official_name:es": "Rep\u00fablica de Bulgaria",
        "official_name:et": "Bulgaaria Vabariik",
        "official_name:eu": "Bulgaria",
        "official_name:fa": "\u062c\u0645\u0647\u0648\u0631\u06cc \u0628\u0644\u063a\u0627\u0631\u0633\u062a\u0627\u0646",
        "official_name:fi": "Bulgarian tasavalta",
        "official_name:fo": "L\u00fd\u00f0veldi\u00f0 Bulgaria",
        "official_name:fr": "R\u00e9publique de Bulgarie",
        "official_name:frr": "Republiik Bulgarien",
        "official_name:fy": "Republyk Bulgarije",
        "official_name:ga": "Poblacht na Bulg\u00e1ire",
        "official_name:gag": "Bulgariya Respublikas\u0131",
        "official_name:gl": "Rep\u00fablica de Bulgaria",
        "official_name:gu": "\u0aac\u0ab2\u0acd\u0a97\u0ac7\u0ab0\u0abf\u0aaf\u0abe \u0a97\u0aa3\u0ab0\u0abe\u0a9c\u0acd\u0aaf",
        "official_name:gv": "Pobblaght ny Bulgeyr",
        "official_name:he": "\u05d4\u05b8\u05e8\u05b6\u05e4\u05bc\u05d5\u05bc\u05d1\u05b0\u05bc\u05dc\u05b4\u05d9\u05e7\u05b8\u05d4 \u05d4\u05b7\u05d1\u05bc\u05d5\u05bc\u05dc\u05b0\u05d2\u05b8\u05e8\u05b4\u05d9\u05ea",
        "official_name:hi": "\u092c\u0941\u0932\u094d\u0917\u093e\u0930\u093f\u092f\u093e \u0917\u0923\u0924\u0902\u0924\u094d\u0930",
        "official_name:hif": "Republic of Bulgaria",
        "official_name:hr": "Republika Bugarska",
        "official_name:hsb": "Republika Bo\u0142harska",
        "official_name:hu": "Bolg\u00e1r K\u00f6zt\u00e1rsas\u00e1g",
        "official_name:hy": "\u0532\u0578\u0582\u056c\u0572\u0561\u0580\u056b\u0561\u0575\u056b \u0540\u0561\u0576\u0580\u0561\u057a\u0565\u057f\u0578\u0582\u0569\u0575\u0578\u0582\u0576",
        "official_name:ia": "Republica de Bulgaria",
        "official_name:id": "Republika Bulgaria",
        "official_name:ilo": "Republika ti Bulgaria",
        "official_name:is": "L\u00fd\u00f0veldi\u00f0 B\u00falgar\u00eda",
        "official_name:it": "Repubblica di Bulgaria",
        "official_name:ja": "\u30d6\u30eb\u30ac\u30ea\u30a2\u5171\u548c\u56fd",
        "official_name:jam": "Ripoblik a Bulgieria",
        "official_name:ka": "\u10d1\u10e3\u10da\u10d2\u10d0\u10e0\u10d4\u10d7\u10d8\u10e1 \u10e0\u10d4\u10e1\u10de\u10e3\u10d1\u10da\u10d8\u10d9\u10d0",
        "official_name:kk": "\u0411\u043e\u043b\u0433\u0430\u0440\u0438\u044f \u0420\u0435\u0441\u043f\u0443\u0431\u043b\u0438\u043a\u0430\u0441\u044b",
        "official_name:kl": "Kunngiitsuuffik Bulgaria",
        "official_name:kn": "\u0cac\u0cb2\u0ccd\u0c97\u0cc7\u0cb0\u0cbf\u0caf \u0c97\u0ca3\u0cb0\u0cbe\u0c9c\u0ccd\u0caf",
        "official_name:ko": "\ubd88\uac00\ub9ac\uc544 \uacf5\ud654\uad6d",
        "official_name:koi": "\u0420\u0435\u0441\u043f\u0443\u0431\u043b\u0438\u043a\u0430 \u0411\u04e7\u043b\u0433\u0430\u0440\u0438\u044f",
        "official_name:krc": "\u0411\u043e\u043b\u0433\u0430\u0440\u0438\u044f \u0420\u0435\u0441\u043f\u0443\u0431\u043b\u0438\u043a\u0430",
        "official_name:ku": "Komara Bulgaristan\u00ea",
        "official_name:kv": "\u0411\u043e\u043b\u0433\u0430\u0440\u0438\u044f \u0420\u0435\u0441\u043f\u0443\u0431\u043b\u0438\u043a\u0430",
        "official_name:kw": "Repoblek Bulgari",
        "official_name:ky": "\u0411\u043e\u043b\u0433\u0430\u0440 \u0420\u0435\u0441\u043f\u0443\u0431\u043b\u0438\u043a\u0430\u0441\u044b",
        "official_name:lad": "Republika Bulgaria",
        "official_name:lb": "Republik Bulgarien",
        "official_name:lez": "\u0420\u0435\u0441\u043f\u0443\u0431\u043b\u0438\u043a\u0430 \u0411\u043e\u043b\u0433\u0430\u0440\u0438\u044f",
        "official_name:lij": "Repubbrica Bulgara",
        "official_name:lmo": "Republega Bulgara",
        "official_name:ln": "Republ\u00edki ya Bulgaria",
        "official_name:lt": "Bulgarijos respublika",
        "official_name:lv": "Bulg\u0101rijas Republika",
        "official_name:lzh": "\u4fdd\u52a0\u5229\u4e9e\u5171\u548c\u570b",
        "official_name:mai": "\u092c\u0941\u0932\u094d\u0917\u093e\u0930\u093f\u092f\u093e \u0917\u0923\u0924\u0902\u0924\u094d\u0930",
        "official_name:mi": "T\u016bwehe Puruk\u0101ria",
        "official_name:mk": "\u0420\u0435\u043f\u0443\u0431\u043b\u0438\u043a\u0430 \u0411\u0443\u0433\u0430\u0440\u0438\u0458\u0430",
        "official_name:ml": "\u0d31\u0d3f\u0d2a\u0d4d\u0d2a\u0d2c\u0d4d\u0d32\u0d3f\u0d15\u0d4d\u0d15\u0d4d \u0d13\u0d2b\u0d4d \u0d2c\u0d7e\u0d17\u0d47\u0d31\u0d3f\u0d2f",
        "official_name:mn": "\u0411\u04af\u0433\u0434 \u041d\u0430\u0439\u0440\u0430\u043c\u0434\u0430\u0445 \u0411\u043e\u043b\u0433\u0430\u0440 \u0423\u043b\u0441",
        "official_name:mr": "\u092c\u0932\u094d\u0917\u0947\u0930\u093f\u092f\u093e\u091a\u0947 \u092a\u094d\u0930\u091c\u093e\u0938\u0924\u094d\u0924\u093e\u0915",
        "official_name:mrj": "\u0411\u043e\u043b\u0433\u0430\u0440\u0438 \u0420\u0435\u0441\u043f\u0443\u0431\u043b\u0438\u043a\u0430",
        "official_name:ms": "Republik Bulgaria",
        "official_name:mt": "Repubblika tal-Bulgarija",
        "official_name:my": "\u1018\u1030\u101c\u103a\u1002\u1031\u1038\u101b\u102e\u1038\u101a\u102c\u1038 \u1015\u103c\u100a\u103a\u101e\u1030\u1037\u101e\u1019\u1039\u1019\u1010\u1014\u102d\u102f\u1004\u103a\u1004\u1036\u1010\u1031\u102c\u103a",
        "official_name:myv": "\u0411\u043e\u043b\u0433\u0430\u0440\u0438\u044f \u0420\u0435\u0441\u043f\u0443\u0301\u0431\u043b\u0438\u043a\u0430\u0441\u044c",
        "official_name:nah": "Tl\u0101catlahtohc\u0101y\u014dtl Bulgaria",
        "official_name:nan": "Bulgaria Ki\u014dng-h\u00f4-kok",
        "official_name:nds": "Republiek Bulgarien",
        "official_name:nds-nl": "Rippebliek Bulgarije",
        "official_name:ne": "\u0917\u0923\u0924\u0928\u094d\u0924\u094d\u0930 \u092c\u0941\u0932\u094d\u0917\u0947\u0930\u093f\u092f\u093e",
        "official_name:new": "\u092c\u0941\u0932\u094d\u0917\u0947\u0930\u093f\u092f\u093e \u0917\u0923\u0924\u0928\u094d\u0924\u094d\u0930",
        "official_name:nl": "Republiek Bulgarije",
        "official_name:nn": "Republikken Bulgaria",
        "official_name:no": "Republikken Bulgaria",
        "official_name:oc": "Republica bulgara",
        "official_name:om": "Rippabliikii Bulgeeriyaa",
        "official_name:os": "\u0420\u0435\u0441\u043f\u0443\u0431\u043b\u0438\u043a\u00e6 \u0411\u043e\u043b\u0433\u0430\u0440\u0438",
        "official_name:pam": "Republika ning Bulgaria",
        "official_name:pl": "Republika Bu\u0142garii",
        "official_name:pnt": "\u0394\u03b7\u03bc\u03bf\u03ba\u03c1\u03b1\u03c4\u03af\u03b1\u03bd \u03c4\u03b7 \u0392\u03bf\u03c5\u03bb\u03b3\u03b1\u03c1\u03af\u03b1\u03c2",
        "official_name:ps": "\u062f \u0628\u0644\u063a\u0627\u0631\u064a\u0627 \u0648\u0644\u0633\u0645\u0634\u0631\u064a\u0632\u0647",
        "official_name:pt": "Rep\u00fablica da Bulg\u00e1ria",
        "official_name:qu": "Bulgarya Ripuwlika",
        "official_name:rmy": "Republika Bulgariya",
        "official_name:ro": "Republica Bulgaria",
        "official_name:roa-rup": "Republica Vurgaria",
        "official_name:roa-tara": "Repubblica di Bulgaria",
        "official_name:ru": "\u0420\u0435\u0441\u043f\u0443\u0431\u043b\u0438\u043a\u0430 \u0411\u043e\u043b\u0433\u0430\u0440\u0438\u044f",
        "official_name:sah": "\u0411\u043e\u043b\u0433\u0430\u0440\u0438\u044f \u0420\u0435\u0441\u043f\u0443\u0431\u043b\u0438\u043a\u0430\u0442\u0430",
        "official_name:sc": "Republica de Bulgaria",
        "official_name:sco": "Republic o Bulgarie",
        "official_name:se": "Bulg\u00e1ria d\u00e1ssev\u00e1ldi",
        "official_name:sh": "Republika Bugarska",
        "official_name:sk": "Bulharsk\u00e1 republika",
        "official_name:sl": "Republika Bolgarija",
        "official_name:sm": "Lepulika o Bultalia",
        "official_name:so": "Jamhuuriyadda Bulgaria",
        "official_name:sq": "Republika e Bullgaris\u00eb",
        "official_name:sr": "\u0420\u0435\u043f\u0443\u0431\u043b\u0438\u043a\u0430 \u0411\u0443\u0433\u0430\u0440\u0441\u043a\u0430",
        "official_name:srn": "Repoliku fu Bulgari",
        "official_name:stq": "Republik Bulgarien",
        "official_name:su": "Republik Bulgaria",
        "official_name:sv": "Republiken Bulgarien",
        "official_name:sw": "Jamhuri ya Bulgaria",
        "official_name:szl": "Republika Bulgaryje",
        "official_name:ta": "\u0baa\u0bb2\u0bcd\u0b95\u0bc7\u0bb0\u0bbf\u0baf\u0b95\u0bcd \u0b95\u0bc1\u0b9f\u0bbf\u0baf\u0bb0\u0b9a\u0bc1",
        "official_name:te": "\u0c17\u0c23\u0c24\u0c02\u0c24\u0c4d\u0c30 \u0c2c\u0c32\u0c4d\u0c17\u0c47\u0c30\u0c3f\u0c2f\u0c3e",
        "official_name:tet": "Rep\u00fablika Bulg\u00e1ria",
        "official_name:th": "\u0e2a\u0e32\u0e18\u0e32\u0e23\u0e13\u0e23\u0e31\u0e10\u0e1a\u0e31\u0e25\u0e41\u0e01\u0e40\u0e23\u0e35\u0e22",
        "official_name:tk": "Bolgari\u00fda Respublikasy",
        "official_name:tl": "Republika ng Bulgarya",
        "official_name:tr": "Bulgaristan Cumhuriyeti",
        "official_name:tt": "\u0411\u043e\u043b\u0433\u0430\u0440\u0438\u044f \u0496\u04e9\u043c\u04bb\u04af\u0440\u0438\u044f\u0442\u0435",
        "official_name:udm": "\u0420\u0435\u0441\u043f\u0443\u0301\u0431\u043b\u0438\u043a\u0430 \u0411\u043e\u043b\u0433\u0430\u0301\u0440\u0438\u044f",
        "official_name:ug": "\u0628\u0648\u0644\u063a\u0627\u0631\u0649\u064a\u06d5 \u062c\u06c7\u0645\u06be\u06c7\u0631\u0649\u064a\u0649\u062a\u0649",
        "official_name:uk": "\u0420\u0435\u0441\u043f\u0443\u0301\u0431\u043b\u0456\u043a\u0430 \u0411\u043e\u043b\u0433\u0430\u0301\u0440\u0456\u044f",
        "official_name:ur": "\u062c\u0645\u06c1\u0648\u0631\u06cc\u06c1 \u0628\u0644\u063a\u0627\u0631\u06cc\u06c1",
        "official_name:uz": "Bolgariya Respublikasi",
        "official_name:vec": "Rep\u00f9blica de Bulgar\u00eca",
        "official_name:vep": "Bolgarijan Tazovaldkund",
        "official_name:vi": "C\u1ed9ng h\u00f2a Bulgaria",
        "official_name:vls": "Republiek Bulgareye",
        "official_name:vro": "Bulgaaria Vabariik",
        "official_name:wa": "Republike di Bulg\u00e5reye",
        "official_name:wo": "Republik bu Bulgaari",
        "official_name:wuu": "\u4fdd\u52a0\u5229\u4e9a\u5171\u548c\u56fd",
        "official_name:xal": "\u0411\u043e\u043b\u0433\u0430\u0440\u043c\u0443\u0434\u0438\u043d \u041e\u0440\u043d",
        "official_name:xmf": "\u10d1\u10e3\u10da\u10d2\u10d0\u10e0\u10d4\u10d7\u10d8\u10e8 \u10e0\u10d4\u10e1\u10de\u10e3\u10d1\u10da\u10d8\u10d9\u10d0",
        "official_name:yi": "\u05e8\u05e2\u05e4\u05d5\u05d1\u05dc\u05d9\u05e7 \u05e4\u05bf\u05d5\u05df \u05d1\u05d5\u05dc\u05d2\u05d0\u05b7\u05e8\u05d9\u05e2",
        "official_name:yo": "Orile-ede Olominira ile Bulgaria",
        "official_name:yue": "\u4fdd\u52a0\u5229\u4e9e\u5171\u548c\u570b",
        "official_name:zh": "\u4fdd\u52a0\u5229\u4e9a\u5171\u548c\u56fd",
        "official_name:zh-Hans": "\u4fdd\u52a0\u5229\u4e9a\u5171\u548c\u56fd",
        "official_name:zh-Hant": "\u4fdd\u52a0\u5229\u4e9e\u5171\u548c\u570b",
        "official_name:zu": "IRiphabliki weBulgariya",
        "old_name:ca": "Rep\u00fablica Popular de Bulg\u00e0ria",
        "timezone": "Europe/Sofia",
        "type": "boundary",
        "wikidata": "Q219",
        "wikipedia": "bg:\u0411\u044a\u043b\u0433\u0430\u0440\u0438\u044f"
      }
    },
    {
      "type": "relation",
      "id": 1300657,
      "tags": {
        "ISO3166-2": "BG-24",
        "admin_level": "4",
        "boundary": "administrative",
        "ekatte": "SZR",
        "name": "\u0421\u0442\u0430\u0440\u0430 \u0417\u0430\u0433\u043e\u0440\u0430",
        "name:bg": "\u0421\u0442\u0430\u0440\u0430 \u0417\u0430\u0433\u043e\u0440\u0430",
        "name:de": "Oblast Stara Sagora",
        "name:en": "Stara Zagora",
        "name:fr": "Oblast de Stara Zagora",
        "name:prefix": "\u041e\u0431\u043b\u0430\u0441\u0442",
        "name:prefix:bg": "\u041e\u0431\u043b\u0430\u0441\u0442",
        "name:ro": "Regiunea Stara Zagora",
        "name:ru": "\u0421\u0442\u0430\u0440\u043e\u0437\u0430\u0433\u043e\u0440\u0441\u043a\u0430\u044f \u043e\u0431\u043b\u0430\u0441\u0442\u044c",
        "name:sk": "oblas\u0165 Star\u00e1 Zagora",
        "name:suffix:en": "Region",
        "name:tr": "Eski Za\u011fra (il)",
        "name:zh": "\u65e7\u624e\u6208\u62c9\u5dde",
        "ref:nuts": "BG344",
        "ref:nuts:3": "BG344",
        "type": "boundary",
        "wikidata": "Q2012583",
        "wikipedia": "en:Stara Zagora Province"
      }
    },
    {
      "type": "relation",
      "id": 1437135,
      "tags": {
        "ISO3166-2": "BG-03",
        "admin_level": "4",
        "boundary": "administrative",
        "ekatte": "VAR",
        "name": "\u0412\u0430\u0440\u043d\u0430",
        "name:bg": "\u0412\u0430\u0440\u043d\u0430",
        "name:de": "Oblast Warna",
        "name:en": "Varna",
        "name:fr": "Oblast de Varna",
        "name:hu": "V\u00e1rna megye",
        "name:prefix": "\u041e\u0431\u043b\u0430\u0441\u0442",
        "name:prefix:bg": "\u041e\u0431\u043b\u0430\u0441\u0442",
        "name:ro": "Regiunea Varna",
        "name:ru": "\u0412\u0430\u0440\u043d\u0435\u043d\u0441\u043a\u0430\u044f \u043e\u0431\u043b\u0430\u0441\u0442\u044c",
        "name:suffix:en": "Region",
        "name:tr": "Varna (il)",
        "name:zh": "\u74e6\u5c14\u7eb3\u5dde",
        "ref:nuts": "BG331",
        "ref:nuts:3": "BG331",
        "type": "boundary",
        "website": "http://www.vn.government.bg/",
        "wikidata": "Q183487",
        "wikipedia": "bg:\u0412\u0430\u0440\u043d\u0430 (\u043e\u0431\u043b\u0430\u0441\u0442)"
      }
    },
    {
      "type": "relation",
      "id": 1739521,
      "tags": {
        "ISO3166-2": "BG-01",
        "admin_level": "4",
        "alt_name:mk": "\u041f\u0438\u0440\u0438\u043d\u0441\u043a\u0430 \u041c\u0430\u043a\u0435\u0434\u043e\u043d\u0438\u0458\u0430",
        "boundary": "administrative",
        "ekatte": "BLG",
        "name": "\u0411\u043b\u0430\u0433\u043e\u0435\u0432\u0433\u0440\u0430\u0434",
        "name:bg": "\u0411\u043b\u0430\u0433\u043e\u0435\u0432\u0433\u0440\u0430\u0434",
        "name:de": "Oblast Blagoewgrad",
        "name:el": "\u039c\u03c0\u03bb\u03b1\u03b3\u03ba\u03cc\u03b5\u03b2\u03b3\u03ba\u03c1\u03b1\u03bd\u03c4",
        "name:en": "Blagoevgrad",
        "name:fr": "Oblast de Blagoevgrad",
        "name:hu": "Blagoevgrad megye",
        "name:mk": "\u0411\u043b\u0430\u0433\u043e\u0435\u0432\u0433\u0440\u0430\u0434\u0441\u043a\u0430 \u041e\u0431\u043b\u0430\u0441\u0442",
        "name:prefix": "\u041e\u0431\u043b\u0430\u0441\u0442",
        "name:prefix:bg": "\u041e\u0431\u043b\u0430\u0441\u0442",
        "name:ro": "Regiunea Blagoevgrad",
        "name:ru": "\u0411\u043b\u0430\u0433\u043e\u0435\u0432\u0433\u0440\u0430\u0434\u0441\u043a\u0430\u044f \u043e\u0431\u043b\u0430\u0441\u0442\u044c",
        "name:suffix:en": "Region",
        "name:tr": "Blagoevgrad (il)",
        "name:zh": "\u5e03\u62c9\u683c\u8036\u592b\u683c\u52d2\u5dde",
        "ref:nuts": "BG413",
        "ref:nuts:3": "BG413",
        "type": "boundary",
        "wikidata": "Q804311",
        "wikipedia": "bg:\u0411\u043b\u0430\u0433\u043e\u0435\u0432\u0433\u0440\u0430\u0434 (\u043e\u0431\u043b\u0430\u0441\u0442)"
      }
    },
    {
      "type": "relation",
      "id": 1739523,
      "tags": {
        "ISO3166-2": "BG-02",
        "admin_level": "4",
        "boundary": "administrative",
        "ekatte": "BGS",
        "name": "\u0411\u0443\u0440\u0433\u0430\u0441",
        "name:ar": "\u0645\u0642\u0627\u0637\u0639\u0629 \u0628\u0648\u0631\u063a\u0627\u0633",
        "name:be": "\u0411\u0443\u0440\u0433\u0430\u0441\u043a\u0430\u044f \u0432\u043e\u0431\u043b\u0430\u0441\u0446\u044c",
        "name:be-tarask": "\u0411\u0443\u0440\u0433\u0430\u0441\u043a\u0430\u044f \u0432\u043e\u0431\u043b\u0430\u0441\u044c\u0446\u044c",
        "name:bg": "\u0411\u0443\u0440\u0433\u0430\u0441",
        "name:ca": "Prov\u00edncia de Burg\u00e0s",
        "name:ceb": "Burgas (rehiyon)",
        "name:cs": "Burgask\u00e1 oblast",
        "name:da": "Burgas (provins)",
        "name:de": "Oblast Burgas",
        "name:el": "\u0395\u03c0\u03b1\u03c1\u03c7\u03af\u03b1 \u039c\u03c0\u03bf\u03c5\u03c1\u03b3\u03ba\u03ac\u03c2",
        "name:en": "Burgas",
        "name:eo": "Provinco Burgas",
        "name:es": "Provincia de Burgas",
        "name:et": "Burgasi piirkond",
        "name:eu": "Burgas probintzia",
        "name:fa": "\u0627\u0633\u062a\u0627\u0646 \u0628\u0648\u0631\u06af\u0627\u0633",
        "name:fi": "Burgasin alue",
        "name:fr": "Oblast de Bourgas",
        "name:he": "\u05d1\u05d5\u05e8\u05d2\u05e1 (\u05de\u05d7\u05d5\u05d6)",
        "name:hr": "Oblast Burgas",
        "name:hu": "Burgasz megye",
        "name:hy": "\u0532\u0578\u0582\u0580\u0563\u0561\u057d\u056b \u0574\u0561\u0580\u0566",
        "name:id": "Provinsi Burgas",
        "name:it": "Distretto di Burgas",
        "name:ja": "\u30d6\u30eb\u30ac\u30b9\u5dde",
        "name:ka": "\u10d1\u10e3\u10e0\u10d2\u10d0\u10e1\u10d8\u10e1 \u10dd\u10da\u10e5\u10d8",
        "name:ko": "\ubd80\ub974\uac00\uc2a4 \uc8fc",
        "name:la": "Pyrgos (provincia)",
        "name:lt": "Burgaso sritis",
        "name:mk": "\u0411\u0443\u0440\u0433\u0430\u0441\u043a\u0430 \u043e\u0431\u043b\u0430\u0441\u0442",
        "name:mn": "\u0411\u0443\u0440\u0433\u0430\u0441 \u0430\u0439\u043c\u0430\u0433",
        "name:nan": "Burgas Chiu",
        "name:nl": "Boergas",
        "name:no": "Burgas oblast",
        "name:oc": "Borgas (region)",
        "name:os": "\u0411\u0443\u0440\u0433\u0430\u0441\u044b \u043e\u0431\u043b\u00e6\u0441\u0442",
        "name:pl": "Obw\u00f3d Burgas",
        "name:pnb": "\u0635\u0648\u0628\u06c1 \u0628\u0631\u06af\u0627\u0633",
        "name:prefix": "\u041e\u0431\u043b\u0430\u0441\u0442",
        "name:prefix:bg": "\u041e\u0431\u043b\u0430\u0441\u0442",
        "name:pt": "Burgas (prov\u00edncia)",
        "name:ro": "Regiunea Burgas",
        "name:ru": "\u0411\u0443\u0440\u0433\u0430\u0441\u0441\u043a\u0430\u044f \u043e\u0431\u043b\u0430\u0441\u0442\u044c",
        "name:sco": "Burgas",
        "name:sh": "Burgaska oblast",
        "name:sk": "Burgas (oblas\u0165)",
        "name:sl": "Burgas (okraj)",
        "name:sq": "Provinca Burgas",
        "name:sr": "\u0411\u0443\u0440\u0433\u0430\u0441\u043a\u0430 \u043e\u0431\u043b\u0430\u0441\u0442",
        "name:suffix:en": "Region",
        "name:sv": "Burgas (region)",
        "name:tg": "\u0412\u0438\u043b\u043e\u044f\u0442\u0438 \u0411\u0443\u0440\u0433\u0430\u0441",
        "name:tr": "Burgaz (il)",
        "name:uk": "\u0411\u0443\u0440\u0433\u0430\u0441\u044c\u043a\u0430 \u043e\u0431\u043b\u0430\u0441\u0442\u044c",
        "name:ur": "\u0628\u0648\u0631\u06af\u0627\u0633 \u0635\u0648\u0628\u06c1",
        "name:uz": "Burgas",
        "name:vi": "Burgas (t\u1ec9nh)",
        "name:war": "Burgas (lalawigan)",
        "name:zh": "\u5e03\u5c14\u52a0\u65af\u5dde",
        "ref:nuts": "BG341",
        "ref:nuts:3": "BG341",
        "type": "boundary",
        "wikidata": "Q369220",
        "wikipedia": "en:Burgas Province"
      }
    },
    {
      "type": "relation",
      "id": 1739524,
      "tags": {
        "ISO3166-2": "BG-04",
        "admin_level": "4",
        "boundary": "administrative",
        "ekatte": "VTR",
        "name": "\u0412\u0435\u043b\u0438\u043a\u043e \u0422\u044a\u0440\u043d\u043e\u0432\u043e",
        "name:bg": "\u0412\u0435\u043b\u0438\u043a\u043e \u0422\u044a\u0440\u043d\u043e\u0432\u043e",
        "name:de": "Oblast Weliko Tarnowo",
        "name:en": "Veliko Tarnovo",
        "name:fr": "Oblast de Veliko Tarnovo",
        "name:prefix": "\u041e\u0431\u043b\u0430\u0441\u0442",
        "name:prefix:bg": "\u041e\u0431\u043b\u0430\u0441\u0442",
        "name:ro": "Regiunea T\u00e2rnava Mare",
        "name:ru": "\u0412\u0435\u043b\u0438\u043a\u043e\u0442\u044b\u0440\u043d\u043e\u0432\u0441\u043a\u0430\u044f \u043e\u0431\u043b\u0430\u0441\u0442\u044c",
        "name:suffix:en": "Region",
        "name:tr": "Veliko T\u0131rnovo (il)",
        "name:zh": "\u5927\u7279\u5c14\u8bfa\u6c83\u5dde",
        "ref:nuts": "BG321",
        "ref:nuts:3": "BG321",
        "type": "boundary",
        "wikidata": "Q2012621",
        "wikipedia": "en:Veliko Tarnovo Province"
      }
    },
    {
      "type": "relation",
      "id": 1739525,
      "tags": {
        "ISO3166-2": "BG-05",
        "admin_level": "4",
        "boundary": "administrative",
        "ekatte": "VID",
        "name": "\u0412\u0438\u0434\u0438\u043d",
        "name:bg": "\u0412\u0438\u0434\u0438\u043d",
        "name:de": "Oblast Widin",
        "name:en": "Vidin",
        "name:fr": "Oblast de Vidin",
        "name:hu": "Vidin megye",
        "name:pl": "Widy\u0144",
        "name:prefix": "\u041e\u0431\u043b\u0430\u0441\u0442",
        "name:prefix:bg": "\u041e\u0431\u043b\u0430\u0441\u0442",
        "name:ro": "Regiunea Vidin",
        "name:ru": "\u0412\u0438\u0434\u0438\u043d\u0441\u043a\u0430\u044f \u043e\u0431\u043b\u0430\u0441\u0442\u044c",
        "name:sr": "\u0412\u0438\u0434\u0438\u043d\u0441\u043a\u0430 \u043e\u0431\u043b\u0430\u0441\u0442",
        "name:sr-Latn": "Vidinska oblast",
        "name:suffix:en": "Region",
        "name:tr": "Vidin (il)",
        "ref:nuts": "BG311",
        "ref:nuts:3": "BG311",
        "type": "boundary",
        "wikidata": "Q2012772",
        "wikipedia": "en:Vidin Province"
      }
    },
    {
      "type": "relation",
      "id": 1739526,
      "tags": {
        "ISO3166-2": "BG-06",
        "admin_level": "4",
        "boundary": "administrative",
        "ekatte": "VRC",
        "name": "\u0412\u0440\u0430\u0446\u0430",
        "name:bg": "\u0412\u0440\u0430\u0446\u0430",
        "name:de": "Oblast Wraza",
        "name:en": "Vratsa",
        "name:fr": "Oblast de Vratsa",
        "name:prefix": "\u041e\u0431\u043b\u0430\u0441\u0442",
        "name:prefix:bg": "\u041e\u0431\u043b\u0430\u0441\u0442",
        "name:ro": "Regiunea Vra\u021ba",
        "name:ru": "\u0412\u0440\u0430\u0447\u0430\u043d\u0441\u043a\u0430\u044f \u043e\u0431\u043b\u0430\u0441\u0442\u044c",
        "name:suffix:en": "Region",
        "name:tr": "Vratsa (il)",
        "name:zh": "\u5f17\u62c9\u5bdf\u5dde",
        "ref:nuts": "BG313",
        "ref:nuts:3": "BG313",
        "type": "boundary",
        "wikidata": "Q2012785",
        "wikipedia": "en:Vratsa Province"
      }
    },
    {
      "type": "relation",
      "id": 1739527,
      "tags": {
        "ISO3166-2": "BG-07",
        "admin_level": "4",
        "boundary": "administrative",
        "ekatte": "GAB",
        "name": "\u0413\u0430\u0431\u0440\u043e\u0432\u043e",
        "name:bg": "\u0413\u0430\u0431\u0440\u043e\u0432\u043e",
        "name:de": "Oblast Gabrowo",
        "name:en": "Gabrovo",
        "name:fr": "Oblast de Gabrovo",
        "name:prefix": "\u041e\u0431\u043b\u0430\u0441\u0442",
        "name:prefix:bg": "\u041e\u0431\u043b\u0430\u0441\u0442",
        "name:ro": "Regiunea Gabrovo",
        "name:ru": "\u0413\u0430\u0431\u0440\u043e\u0432\u0441\u043a\u0430\u044f \u043e\u0431\u043b\u0430\u0441\u0442\u044c",
        "name:suffix:en": "Region",
        "name:tr": "Gabrovo (il)",
        "name:zh": "\u52a0\u5e03\u7f57\u6c83\u5dde",
        "ref:nuts": "BG322",
        "ref:nuts:3": "BG322",
        "type": "boundary",
        "wikidata": "Q1007272",
        "wikipedia": "en:Gabrovo Province"
      }
    },
    {
      "type": "relation",
      "id": 1739528,
      "tags": {
        "ISO3166-2": "BG-08",
        "admin_level": "4",
        "boundary": "administrative",
        "ekatte": "DOB",
        "name": "\u0414\u043e\u0431\u0440\u0438\u0447",
        "name:bg": "\u0414\u043e\u0431\u0440\u0438\u0447",
        "name:de": "Oblast Dobritsch",
        "name:en": "Dobrich",
        "name:fr": "Oblast de Dobritch",
        "name:hu": "Dobrics megye",
        "name:prefix": "\u041e\u0431\u043b\u0430\u0441\u0442",
        "name:prefix:bg": "\u041e\u0431\u043b\u0430\u0441\u0442",
        "name:ro": "Regiunea Dobrici",
        "name:ru": "\u0414\u043e\u0431\u0440\u0438\u0447\u0441\u043a\u0430\u044f \u043e\u0431\u043b\u0430\u0441\u0442\u044c",
        "name:suffix:en": "Region",
        "name:tr": "Dobri\u00e7 (il)",
        "name:zh": "\u591a\u5e03\u91cc\u5947\u5dde",
        "ref:nuts": "BG332",
        "ref:nuts:3": "BG332",
        "type": "boundary",
        "wikidata": "Q907395",
        "wikipedia": "en:Dobrich Province"
      }
    },
    {
      "type": "relation",
      "id": 1739529,
      "tags": {
        "ISO3166-2": "BG-09",
        "admin_level": "4",
        "boundary": "administrative",
        "ekatte": "KRZ",
        "name": "\u041a\u044a\u0440\u0434\u0436\u0430\u043b\u0438",
        "name:bg": "\u041a\u044a\u0440\u0434\u0436\u0430\u043b\u0438",
        "name:de": "Oblast Kardschali",
        "name:el": "\u039a\u03ac\u03c1\u03c4\u03b6\u03b1\u03bb\u03b9",
        "name:en": "Kardzhali",
        "name:fr": "Oblast de Kardjali",
        "name:lt": "Kerd\u017eal\u0173 sritis",
        "name:mk": "\u041a\u0440\u045f\u0430\u043b\u0438\u0441\u043a\u0430 \u043e\u0431\u043b\u0430\u0441\u0442",
        "name:prefix": "\u041e\u0431\u043b\u0430\u0441\u0442",
        "name:prefix:bg": "\u041e\u0431\u043b\u0430\u0441\u0442",
        "name:ro": "Regiunea C\u00e2rgeali",
        "name:ru": "\u041a\u044b\u0440\u0434\u0436\u0430\u043b\u0438\u0439\u0441\u043a\u0430\u044f \u043e\u0431\u043b\u0430\u0441\u0442\u044c",
        "name:suffix:en": "Region",
        "name:tr": "K\u0131rcaali (il)",
        "name:zh": "\u514b\u5c14\u8d3e\u5229\u5dde",
        "ref:nuts": "BG425",
        "ref:nuts:3": "BG425",
        "type": "boundary",
        "wikidata": "Q1104675",
        "wikipedia": "en:Kardzhali Province"
      }
    },
    {
      "type": "relation",
      "id": 1739530,
      "tags": {
        "ISO3166-2": "BG-10",
        "admin_level": "4",
        "boundary": "administrative",
        "ekatte": "KNL",
        "name": "\u041a\u044e\u0441\u0442\u0435\u043d\u0434\u0438\u043b",
        "name:bg": "\u041a\u044e\u0441\u0442\u0435\u043d\u0434\u0438\u043b",
        "name:de": "Oblast Kjustendil",
        "name:el": "\u039a\u03b9\u03bf\u03c5\u03c3\u03c4\u03b5\u03bd\u03c4\u03af\u03bb",
        "name:en": "Kyustendil",
        "name:fr": "Oblast de Kyoustendil",
        "name:hu": "Kjusztendil megye",
        "name:prefix": "\u041e\u0431\u043b\u0430\u0441\u0442",
        "name:prefix:bg": "\u041e\u0431\u043b\u0430\u0441\u0442",
        "name:ro": "Regiunea Chiustendil",
        "name:ru": "\u041a\u044e\u0441\u0442\u0435\u043d\u0434\u0438\u043b\u0441\u043a\u0430\u044f \u043e\u0431\u043b\u0430\u0441\u0442\u044c",
        "name:sr": "\u040b\u0443\u0441\u0442\u0435\u043d\u0434\u0438\u043b\u0441\u043a\u0430 \u043e\u0431\u043b\u0430\u0441\u0442",
        "name:sr-Latn": "\u0106ustendilska oblast",
        "name:suffix:en": "Region",
        "name:tr": "K\u00f6stendil (il)",
        "name:zh-Hans": "\u4e18\u65af\u6ed5\u8fea\u5c14\u5dde",
        "name:zh-Hant": "\u4e18\u65af\u6ed5\u8fea\u723e\u5dde",
        "ref:nuts": "BG415",
        "ref:nuts:3": "BG415",
        "type": "boundary",
        "wikidata": "Q1112985",
        "wikipedia": "en:Kyustendil Province"
      }
    },
    {
      "type": "relation",
      "id": 1739531,
      "tags": {
        "ISO3166-2": "BG-11",
        "admin_level": "4",
        "boundary": "administrative",
        "ekatte": "LOV",
        "name": "\u041b\u043e\u0432\u0435\u0447",
        "name:bg": "\u041b\u043e\u0432\u0435\u0447",
        "name:de": "Oblast Lowetsch",
        "name:en": "Lovech",
        "name:fr": "Oblast de Lovetch",
        "name:prefix": "\u041e\u0431\u043b\u0430\u0441\u0442",
        "name:prefix:bg": "\u041e\u0431\u043b\u0430\u0441\u0442",
        "name:ro": "Regiunea Loveci",
        "name:ru": "\u041b\u043e\u0432\u0435\u0447\u0441\u043a\u0430\u044f \u043e\u0431\u043b\u0430\u0441\u0442\u044c",
        "name:suffix:en": "Region",
        "name:tr": "Love\u00e7 (il)",
        "name:zh": "\u6d1b\u7ef4\u5947\u5dde",
        "ref:nuts": "BG315",
        "ref:nuts:3": "BG315",
        "type": "boundary",
        "wikidata": "Q6587068",
        "wikipedia": "en:Lovech Province"
      }
    },
    {
      "type": "relation",
      "id": 1739532,
      "tags": {
        "ISO3166-2": "BG-12",
        "admin_level": "4",
        "boundary": "administrative",
        "ekatte": "MON",
        "name": "\u041c\u043e\u043d\u0442\u0430\u043d\u0430",
        "name:bg": "\u041c\u043e\u043d\u0442\u0430\u043d\u0430",
        "name:de": "Oblast Montana",
        "name:en": "Montana",
        "name:fr": "Oblast de Montana",
        "name:prefix": "\u041e\u0431\u043b\u0430\u0441\u0442",
        "name:prefix:bg": "\u041e\u0431\u043b\u0430\u0441\u0442",
        "name:ro": "Regiunea Montana",
        "name:ru": "\u041c\u043e\u043d\u0442\u0430\u043d\u0441\u043a\u0430\u044f \u043e\u0431\u043b\u0430\u0441\u0442\u044c",
        "name:sr": "\u041c\u043e\u043d\u0442\u0430\u043d\u0441\u043a\u0430 \u043e\u0431\u043b\u0430\u0441\u0442",
        "name:sr-Latn": "Montanska oblast",
        "name:suffix:en": "Region",
        "name:tr": "Montana (il)",
        "name:zh": "\u8499\u5854\u7eb3\u5dde",
        "ref:nuts": "BG312",
        "ref:nuts:3": "BG312",
        "type": "boundary",
        "wikidata": "Q2012057",
        "wikipedia": "en:Montana Province"
      }
    },
    {
      "type": "relation",
      "id": 1739533,
      "tags": {
        "ISO3166-2": "BG-13",
        "admin_level": "4",
        "boundary": "administrative",
        "ekatte": "PAZ",
        "name": "\u041f\u0430\u0437\u0430\u0440\u0434\u0436\u0438\u043a",
        "name:bg": "\u041f\u0430\u0437\u0430\u0440\u0434\u0436\u0438\u043a",
        "name:de": "Oblast Pasardschik",
        "name:en": "Pazardzhik",
        "name:fr": "Oblast de Pazardjik",
        "name:hu": "Pazardzsik megye",
        "name:prefix": "\u041e\u0431\u043b\u0430\u0441\u0442",
        "name:prefix:bg": "\u041e\u0431\u043b\u0430\u0441\u0442",
        "name:ro": "Regiunea Pazargic",
        "name:ru": "\u041f\u0430\u0437\u0430\u0440\u0434\u0436\u0438\u043a\u0441\u043a\u0430\u044f \u043e\u0431\u043b\u0430\u0441\u0442\u044c",
        "name:suffix:en": "Region",
        "name:tr": "Pazarc\u0131k (il)",
        "name:zh": "\u5e15\u624e\u5c14\u5409\u514b\u5dde",
        "ref:nuts": "BG423",
        "ref:nuts:3": "BG423",
        "type": "boundary",
        "wikidata": "Q2012227",
        "wikipedia": "de:Oblast Pasardschik"
      }
    },
    {
      "type": "relation",
      "id": 1739534,
      "tags": {
        "ISO3166-2": "BG-14",
        "admin_level": "4",
        "boundary": "administrative",
        "ekatte": "PER",
        "name": "\u041f\u0435\u0440\u043d\u0438\u043a",
        "name:bg": "\u041f\u0435\u0440\u043d\u0438\u043a",
        "name:de": "Oblast Pernik",
        "name:en": "Pernik",
        "name:fr": "Oblast de Pernik",
        "name:prefix": "\u041e\u0431\u043b\u0430\u0441\u0442",
        "name:prefix:bg": "\u041e\u0431\u043b\u0430\u0441\u0442",
        "name:ro": "Regiunea Pernic",
        "name:ru": "\u041f\u0435\u0440\u043d\u0438\u043a\u0441\u043a\u0430\u044f \u043e\u0431\u043b\u0430\u0441\u0442\u044c",
        "name:sr": "\u041f\u0435\u0440\u043d\u0438\u0447\u043a\u0430 \u043e\u0431\u043b\u0430\u0441\u0442",
        "name:sr-Latn": "Perni\u010dka oblast",
        "name:suffix:en": "Region",
        "name:tr": "Pernik (il)",
        "name:zh": "\u4f69\u5c14\u5c3c\u514b\u5dde",
        "ref:nuts": "BG414",
        "ref:nuts:3": "BG414",
        "type": "boundary",
        "wikidata": "Q2012234",
        "wikipedia": "en:Pernik Province"
      }
    },
    {
      "type": "relation",
      "id": 1739535,
      "tags": {
        "ISO3166-2": "BG-15",
        "admin_level": "4",
        "boundary": "administrative",
        "ekatte": "PVN",
        "name": "\u041f\u043b\u0435\u0432\u0435\u043d",
        "name:bg": "\u041f\u043b\u0435\u0432\u0435\u043d",
        "name:de": "Oblast Plewen",
        "name:en": "Pleven",
        "name:fr": "Oblast de Pleven",
        "name:hu": "Pleven megye",
        "name:prefix": "\u041e\u0431\u043b\u0430\u0441\u0442",
        "name:prefix:bg": "\u041e\u0431\u043b\u0430\u0441\u0442",
        "name:ro": "Regiunea Plevna",
        "name:ru": "\u041f\u043b\u0435\u0432\u0435\u043d\u0441\u043a\u0430\u044f \u043e\u0431\u043b\u0430\u0441\u0442\u044c",
        "name:suffix:en": "Region",
        "name:tr": "Plevne (il)",
        "name:zh": "\u666e\u5217\u6587\u5dde",
        "ref:nuts": "BG314",
        "ref:nuts:3": "BG314",
        "type": "boundary",
        "wikidata": "Q2012242",
        "wikipedia": "en:Pleven Province"
      }
    },
    {
      "type": "relation",
      "id": 1739536,
      "tags": {
        "ISO3166-2": "BG-16",
        "admin_level": "4",
        "boundary": "administrative",
        "ekatte": "PDV",
        "name": "\u041f\u043b\u043e\u0432\u0434\u0438\u0432",
        "name:bg": "\u041f\u043b\u043e\u0432\u0434\u0438\u0432",
        "name:de": "Oblast Plowdiw",
        "name:en": "Plovdiv",
        "name:fr": "Oblast de Plovdiv",
        "name:prefix": "\u041e\u0431\u043b\u0430\u0441\u0442",
        "name:prefix:bg": "\u041e\u0431\u043b\u0430\u0441\u0442",
        "name:ro": "Regiunea Plovdiv",
        "name:ru": "\u041f\u043b\u043e\u0432\u0434\u0438\u0432\u0441\u043a\u0430\u044f \u043e\u0431\u043b\u0430\u0441\u0442\u044c",
        "name:suffix:en": "Region",
        "name:tr": "Filibe (il)",
        "name:zh": "\u666e\u7f57\u592b\u8fea\u592b\u5dde",
        "ref:nuts": "BG421",
        "ref:nuts:3": "BG421",
        "type": "boundary",
        "wikidata": "Q187874",
        "wikipedia": "en:Plovdiv Province"
      }
    },
    {
      "type": "relation",
      "id": 1739537,
      "tags": {
        "ISO3166-2": "BG-17",
        "admin_level": "4",
        "boundary": "administrative",
        "ekatte": "RAZ",
        "name": "\u0420\u0430\u0437\u0433\u0440\u0430\u0434",
        "name:bg": "\u0420\u0430\u0437\u0433\u0440\u0430\u0434",
        "name:de": "Oblast Rasgrad",
        "name:en": "Razgrad",
        "name:fr": "Oblast de Razgrad",
        "name:prefix": "\u041e\u0431\u043b\u0430\u0441\u0442",
        "name:prefix:bg": "\u041e\u0431\u043b\u0430\u0441\u0442",
        "name:ro": "Regiunea Razgrad",
        "name:ru": "\u0420\u0430\u0437\u0433\u0440\u0430\u0434\u0441\u043a\u0430\u044f \u043e\u0431\u043b\u0430\u0441\u0442\u044c",
        "name:suffix:en": "Region",
        "name:tr": "Razgrad (il)",
        "name:zh": "\u62c9\u5179\u683c\u52d2\u5dde",
        "ref:nuts": "BG324",
        "ref:nuts:3": "BG324",
        "type": "boundary",
        "wikidata": "Q2790675",
        "wikipedia": "en:Razgrad Province"
      }
    },
    {
      "type": "relation",
      "id": 1739538,
      "tags": {
        "ISO3166-2": "BG-18",
        "admin_level": "4",
        "boundary": "administrative",
        "ekatte": "RSE",
        "name": "\u0420\u0443\u0441\u0435",
        "name:bg": "\u0420\u0443\u0441\u0435",
        "name:de": "Oblast Russe",
        "name:en": "Ruse",
        "name:fr": "Oblast de Rouss\u00e9",
        "name:hu": "Rusze megye",
        "name:prefix": "\u041e\u0431\u043b\u0430\u0441\u0442",
        "name:prefix:bg": "\u041e\u0431\u043b\u0430\u0441\u0442",
        "name:ro": "Regiunea Ruse",
        "name:ru": "\u0420\u0443\u0441\u0435\u043d\u0441\u043a\u0430\u044f \u043e\u0431\u043b\u0430\u0441\u0442\u044c",
        "name:suffix:en": "Region",
        "name:tr": "Rus\u00e7uk (il)",
        "name:zh": "\u9c81\u585e\u5dde",
        "ref:nuts": "BG323",
        "ref:nuts:3": "BG323",
        "type": "boundary",
        "wikidata": "Q1251933",
        "wikipedia": "en:Ruse Province"
      }
    },
    {
      "type": "relation",
      "id": 1739539,
      "tags": {
        "ISO3166-2": "BG-19",
        "admin_level": "4",
        "boundary": "administrative",
        "ekatte": "SLS",
        "name": "\u0421\u0438\u043b\u0438\u0441\u0442\u0440\u0430",
        "name:bg": "\u0421\u0438\u043b\u0438\u0441\u0442\u0440\u0430",
        "name:de": "Oblast Silistra",
        "name:en": "Silistra",
        "name:fr": "Oblast de Silistra",
        "name:lt": "Silistros sritis",
        "name:prefix": "\u041e\u0431\u043b\u0430\u0441\u0442",
        "name:prefix:bg": "\u041e\u0431\u043b\u0430\u0441\u0442",
        "name:ro": "Regiunea Silistra",
        "name:ru": "\u0421\u0438\u043b\u0438\u0441\u0442\u0440\u0435\u043d\u0441\u043a\u0430\u044f \u043e\u0431\u043b\u0430\u0441\u0442\u044c",
        "name:suffix:en": "Region",
        "name:tr": "Silistire (il)",
        "name:zh": "\u9521\u5229\u65af\u7279\u62c9\u5dde",
        "ref:nuts": "BG325",
        "ref:nuts:3": "BG325",
        "type": "boundary",
        "wikidata": "Q2012423",
        "wikipedia": "en:Silistra Province"
      }
    },
    {
      "type": "relation",
      "id": 1739540,
      "tags": {
        "ISO3166-2": "BG-20",
        "admin_level": "4",
        "boundary": "administrative",
        "ekatte": "SLV",
        "name": "\u0421\u043b\u0438\u0432\u0435\u043d",
        "name:bg": "\u0421\u043b\u0438\u0432\u0435\u043d",
        "name:de": "Oblast Sliwen",
        "name:en": "Sliven",
        "name:fr": "Oblast de Sliven",
        "name:prefix": "\u041e\u0431\u043b\u0430\u0441\u0442",
        "name:prefix:bg": "\u041e\u0431\u043b\u0430\u0441\u0442",
        "name:ro": "Regiunea Sliven",
        "name:ru": "\u0421\u043b\u0438\u0432\u0435\u043d\u0441\u043a\u0430\u044f \u043e\u0431\u043b\u0430\u0441\u0442\u044c",
        "name:suffix:en": "Region",
        "name:tr": "Sliven (il)",
        "ref:nuts": "BG342",
        "ref:nuts:3": "BG342",
        "type": "boundary",
        "wikidata": "Q113120",
        "wikipedia": "en:Sliven Province"
      }
    },
    {
      "type": "relation",
      "id": 1739541,
      "tags": {
        "ISO3166-2": "BG-21",
        "admin_level": "4",
        "boundary": "administrative",
        "ekatte": "SML",
        "name": "\u0421\u043c\u043e\u043b\u044f\u043d",
        "name:bg": "\u0421\u043c\u043e\u043b\u044f\u043d",
        "name:de": "Oblast Smoljan",
        "name:el": "\u03a3\u03bc\u03cc\u03bb\u03b9\u03b1\u03bd",
        "name:en": "Smolyan",
        "name:fr": "Oblast de Smolyan",
        "name:prefix": "\u041e\u0431\u043b\u0430\u0441\u0442",
        "name:prefix:bg": "\u041e\u0431\u043b\u0430\u0441\u0442",
        "name:prefix:el": "\u0395\u03c0\u03b1\u03c1\u03c7\u03af\u03b1",
        "name:ro": "Regiunea Smolian",
        "name:ru": "\u0421\u043c\u043e\u043b\u044f\u043d\u0441\u043a\u0430\u044f \u043e\u0431\u043b\u0430\u0441\u0442\u044c",
        "name:suffix:en": "Region",
        "name:tr": "Smolyan (il)",
        "name:zh": "\u65af\u83ab\u6881\u5dde",
        "ref:nuts": "BG424",
        "ref:nuts:3": "BG424",
        "type": "boundary",
        "wikidata": "Q2012430",
        "wikipedia": "en:Smolyan Province"
      }
    },
    {
      "type": "relation",
      "id": 1739542,
      "tags": {
        "ISO3166-2": "BG-23",
        "admin_level": "4",
        "boundary": "administrative",
        "ekatte": "SFO",
        "name": "\u0421\u043e\u0444\u0438\u0439\u0441\u043a\u0430",
        "name:bg": "\u0421\u043e\u0444\u0438\u0439\u0441\u043a\u0430",
        "name:de": "Oblast Sofia",
        "name:en": "Sofia",
        "name:fr": "Oblast de Sofia",
        "name:hu": "Sz\u00f3fia megye",
        "name:ro": "Regiunea Sofia",
        "name:ru": "\u0421\u043e\u0444\u0438\u0439\u0441\u043a\u0430\u044f \u043e\u0431\u043b\u0430\u0441\u0442\u044c",
        "name:sk": "Sofia",
        "name:sr": "\u0421\u043e\u0444\u0438\u0458\u0441\u043a\u0430 \u043e\u0431\u043b\u0430\u0441\u0442",
        "name:sr-Latn": "Sofijska oblast",
        "name:suffix": "\u043e\u0431\u043b\u0430\u0441\u0442",
        "name:suffix:bg": "\u043e\u0431\u043b\u0430\u0441\u0442",
        "name:suffix:en": "Region",
        "name:tr": "Sofya (il)",
        "name:uk": "\u0421\u043e\u0444\u0456\u0439\u0441\u044c\u043a\u0430 \u043e\u0431\u043b\u0430\u0441\u0442\u044c",
        "name:zh": "\u7d22\u83f2\u4e9a\u5dde",
        "ref:nuts": "BG412",
        "ref:nuts:3": "BG412",
        "type": "boundary",
        "wikidata": "Q202904",
        "wikipedia": "bg:\u0421\u043e\u0444\u0438\u0439\u0441\u043a\u0430 (\u043e\u0431\u043b\u0430\u0441\u0442)"
      }
    },
    {
      "type": "relation",
      "id": 1739543,
      "tags": {
        "ISO3166-2": "BG-22",
        "admin_level": "4",
        "boundary": "administrative",
        "ekatte": "SOF",
        "name": "\u0421\u043e\u0444\u0438\u044f-\u0433\u0440\u0430\u0434",
        "name:bg": "\u0421\u043e\u0444\u0438\u044f-\u0433\u0440\u0430\u0434",
        "name:de": "Oblast Sofia-Stadt",
        "name:en": "Sofia-City",
        "name:fr": "Oblast de Sofia-ville",
        "name:hu": "Sz\u00f3fia f\u0151v\u00e1ros",
        "name:prefix": "\u041e\u0431\u043b\u0430\u0441\u0442",
        "name:prefix:bg": "\u041e\u0431\u043b\u0430\u0441\u0442",
        "name:ro": "Sofia",
        "name:ru": "\u0421\u043e\u0444\u0438\u044f",
        "name:sk": "Sofia",
        "name:suffix:en": "Region",
        "name:tr": "Sofya \u015fehri (il)",
        "name:zh": "\u7d22\u83f2\u4e9a\u5e02\u5dde",
        "ref:nuts": "BG411",
        "ref:nuts:3": "BG411",
        "type": "boundary",
        "wikidata": "Q1585725",
        "wikipedia": "en:Sofia City Province"
      }
    },
    {
      "type": "relation",
      "id": 1739544,
      "tags": {
        "ISO3166-2": "BG-25",
        "admin_level": "4",
        "boundary": "administrative",
        "ekatte": "TGV",
        "name": "\u0422\u044a\u0440\u0433\u043e\u0432\u0438\u0449\u0435",
        "name:bg": "\u0422\u044a\u0440\u0433\u043e\u0432\u0438\u0449\u0435",
        "name:de": "Oblast Targowischte",
        "name:en": "Targovishte",
        "name:fr": "Oblast de Targovichte",
        "name:prefix": "\u041e\u0431\u043b\u0430\u0441\u0442",
        "name:prefix:bg": "\u041e\u0431\u043b\u0430\u0441\u0442",
        "name:ro": "Regiunea T\u00e2rgovi\u0219te",
        "name:ru": "\u0422\u044b\u0440\u0433\u043e\u0432\u0438\u0448\u0442\u0441\u043a\u0430\u044f \u043e\u0431\u043b\u0430\u0441\u0442\u044c",
        "name:suffix:en": "Region",
        "name:tr": "T\u0131rgovi\u015fte (il)",
        "name:zh": "\u7279\u5c14\u6208\u7ef4\u4ec0\u7279\u5dde",
        "ref:nuts": "BG334",
        "ref:nuts:3": "BG334",
        "type": "boundary",
        "wikidata": "Q2012589",
        "wikipedia": "en:Targovishte Province"
      }
    },
    {
      "type": "relation",
      "id": 1739545,
      "tags": {
        "ISO3166-2": "BG-26",
        "admin_level": "4",
        "boundary": "administrative",
        "ekatte": "HKV",
        "name": "\u0425\u0430\u0441\u043a\u043e\u0432\u043e",
        "name:bg": "\u0425\u0430\u0441\u043a\u043e\u0432\u043e",
        "name:de": "Oblast Chaskowo",
        "name:el": "\u03a7\u03ac\u03c3\u03ba\u03bf\u03b2\u03bf",
        "name:en": "Haskovo",
        "name:fr": "Oblast de Khaskovo",
        "name:prefix": "\u041e\u0431\u043b\u0430\u0441\u0442",
        "name:prefix:bg": "\u041e\u0431\u043b\u0430\u0441\u0442",
        "name:ro": "Regiunea Hascovo",
        "name:ru": "\u0425\u0430\u0441\u043a\u043e\u0432\u0441\u043a\u0430\u044f \u043e\u0431\u043b\u0430\u0441\u0442\u044c",
        "name:suffix:en": "Region",
        "name:tr": "Hask\u00f6y (il)",
        "name:zh": "\u54c8\u65af\u79d1\u6c83\u5dde",
        "name:zh-Hans": "\u54c8\u65af\u79d1\u6c83\u5dde",
        "name:zh-Hant": "\u54c8\u65af\u79d1\u6c83\u5dde",
        "ref:nuts": "BG422",
        "ref:nuts:3": "BG422",
        "type": "boundary",
        "wikidata": "Q182809",
        "wikipedia": "en:Haskovo Province"
      }
    },
    {
      "type": "relation",
      "id": 1739546,
      "tags": {
        "ISO3166-2": "BG-27",
        "admin_level": "4",
        "boundary": "administrative",
        "ekatte": "SHU",
        "name": "\u0428\u0443\u043c\u0435\u043d",
        "name:bg": "\u0428\u0443\u043c\u0435\u043d",
        "name:de": "Oblast Schumen",
        "name:en": "Shumen",
        "name:fr": "Oblast de Choumen",
        "name:prefix": "\u041e\u0431\u043b\u0430\u0441\u0442",
        "name:prefix:bg": "\u041e\u0431\u043b\u0430\u0441\u0442",
        "name:ro": "Regiunea \u0218umen",
        "name:ru": "\u0428\u0443\u043c\u0435\u043d\u0441\u043a\u0430\u044f \u043e\u0431\u043b\u0430\u0441\u0442\u044c",
        "name:suffix:en": "Region",
        "name:tr": "\u015eumnu (il)",
        "name:zh": "\u8212\u95e8\u5dde",
        "ref:nuts": "BG333",
        "ref:nuts:3": "BG333",
        "type": "boundary",
        "wikidata": "Q184981",
        "wikipedia": "en:Shumen Province"
      }
    },
    {
      "type": "relation",
      "id": 1739547,
      "tags": {
        "ISO3166-2": "BG-28",
        "admin_level": "4",
        "boundary": "administrative",
        "ekatte": "JAM",
        "name": "\u042f\u043c\u0431\u043e\u043b",
        "name:bg": "\u042f\u043c\u0431\u043e\u043b",
        "name:de": "Oblast Jambol",
        "name:en": "Yambol",
        "name:fr": "Oblast de Yambol",
        "name:prefix": "\u041e\u0431\u043b\u0430\u0441\u0442",
        "name:prefix:bg": "\u041e\u0431\u043b\u0430\u0441\u0442",
        "name:ro": "Regiunea Iambol",
        "name:ru": "\u042f\u043c\u0431\u043e\u043b\u0441\u043a\u0430\u044f \u043e\u0431\u043b\u0430\u0441\u0442\u044c",
        "name:suffix:en": "Region",
        "name:tr": "Yambol (il)",
        "ref:nuts": "BG343",
        "ref:nuts:3": "BG343",
        "type": "boundary",
        "wikidata": "Q220736",
        "wikipedia": "en:Yambol Province"
      }
    },
    {
      "type": "rel",
      "id": 3759425,
      "tags": {
        "admin_level": "6",
        "area_sqkm": "58.77400967860",
        "boundary": "administrative",
        "colour": "#ff0000",
        "name": "\u0411\u0430\u043d\u043a\u044f",
        "name:bg": "\u0411\u0430\u043d\u043a\u044f",
        "name:de": "Rajon Bankja",
        "name:en": "Bankia",
        "name:prefix": "\u0420\u0430\u0439\u043e\u043d",
        "name:prefix:bg": "\u0420\u0430\u0439\u043e\u043d",
        "name:prefix:ru": "\u0440\u0430\u0439\u043e\u043d",
        "name:ru": "\u0411\u0430\u043d\u043a\u044f",
        "name:suffix:en": "District",
        "type": "boundary",
        "wikidata": "Q9305797",
        "wikipedia": "bg:\u0411\u0430\u043d\u043a\u044f (\u0440\u0430\u0439\u043e\u043d)",
        "parent_id": "1739543"
      }
    },
    {
      "type": "rel",
      "id": 3759426,
      "tags": {
        "admin_level": "6",
        "area_sqkm": "3.36034693147",
        "boundary": "administrative",
        "colour": "#ff0000",
        "name": "\u0418\u043b\u0438\u043d\u0434\u0435\u043d",
        "name:bg": "\u0418\u043b\u0438\u043d\u0434\u0435\u043d",
        "name:de": "Ilinden",
        "name:en": "Ilinden",
        "name:prefix": "\u0420\u0430\u0439\u043e\u043d",
        "name:prefix:bg": "\u0420\u0430\u0439\u043e\u043d",
        "name:prefix:de": "Rajon",
        "name:suffix:en": "District",
        "type": "boundary",
        "wikidata": "Q5998266",
        "wikipedia": "bg:\u0418\u043b\u0438\u043d\u0434\u0435\u043d (\u0440\u0430\u0439\u043e\u043d)",
        "parent_id": "1739543"
      }
    },
    {
      "type": "rel",
      "id": 3759427,
      "tags": {
        "admin_level": "6",
        "area_sqkm": "26.01803080000",
        "boundary": "administrative",
        "colour": "#ff0000",
        "name": "\u0418\u0441\u043a\u044a\u0440",
        "name:bg": "\u0418\u0441\u043a\u044a\u0440",
        "name:en": "Iskar",
        "name:prefix": "\u0420\u0430\u0439\u043e\u043d",
        "name:prefix:bg": "\u0420\u0430\u0439\u043e\u043d",
        "name:suffix:en": "District",
        "type": "boundary",
        "wikidata": "Q9305799",
        "wikipedia": "bg:\u0418\u0441\u043a\u044a\u0440 (\u0440\u0430\u0439\u043e\u043d)",
        "parent_id": "1739543"
      }
    },
    {
      "type": "rel",
      "id": 3759428,
      "tags": {
        "admin_level": "6",
        "area_sqkm": "4.18024631280",
        "boundary": "administrative",
        "colour": "#ff0000",
        "name": "\u0418\u0437\u0433\u0440\u0435\u0432",
        "name:bg": "\u0418\u0437\u0433\u0440\u0435\u0432",
        "name:de": "Isgrew",
        "name:en": "Izgrev",
        "name:prefix": "\u0420\u0430\u0439\u043e\u043d",
        "name:prefix:bg": "\u0420\u0430\u0439\u043e\u043d",
        "name:prefix:de": "Rajon",
        "name:prefix:ru": "\u0440\u0430\u0439\u043e\u043d",
        "name:ru": "\u0418\u0437\u0433\u0440\u0435\u0432",
        "name:suffix:en": "District",
        "type": "boundary",
        "wikidata": "Q6101953",
        "wikipedia": "bg:\u0418\u0437\u0433\u0440\u0435\u0432 (\u0440\u0430\u0439\u043e\u043d)",
        "parent_id": "1739543"
      }
    },
    {
      "type": "rel",
      "id": 3759429,
      "tags": {
        "admin_level": "6",
        "area_sqkm": "9.68984937948",
        "boundary": "administrative",
        "colour": "#ff0000",
        "id": "11",
        "name": "\u041a\u0440\u0430\u0441\u043d\u0430 \u043f\u043e\u043b\u044f\u043d\u0430",
        "name:bg": "\u041a\u0440\u0430\u0441\u043d\u0430 \u043f\u043e\u043b\u044f\u043d\u0430",
        "name:de": "Krasna poljana",
        "name:en": "Krasna poliana",
        "name:prefix": "\u0420\u0430\u0439\u043e\u043d",
        "name:prefix:bg": "\u0420\u0430\u0439\u043e\u043d",
        "name:prefix:de": "Rajon",
        "name:suffix:en": "District",
        "type": "boundary",
        "wikidata": "Q6436209",
        "wikipedia": "bg:\u041a\u0440\u0430\u0441\u043d\u0430 \u043f\u043e\u043b\u044f\u043d\u0430 (\u0440\u0430\u0439\u043e\u043d)",
        "parent_id": "1739543"
      }
    },
    {
      "type": "rel",
      "id": 3759430,
      "tags": {
        "admin_level": "6",
        "area_sqkm": "6.10501462822",
        "boundary": "administrative",
        "colour": "#ff0000",
        "name": "\u041a\u0440\u0430\u0441\u043d\u043e \u0441\u0435\u043b\u043e",
        "name:bg": "\u041a\u0440\u0430\u0441\u043d\u043e \u0441\u0435\u043b\u043e",
        "name:de": "Krasno selo",
        "name:en": "Krasno selo",
        "name:prefix": "\u0420\u0430\u0439\u043e\u043d",
        "name:prefix:bg": "\u0420\u0430\u0439\u043e\u043d",
        "name:prefix:de": "Rajon",
        "name:suffix:en": "District",
        "type": "boundary",
        "wikidata": "Q6436239",
        "wikipedia": "bg:\u041a\u0440\u0430\u0441\u043d\u043e \u0441\u0435\u043b\u043e (\u0440\u0430\u0439\u043e\u043d)",
        "parent_id": "1739543"
      }
    },
    {
      "type": "rel",
      "id": 3759431,
      "tags": {
        "admin_level": "6",
        "area_sqkm": "262.39201655200",
        "boundary": "administrative",
        "colour": "#ff0000",
        "name": "\u041a\u0440\u0435\u043c\u0438\u043a\u043e\u0432\u0446\u0438",
        "name:bg": "\u041a\u0440\u0435\u043c\u0438\u043a\u043e\u0432\u0446\u0438",
        "name:de": "Rajon Kremikowzi",
        "name:en": "Kremikovci",
        "name:prefix": "\u0420\u0430\u0439\u043e\u043d",
        "name:prefix:bg": "\u0420\u0430\u0439\u043e\u043d",
        "name:suffix:en": "District",
        "type": "boundary",
        "wikidata": "Q9305801",
        "wikipedia": "bg:\u041a\u0440\u0435\u043c\u0438\u043a\u043e\u0432\u0446\u0438 (\u0440\u0430\u0439\u043e\u043d)",
        "parent_id": "1739543"
      }
    },
    {
      "type": "rel",
      "id": 3759432,
      "tags": {
        "admin_level": "6",
        "area_sqkm": "21.14139511040",
        "boundary": "administrative",
        "colour": "#ff0000",
        "id": "19",
        "name": "\u041b\u044e\u043b\u0438\u043d",
        "name:bg": "\u041b\u044e\u043b\u0438\u043d",
        "name:de": "Ljulin",
        "name:en": "Liulin",
        "name:prefix": "\u0420\u0430\u0439\u043e\u043d",
        "name:prefix:bg": "\u0420\u0430\u0439\u043e\u043d",
        "name:prefix:de": "Rajon",
        "name:prefix:ru": "\u0440\u0430\u0439\u043e\u043d",
        "name:ru": "\u041b\u044e\u043b\u0438\u043d",
        "name:suffix:en": "District",
        "type": "boundary",
        "wikidata": "Q6710571",
        "wikipedia": "bg:\u041b\u044e\u043b\u0438\u043d (\u0440\u0430\u0439\u043e\u043d)",
        "parent_id": "1739543"
      }
    },
    {
      "type": "rel",
      "id": 3759433,
      "tags": {
        "admin_level": "6",
        "area_sqkm": "9.27755088669",
        "boundary": "administrative",
        "colour": "#ff0000",
        "int_name": "Lozenets",
        "name": "\u041b\u043e\u0437\u0435\u043d\u0435\u0446",
        "name:bg": "\u041b\u043e\u0437\u0435\u043d\u0435\u0446",
        "name:de": "Losenez",
        "name:en": "Lozenets",
        "name:prefix": "\u0420\u0430\u0439\u043e\u043d",
        "name:prefix:bg": "\u0420\u0430\u0439\u043e\u043d",
        "name:prefix:de": "Rajon",
        "name:suffix:en": "District",
        "type": "boundary",
        "wikidata": "Q3658292",
        "wikipedia": "bg:\u041b\u043e\u0437\u0435\u043d\u0435\u0446 (\u0440\u0430\u0439\u043e\u043d)",
        "parent_id": "1739543"
      }
    },
    {
      "type": "rel",
      "id": 3759434,
      "tags": {
        "admin_level": "6",
        "area_sqkm": "16.88553167350",
        "boundary": "administrative",
        "colour": "#ff0000",
        "name": "\u041c\u043b\u0430\u0434\u043e\u0441\u0442",
        "name:bg": "\u041c\u043b\u0430\u0434\u043e\u0441\u0442",
        "name:de": "Mladost",
        "name:en": "Mladost",
        "name:prefix": "\u0420\u0430\u0439\u043e\u043d",
        "name:prefix:bg": "\u0420\u0430\u0439\u043e\u043d",
        "name:prefix:de": "Rajon",
        "name:suffix:en": "District",
        "type": "boundary",
        "wikidata": "Q11834092",
        "wikipedia": "bg:\u041c\u043b\u0430\u0434\u043e\u0441\u0442 (\u0440\u0430\u0439\u043e\u043d \u0432 \u0421\u043e\u0444\u0438\u044f)",
        "parent_id": "1739543"
      }
    },
    {
      "type": "rel",
      "id": 3759435,
      "tags": {
        "admin_level": "6",
        "area_sqkm": "20.61736411950",
        "boundary": "administrative",
        "colour": "#ff0000",
        "name": "\u041d\u0430\u0434\u0435\u0436\u0434\u0430",
        "name:bg": "\u041d\u0430\u0434\u0435\u0436\u0434\u0430",
        "name:de": "Nadeschda",
        "name:en": "Nadejda",
        "name:prefix": "\u0420\u0430\u0439\u043e\u043d",
        "name:prefix:bg": "\u0420\u0430\u0439\u043e\u043d",
        "name:prefix:de": "Rajon",
        "name:suffix:en": "District",
        "type": "boundary",
        "wikidata": "Q3658044",
        "wikipedia": "bg:\u041d\u0430\u0434\u0435\u0436\u0434\u0430 (\u0440\u0430\u0439\u043e\u043d)",
        "parent_id": "1739543"
      }
    },
    {
      "type": "rel",
      "id": 3759436,
      "tags": {
        "admin_level": "6",
        "area_sqkm": "218.96866481800",
        "boundary": "administrative",
        "colour": "#ff0000",
        "name": "\u041d\u043e\u0432\u0438 \u0418\u0441\u043a\u044a\u0440",
        "name:bg": "\u041d\u043e\u0432\u0438 \u0418\u0441\u043a\u044a\u0440",
        "name:de": "Rajon Nowi Iskar",
        "name:en": "Novi Iskar",
        "name:fr": "Raion de Novi Iskar",
        "name:prefix": "\u0420\u0430\u0439\u043e\u043d",
        "name:prefix:bg": "\u0420\u0430\u0439\u043e\u043d",
        "name:suffix:en": "District",
        "type": "boundary",
        "wikidata": "Q9305803",
        "wikipedia": "bg:\u041d\u043e\u0432\u0438 \u0418\u0441\u043a\u044a\u0440 (\u0440\u0430\u0439\u043e\u043d)",
        "parent_id": "1739543"
      }
    },
    {
      "type": "rel",
      "id": 3759437,
      "tags": {
        "admin_level": "6",
        "area_sqkm": "2.71326674327",
        "boundary": "administrative",
        "colour": "#ff0000",
        "name": "\u041e\u0431\u043e\u0440\u0438\u0449\u0435",
        "name:bg": "\u041e\u0431\u043e\u0440\u0438\u0449\u0435",
        "name:de": "Oborischte",
        "name:en": "Oborishte",
        "name:prefix": "\u0420\u0430\u0439\u043e\u043d",
        "name:prefix:bg": "\u0420\u0430\u0439\u043e\u043d",
        "name:prefix:de": "Rajon",
        "name:suffix:en": "District",
        "population": "36000",
        "type": "boundary",
        "wikidata": "Q3658289",
        "wikipedia": "bg:\u041e\u0431\u043e\u0440\u0438\u0449\u0435 (\u0440\u0430\u0439\u043e\u043d)",
        "parent_id": "1739543"
      }
    },
    {
      "type": "rel",
      "id": 3759438,
      "tags": {
        "admin_level": "6",
        "area_sqkm": "41.59231510540",
        "boundary": "administrative",
        "colour": "#ff0000",
        "name": "\u041e\u0432\u0447\u0430 \u043a\u0443\u043f\u0435\u043b",
        "name:bg": "\u041e\u0432\u0447\u0430 \u043a\u0443\u043f\u0435\u043b",
        "name:de": "Owtscha kupel",
        "name:en": "Ovcha kupel",
        "name:prefix": "\u0420\u0430\u0439\u043e\u043d",
        "name:prefix:bg": "\u0420\u0430\u0439\u043e\u043d",
        "name:prefix:de": "Rajon",
        "name:suffix:en": "District",
        "type": "boundary",
        "wikidata": "Q7113283",
        "wikipedia": "bg:\u041e\u0432\u0447\u0430 \u043a\u0443\u043f\u0435\u043b (\u0440\u0430\u0439\u043e\u043d)",
        "parent_id": "1739543"
      }
    },
    {
      "type": "rel",
      "id": 3759439,
      "tags": {
        "admin_level": "6",
        "alt_name:bg": "\u041f\u0430\u043d\u0447\u0435\u0440\u0435\u0432\u043e",
        "area_sqkm": "406.26391241800",
        "boundary": "administrative",
        "colour": "#ff0000",
        "name": "\u041f\u0430\u043d\u0447\u0430\u0440\u0435\u0432\u043e",
        "name:bg": "\u041f\u0430\u043d\u0447\u0430\u0440\u0435\u0432\u043e",
        "name:de": "Pantscharewo",
        "name:en": "Pancharevo",
        "name:prefix": "\u0420\u0430\u0439\u043e\u043d",
        "name:prefix:bg": "\u0420\u0430\u0439\u043e\u043d",
        "name:prefix:de": "Rajon",
        "name:suffix:en": "District",
        "type": "boundary",
        "wikidata": "Q1027607",
        "wikipedia": "bg:\u041f\u0430\u043d\u0447\u0430\u0440\u0435\u0432\u043e (\u0440\u0430\u0439\u043e\u043d)",
        "parent_id": "1739543"
      }
    },
    {
      "type": "rel",
      "id": 3759440,
      "tags": {
        "admin_level": "6",
        "alt_name": "\u041f\u043e\u0434\u0443\u0435\u043d\u0435",
        "alt_name:en": "Poduene",
        "area_sqkm": "10.63755763030",
        "boundary": "administrative",
        "colour": "#ff0000",
        "name": "\u041f\u043e\u0434\u0443\u044f\u043d\u0435",
        "name:bg": "\u041f\u043e\u0434\u0443\u044f\u043d\u0435",
        "name:de": "Podujana",
        "name:en": "Poduyane",
        "name:prefix": "\u0420\u0430\u0439\u043e\u043d",
        "name:prefix:bg": "\u0420\u0430\u0439\u043e\u043d",
        "name:prefix:de": "Rajon",
        "name:suffix:en": "District",
        "type": "boundary",
        "wikidata": "Q7207186",
        "wikipedia": "bg:\u041f\u043e\u0434\u0443\u044f\u043d\u0435 (\u0440\u0430\u0439\u043e\u043d)",
        "parent_id": "1739543"
      }
    },
    {
      "type": "rel",
      "id": 3759441,
      "tags": {
        "admin_level": "6",
        "area_sqkm": "18.59681321030",
        "boundary": "administrative",
        "colour": "#ff0000",
        "id": "5",
        "name": "\u0421\u0435\u0440\u0434\u0438\u043a\u0430",
        "name:bg": "\u0421\u0435\u0440\u0434\u0438\u043a\u0430",
        "name:de": "Serdika",
        "name:en": "Serdika",
        "name:prefix": "\u0420\u0430\u0439\u043e\u043d",
        "name:prefix:bg": "\u0420\u0430\u0439\u043e\u043d",
        "name:prefix:de": "Rajon",
        "name:prefix:ru": "\u0440\u0430\u0439\u043e\u043d",
        "name:ru": "\u0421\u0435\u0440\u0434\u0438\u043a\u0430",
        "name:suffix:en": "District",
        "type": "boundary",
        "wikidata": "Q8014589",
        "wikipedia": "bg:\u0421\u0435\u0440\u0434\u0438\u043a\u0430 (\u0440\u0430\u0439\u043e\u043d)",
        "parent_id": "1739543"
      }
    },
    {
      "type": "rel",
      "id": 3759442,
      "tags": {
        "admin_level": "6",
        "area_sqkm": "13.63395616650",
        "boundary": "administrative",
        "colour": "#ff0000",
        "name": "\u0421\u043b\u0430\u0442\u0438\u043d\u0430",
        "name:bg": "\u0421\u043b\u0430\u0442\u0438\u043d\u0430",
        "name:de": "Slatina",
        "name:en": "Slatina",
        "name:prefix": "\u0420\u0430\u0439\u043e\u043d",
        "name:prefix:bg": "\u0420\u0430\u0439\u043e\u043d",
        "name:prefix:de": "Rajon",
        "name:prefix:ru": "\u0440\u0430\u0439\u043e\u043d",
        "name:ru": "\u0421\u043b\u0430\u0442\u0438\u043d\u0430",
        "name:suffix:en": "District",
        "type": "boundary",
        "wikidata": "Q7538927",
        "wikipedia": "bg:\u0421\u043b\u0430\u0442\u0438\u043d\u0430 (\u0440\u0430\u0439\u043e\u043d)",
        "parent_id": "1739543"
      }
    },
    {
      "type": "rel",
      "id": 3759443,
      "tags": {
        "admin_level": "6",
        "area_sqkm": "3.02324452996",
        "boundary": "administrative",
        "colour": "#ff0000",
        "name": "\u0421\u0440\u0435\u0434\u0435\u0446",
        "name:bg": "\u0421\u0440\u0435\u0434\u0435\u0446",
        "name:de": "Sredez",
        "name:en": "Sredec",
        "name:prefix": "\u0420\u0430\u0439\u043e\u043d",
        "name:prefix:bg": "\u0420\u0430\u0439\u043e\u043d",
        "name:prefix:de": "Rajon",
        "name:prefix:ru": "\u0440\u0430\u0439\u043e\u043d",
        "name:ru": "\u0421\u0440\u0435\u0434\u0435\u0446",
        "name:suffix:en": "District",
        "type": "boundary",
        "wikidata": "Q7582432",
        "wikipedia": "bg:\u0421\u0440\u0435\u0434\u0435\u0446 (\u0440\u0430\u0439\u043e\u043d)",
        "parent_id": "1739543"
      }
    },
    {
      "type": "rel",
      "id": 3759444,
      "tags": {
        "admin_level": "6",
        "area_sqkm": "8.98939579975",
        "boundary": "administrative",
        "colour": "#ff0000",
        "int_name": "Studentski",
        "name": "\u0421\u0442\u0443\u0434\u0435\u043d\u0442\u0441\u043a\u0438",
        "name:bg": "\u0421\u0442\u0443\u0434\u0435\u043d\u0442\u0441\u043a\u0438",
        "name:de": "Studentski",
        "name:en": "Studentski",
        "name:prefix": "\u0420\u0430\u0439\u043e\u043d",
        "name:prefix:bg": "\u0420\u0430\u0439\u043e\u043d",
        "name:prefix:de": "Rajon",
        "name:prefix:ru": "\u0440\u0430\u0439\u043e\u043d",
        "name:suffix:en": "District",
        "note": "\u041f\u0440\u0435\u0437 \u043c\u0435\u0441\u0435\u0446 \u043c\u0430\u0439 \u0442. \u0433. \u043f\u0440\u0435\u0434\u0441\u0442\u043e\u0438 \u0432\u044a\u0432\u0435\u0436\u0434\u0430\u043d\u0435\u0442\u043e \u043d\u0430 \u043d\u043e\u0432\u0430\u0442\u0430 \u0442\u0440\u0430\u043d\u0441\u043f\u043e\u0440\u0442\u043d\u0430 \u0441\u0445\u0435\u043c\u0430 \u043d\u0430 \u0436.\u043a. \u201e\u0421\u0442\u0443\u0434\u0435\u043d\u0442\u0441\u043a\u0438 \u0433\u0440\u0430\u0434\u201c \u0438 \u043a\u0432. \u201e\u0412\u0438\u0442\u043e\u0448\u0430 \u0412\u0415\u0426-\u0421\u0438\u043c\u0435\u043e\u043d\u043e\u0432\u043e\u201c - https://studentski.bg/wp-content/uploads/2023/04/transportna_schema_st_vets_04_2023_big.pdf",
        "type": "boundary",
        "wikidata": "Q11834095",
        "wikipedia": "bg:\u0421\u0442\u0443\u0434\u0435\u043d\u0442\u0441\u043a\u0438 (\u0440\u0430\u0439\u043e\u043d)",
        "parent_id": "1739543"
      }
    },
    {
      "type": "rel",
      "id": 3759445,
      "tags": {
        "admin_level": "6",
        "area_sqkm": "9.23321837061",
        "boundary": "administrative",
        "colour": "#ff0000",
        "name": "\u0422\u0440\u0438\u0430\u0434\u0438\u0446\u0430",
        "name:bg": "\u0422\u0440\u0438\u0430\u0434\u0438\u0446\u0430",
        "name:de": "Triadiza",
        "name:en": "Triadica",
        "name:prefix": "\u0420\u0430\u0439\u043e\u043d",
        "name:prefix:bg": "\u0420\u0430\u0439\u043e\u043d",
        "name:prefix:de": "Rajon",
        "name:prefix:ru": "\u0440\u0430\u0439\u043e\u043d",
        "name:ru": "\u0422\u0440\u0438\u0430\u0434\u0438\u0446\u0430",
        "name:suffix:en": "District",
        "type": "boundary",
        "wikidata": "Q3658300",
        "wikipedia": "bg:\u0422\u0440\u0438\u0430\u0434\u0438\u0446\u0430 (\u0440\u0430\u0439\u043e\u043d)",
        "parent_id": "1739543"
      }
    },
    {
      "type": "rel",
      "id": 3759446,
      "tags": {
        "admin_level": "6",
        "area_sqkm": "2.98596959179",
        "boundary": "administrative",
        "colour": "#ff0000",
        "name": "\u0412\u044a\u0437\u0440\u0430\u0436\u0434\u0430\u043d\u0435",
        "name:bg": "\u0412\u044a\u0437\u0440\u0430\u0436\u0434\u0430\u043d\u0435",
        "name:de": "Wasraschdana",
        "name:en": "Vazrajdane",
        "name:prefix": "\u0420\u0430\u0439\u043e\u043d",
        "name:prefix:bg": "\u0420\u0430\u0439\u043e\u043d",
        "name:prefix:de": "Rajon",
        "name:prefix:ru": "\u0440\u0430\u0439\u043e\u043d",
        "name:ru": "\u0412\u043e\u0437\u0440\u0430\u0436\u0434\u0430\u043d\u0435",
        "name:suffix:en": "District",
        "type": "boundary",
        "wikidata": "Q7917652",
        "wikipedia": "bg:\u0412\u044a\u0437\u0440\u0430\u0436\u0434\u0430\u043d\u0435 (\u0440\u0430\u0439\u043e\u043d)",
        "parent_id": "1739543"
      }
    },
    {
      "type": "rel",
      "id": 3759447,
      "tags": {
        "admin_level": "6",
        "area_sqkm": "122.94193798100",
        "boundary": "administrative",
        "name": "\u0412\u0438\u0442\u043e\u0448\u0430",
        "name:bg": "\u0412\u0438\u0442\u043e\u0448\u0430",
        "name:de": "Witoscha",
        "name:en": "Vitosha",
        "name:prefix": "\u0420\u0430\u0439\u043e\u043d",
        "name:prefix:bg": "\u0420\u0430\u0439\u043e\u043d",
        "name:prefix:de": "Rajon",
        "name:prefix:ru": "\u0440\u0430\u0439\u043e\u043d",
        "name:ru": "\u0412\u0438\u0442\u043e\u0448\u0430",
        "name:suffix:en": "District",
        "type": "boundary",
        "wikidata": "Q7937207",
        "wikipedia": "bg:\u0412\u0438\u0442\u043e\u0448\u0430 (\u0440\u0430\u0439\u043e\u043d)",
        "parent_id": "1739543"
      }
    },
    {
      "type": "rel",
      "id": 3759448,
      "tags": {
        "admin_level": "6",
        "area_sqkm": "42.36311364780",
        "boundary": "administrative",
        "colour": "#ff0000",
        "id": "20",
        "name": "\u0412\u0440\u044a\u0431\u043d\u0438\u0446\u0430",
        "name:bg": "\u0412\u0440\u044a\u0431\u043d\u0438\u0446\u0430",
        "name:de": "Wrabniza",
        "name:en": "Vrabnitsa",
        "name:prefix": "\u0420\u0430\u0439\u043e\u043d",
        "name:prefix:bg": "\u0420\u0430\u0439\u043e\u043d",
        "name:prefix:de": "Rajon",
        "name:prefix:ru": "\u0440\u0430\u0439\u043e\u043d",
        "name:ru": "\u0412\u0440\u043e\u0431\u043d\u0438\u0446\u0430",
        "name:suffix:en": "District",
        "type": "boundary",
        "wikidata": "Q8014749",
        "wikipedia": "bg:\u0412\u0440\u044a\u0431\u043d\u0438\u0446\u0430 (\u0440\u0430\u0439\u043e\u043d)",
        "parent_id": "1739543"
      }
    },
    {
      "type": "rel",
      "id": 7289743,
      "tags": {
        "admin_level": "6",
        "boundary": "administrative",
        "name": "\u042e\u0436\u0435\u043d",
        "name:prefix": "\u0420\u0430\u0439\u043e\u043d",
        "type": "boundary",
        "parent_id": "1739536"
      }
    },
    {
      "type": "rel",
      "id": 7289744,
      "tags": {
        "admin_level": "6",
        "boundary": "administrative",
        "name": "\u0426\u0435\u043d\u0442\u0440\u0430\u043b\u0435\u043d",
        "name:prefix": "\u0420\u0430\u0439\u043e\u043d",
        "place": "borough",
        "population": "81625",
        "population:date": "2022-06-15",
        "source:population": "GRAO",
        "type": "boundary",
        "wikidata": "Q5062096",
        "parent_id": "1739536"
      }
    },
    {
      "type": "rel",
      "id": 7289745,
      "tags": {
        "admin_level": "6",
        "boundary": "administrative",
        "name": "\u0422\u0440\u0430\u043a\u0438\u044f",
        "name:prefix": "\u0420\u0430\u0439\u043e\u043d",
        "place": "borough",
        "population": "60162",
        "population:date": "2022-06-15",
        "source:population": "GRAO",
        "type": "boundary",
        "parent_id": "1739536"
      }
    },
    {
      "type": "rel",
      "id": 7289746,
      "tags": {
        "admin_level": "6",
        "boundary": "administrative",
        "name": "\u0417\u0430\u043f\u0430\u0434\u0435\u043d",
        "name:prefix": "\u0420\u0430\u0439\u043e\u043d",
        "place": "borough",
        "population": "40533",
        "population:date": "2022-06-15",
        "source:population": "GRAO",
        "type": "boundary",
        "wikidata": "Q7988480",
        "parent_id": "1739536"
      }
    },
    {
      "type": "rel",
      "id": 7289747,
      "tags": {
        "admin_level": "6",
        "boundary": "administrative",
        "name": "\u0421\u0435\u0432\u0435\u0440\u0435\u043d",
        "name:prefix": "\u0420\u0430\u0439\u043e\u043d",
        "place": "borough",
        "population": "55914",
        "population:date": "2022-06-15",
        "source:population": "GRAO",
        "type": "boundary",
        "wikidata": "Q7059194",
        "parent_id": "1739536"
      }
    },
    {
      "type": "rel",
      "id": 7289748,
      "tags": {
        "admin_level": "6",
        "boundary": "administrative",
        "name": "\u0418\u0437\u0442\u043e\u0447\u0435\u043d",
        "name:prefix": "\u0420\u0430\u0439\u043e\u043d",
        "place": "borough",
        "population": "60961",
        "population:date": "2022-06-15",
        "source:population": "GRAO",
        "type": "boundary",
        "parent_id": "1739536"
      }
    },
    {
      "type": "rel",
      "id": 16951188,
      "tags": {
        "admin_level": "6",
        "boundary": "administrative",
        "name": "\u041e\u0434\u0435\u0441\u043e\u0441",
        "name:bg": "\u041e\u0434\u0435\u0441\u043e\u0441",
        "name:en": "Odessos",
        "name:prefix": "\u0420\u0430\u0439\u043e\u043d",
        "type": "boundary",
        "wikidata": "Q11292057",
        "parent_id": "1437135"
      }
    },
    {
      "type": "rel",
      "id": 16951189,
      "tags": {
        "admin_level": "6",
        "boundary": "administrative",
        "name": "\u041f\u0440\u0438\u043c\u043e\u0440\u0441\u043a\u0438",
        "name:prefix": "\u0420\u0430\u0439\u043e\u043d",
        "type": "boundary",
        "wikidata": "Q11335658",
        "parent_id": "1437135"
      }
    },
    {
      "type": "rel",
      "id": 16951190,
      "tags": {
        "admin_level": "6",
        "boundary": "administrative",
        "name": "\u041c\u043b\u0430\u0434\u043e\u0441\u0442",
        "name:prefix": "\u0420\u0430\u0439\u043e\u043d",
        "type": "boundary",
        "wikidata": "Q3657292",
        "parent_id": "1437135"
      }
    },
    {
      "type": "rel",
      "id": 16951200,
      "tags": {
        "admin_level": "6",
        "boundary": "administrative",
        "name": "\u0412\u043b\u0430\u0434\u0438\u0441\u043b\u0430\u0432 \u0412\u0430\u0440\u043d\u0435\u043d\u0447\u0438\u043a",
        "name:prefix": "\u0420\u0430\u0439\u043e\u043d",
        "type": "boundary",
        "wikidata": "Q11352221",
        "parent_id": "1437135"
      }
    },
    {
      "type": "rel",
      "id": 16951215,
      "tags": {
        "admin_level": "6",
        "boundary": "administrative",
        "name": "\u0410\u0441\u043f\u0430\u0440\u0443\u0445\u043e\u0432\u043e",
        "name:prefix": "\u0420\u0430\u0439\u043e\u043d",
        "type": "boundary",
        "wikidata": "Q11283555",
        "parent_id": "1437135"
      }
    },
    {
      "type": "rel",
      "id": 4283101,
      "tags": {
        "admin_level": "8",
        "boundary": "administrative",
        "capital": "yes",
        "ekatte": "68134",
        "int_name": "Sofia",
        "name": "\u0421\u043e\u0444\u0438\u044f",
        "name:bg": "\u0421\u043e\u0444\u0438\u044f",
        "name:ca": "Sofia",
        "name:fr": "Sofia",
        "name:prefix": "\u0437\u0435\u043c\u043b\u0438\u0449\u0435",
        "type": "boundary",
        "wikidata": "Q472",
        "wikipedia": "bg:\u0421\u043e\u0444\u0438\u044f",
        "parent_id": "3759431"
      }
    },
    {
      "type": "rel",
      "id": 17755319,
      "tags": {
        "admin_level": "8",
        "boundary": "administrative",
        "ekatte": "22304",
        "name": "\u0414\u043e\u043b\u043d\u0438 \u0411\u043e\u0433\u0440\u043e\u0432",
        "name:bg": "\u0414\u043e\u043b\u043d\u0438 \u0411\u043e\u0433\u0440\u043e\u0432",
        "name:en": "Dolni Bogrov",
        "name:prefix": "\u0437\u0435\u043c\u043b\u0438\u0449\u0435",
        "type": "boundary",
        "wikidata": "Q2455856",
        "parent_id": "3759431"
      }
    },
    {
      "type": "rel",
      "id": 17758980,
      "tags": {
        "admin_level": "8",
        "boundary": "administrative",
        "ekatte": "07140",
        "name": "\u0411\u0443\u0445\u043e\u0432\u043e",
        "name:bg": "\u0411\u0443\u0445\u043e\u0432\u043e",
        "name:en": "Buhovo",
        "name:prefix": "\u0437\u0435\u043c\u043b\u0438\u0449\u0435",
        "type": "boundary",
        "wikidata": "Q2597688",
        "parent_id": "3759431"
      }
    },
    {
      "type": "rel",
      "id": 17758981,
      "tags": {
        "admin_level": "8",
        "boundary": "administrative",
        "ekatte": "29204",
        "name": "\u0416\u0435\u043b\u044f\u0432\u0430",
        "name:bg": "\u0416\u0435\u043b\u044f\u0432\u0430",
        "name:en": "Zhelyava",
        "name:prefix": "\u0437\u0435\u043c\u043b\u0438\u0449\u0435",
        "type": "boundary",
        "wikidata": "Q2457035",
        "parent_id": "3759431"
      }
    },
    {
      "type": "rel",
      "id": 17758982,
      "tags": {
        "admin_level": "8",
        "boundary": "administrative",
        "ekatte": "87401",
        "name": "\u042f\u043d\u0430",
        "name:bg": "\u042f\u043d\u0430",
        "name:en": "Yana",
        "name:prefix": "\u0437\u0435\u043c\u043b\u0438\u0449\u0435",
        "type": "boundary",
        "wikidata": "Q2022878",
        "parent_id": "3759431"
      }
    },
    {
      "type": "rel",
      "id": 17758983,
      "tags": {
        "admin_level": "8",
        "boundary": "administrative",
        "ekatte": "16448",
        "name": "\u0413\u043e\u0440\u043d\u0438 \u0411\u043e\u0433\u0440\u043e\u0432",
        "name:bg": "\u0413\u043e\u0440\u043d\u0438 \u0411\u043e\u0433\u0440\u043e\u0432",
        "name:en": "Gorni Bogrov",
        "name:prefix": "\u0437\u0435\u043c\u043b\u0438\u0449\u0435",
        "type": "boundary",
        "wikidata": "Q2653777",
        "parent_id": "3759431"
      }
    },
    {
      "type": "rel",
      "id": 17758183,
      "tags": {
        "admin_level": "8",
        "boundary": "administrative",
        "ekatte": "29430",
        "name": "\u0416\u0438\u0442\u0435\u043d",
        "name:bg": "\u0416\u0438\u0442\u0435\u043d",
        "name:en": "Zhiten",
        "name:prefix": "\u0437\u0435\u043c\u043b\u0438\u0449\u0435",
        "type": "boundary",
        "wikidata": "Q2016392",
        "parent_id": "3759436"
      }
    },
    {
      "type": "rel",
      "id": 17758230,
      "tags": {
        "admin_level": "8",
        "boundary": "administrative",
        "ekatte": "02511",
        "name": "\u0411\u0430\u043b\u0448\u0430",
        "name:bg": "\u0411\u0430\u043b\u0448\u0430",
        "name:en": "Balsha",
        "name:prefix": "\u0437\u0435\u043c\u043b\u0438\u0449\u0435",
        "type": "boundary",
        "wikidata": "Q2453895",
        "parent_id": "3759436"
      }
    },
    {
      "type": "rel",
      "id": 17758243,
      "tags": {
        "admin_level": "8",
        "boundary": "administrative",
        "ekatte": "21662",
        "name": "\u0414\u043e\u0431\u0440\u043e\u0441\u043b\u0430\u0432\u0446\u0438",
        "name:bg": "\u0414\u043e\u0431\u0440\u043e\u0441\u043b\u0430\u0432\u0446\u0438",
        "name:en": "Dobroslavtsi",
        "name:prefix": "\u0437\u0435\u043c\u043b\u0438\u0449\u0435",
        "type": "boundary",
        "wikidata": "Q2653464",
        "parent_id": "3759436"
      }
    },
    {
      "type": "rel",
      "id": 17758250,
      "tags": {
        "admin_level": "8",
        "boundary": "administrative",
        "ekatte": "40436",
        "name": "\u041a\u0443\u0431\u0440\u0430\u0442\u043e\u0432\u043e",
        "name:bg": "\u041a\u0443\u0431\u0440\u0430\u0442\u043e\u0432\u043e",
        "name:en": "Kubratovo",
        "name:prefix": "\u0437\u0435\u043c\u043b\u0438\u0449\u0435",
        "type": "boundary",
        "wikidata": "Q2459289",
        "parent_id": "3759436"
      }
    },
    {
      "type": "rel",
      "id": 17758267,
      "tags": {
        "admin_level": "8",
        "boundary": "administrative",
        "ekatte": "48393",
        "name": "\u041c\u0438\u0440\u043e\u0432\u044f\u043d\u0435",
        "name:bg": "\u041c\u0438\u0440\u043e\u0432\u044f\u043d\u0435",
        "name:en": "Mirovyane",
        "name:prefix": "\u0437\u0435\u043c\u043b\u0438\u0449\u0435",
        "type": "boundary",
        "wikidata": "Q937301",
        "parent_id": "3759436"
      }
    },
    {
      "type": "rel",
      "id": 17758307,
      "tags": {
        "admin_level": "8",
        "boundary": "administrative",
        "ekatte": "80409",
        "name": "\u0427\u0435\u043f\u0438\u043d\u0446\u0438",
        "name:bg": "\u0427\u0435\u043f\u0438\u043d\u0446\u0438",
        "name:en": "Chepintsi",
        "name:prefix": "\u0437\u0435\u043c\u043b\u0438\u0449\u0435",
        "type": "boundary",
        "wikidata": "Q2021991",
        "parent_id": "3759436"
      }
    },
    {
      "type": "rel",
      "id": 17758308,
      "tags": {
        "admin_level": "8",
        "boundary": "administrative",
        "ekatte": "51250",
        "name": "\u041d\u0435\u0433\u043e\u0432\u0430\u043d",
        "name:bg": "\u041d\u0435\u0433\u043e\u0432\u0430\u043d",
        "name:en": "Negovan",
        "name:prefix": "\u0437\u0435\u043c\u043b\u0438\u0449\u0435",
        "type": "boundary",
        "wikidata": "Q2653970",
        "parent_id": "3759436"
      }
    },
    {
      "type": "rel",
      "id": 17758309,
      "tags": {
        "admin_level": "8",
        "boundary": "administrative",
        "ekatte": "65601",
        "name": "\u0421\u0432\u0435\u0442\u043e\u0432\u0440\u0430\u0447\u0435\u043d\u0435",
        "name:bg": "\u0421\u0432\u0435\u0442\u043e\u0432\u0440\u0430\u0447\u0435\u043d\u0435",
        "name:en": "Svetovrachene",
        "name:prefix": "\u0437\u0435\u043c\u043b\u0438\u0449\u0435",
        "type": "boundary",
        "wikidata": "Q2020685",
        "parent_id": "3759436"
      }
    },
    {
      "type": "rel",
      "id": 17758485,
      "tags": {
        "admin_level": "8",
        "boundary": "administrative",
        "ekatte": "11884",
        "name": "\u0412\u043e\u0439\u043d\u0435\u0433\u043e\u0432\u0446\u0438",
        "name:bg": "\u0412\u043e\u0439\u043d\u0435\u0433\u043e\u0432\u0446\u0438",
        "name:en": "Voynegovtsi",
        "name:prefix": "\u0437\u0435\u043c\u043b\u0438\u0449\u0435",
        "type": "boundary",
        "wikidata": "Q2458090",
        "parent_id": "3759436"
      }
    },
    {
      "type": "rel",
      "id": 17758486,
      "tags": {
        "admin_level": "8",
        "boundary": "administrative",
        "ekatte": "44224",
        "name": "\u041b\u043e\u043a\u043e\u0440\u0441\u043a\u043e",
        "name:bg": "\u041b\u043e\u043a\u043e\u0440\u0441\u043a\u043e",
        "name:en": "Lokorsko",
        "name:prefix": "\u0437\u0435\u043c\u043b\u0438\u0449\u0435",
        "type": "boundary",
        "wikidata": "Q2460927",
        "parent_id": "3759436"
      }
    },
    {
      "type": "rel",
      "id": 17758487,
      "tags": {
        "admin_level": "8",
        "boundary": "administrative",
        "ekatte": "57011",
        "name": "\u041f\u043e\u0434\u0433\u0443\u043c\u0435\u0440",
        "name:bg": "\u041f\u043e\u0434\u0433\u0443\u043c\u0435\u0440",
        "name:en": "Podgumer",
        "name:prefix": "\u0437\u0435\u043c\u043b\u0438\u0449\u0435",
        "type": "boundary",
        "wikidata": "Q2461039",
        "parent_id": "3759436"
      }
    },
    {
      "type": "rel",
      "id": 17758558,
      "tags": {
        "admin_level": "8",
        "boundary": "administrative",
        "ekatte": "00357",
        "name": "\u041d\u043e\u0432\u0438 \u0418\u0441\u043a\u044a\u0440",
        "name:bg": "\u041d\u043e\u0432\u0438 \u0418\u0441\u043a\u044a\u0440",
        "name:en": "Novi Iskar",
        "type": "boundary",
        "wikidata": "Q2670226",
        "parent_id": "3759436"
      }
    },
    {
      "type": "rel",
      "id": 17758604,
      "tags": {
        "admin_level": "8",
        "boundary": "administrative",
        "ekatte": "41010",
        "name": "\u041a\u044a\u0442\u0438\u043d\u0430",
        "name:bg": "\u041a\u044a\u0442\u0438\u043d\u0430",
        "name:en": "Katina",
        "name:prefix": "\u0437\u0435\u043c\u043b\u0438\u0449\u0435",
        "type": "boundary",
        "wikidata": "Q2459330",
        "parent_id": "3759436"
      }
    },
    {
      "type": "rel",
      "id": 4283101,
      "tags": {
        "admin_level": "8",
        "boundary": "administrative",
        "capital": "yes",
        "ekatte": "68134",
        "int_name": "Sofia",
        "name": "\u0421\u043e\u0444\u0438\u044f",
        "name:bg": "\u0421\u043e\u0444\u0438\u044f",
        "name:ca": "Sofia",
        "name:fr": "Sofia",
        "name:prefix": "\u0437\u0435\u043c\u043b\u0438\u0449\u0435",
        "type": "boundary",
        "wikidata": "Q472",
        "wikipedia": "bg:\u0421\u043e\u0444\u0438\u044f",
        "parent_id": "3759439"
      }
    },
    {
      "type": "rel",
      "id": 17755316,
      "tags": {
        "admin_level": "8",
        "boundary": "administrative",
        "ekatte": "07106",
        "name": "\u0411\u0443\u0441\u043c\u0430\u043d\u0446\u0438",
        "name:bg": "\u0411\u0443\u0441\u043c\u0430\u043d\u0446\u0438",
        "name:en": "Busmantsi",
        "name:prefix": "\u0437\u0435\u043c\u043b\u0438\u0449\u0435",
        "type": "boundary",
        "wikidata": "Q2653338",
        "parent_id": "3759439"
      }
    },
    {
      "type": "rel",
      "id": 17755317,
      "tags": {
        "admin_level": "8",
        "boundary": "administrative",
        "ekatte": "39791",
        "name": "\u041a\u0440\u0438\u0432\u0438\u043d\u0430",
        "name:bg": "\u041a\u0440\u0438\u0432\u0438\u043d\u0430",
        "name:en": "Krivina",
        "name:prefix": "\u0437\u0435\u043c\u043b\u0438\u0449\u0435",
        "type": "boundary",
        "wikidata": "Q2017167",
        "parent_id": "3759439"
      }
    },
    {
      "type": "rel",
      "id": 17755318,
      "tags": {
        "admin_level": "8",
        "boundary": "administrative",
        "ekatte": "35239",
        "name": "\u041a\u0430\u0437\u0438\u0447\u0435\u043d\u0435",
        "name:bg": "\u041a\u0430\u0437\u0438\u0447\u0435\u043d\u0435",
        "name:en": "Kazichene",
        "name:prefix": "\u0437\u0435\u043c\u043b\u0438\u0449\u0435",
        "type": "boundary",
        "wikidata": "Q2653741",
        "parent_id": "3759439"
      }
    },
    {
      "type": "rel",
      "id": 17759455,
      "tags": {
        "admin_level": "8",
        "boundary": "administrative",
        "ekatte": "44063",
        "name": "\u041b\u043e\u0437\u0435\u043d",
        "name:bg": "\u041b\u043e\u0437\u0435\u043d",
        "name:en": "Lozen",
        "name:prefix": "\u0437\u0435\u043c\u043b\u0438\u0449\u0435",
        "type": "boundary",
        "wikidata": "Q2459374",
        "parent_id": "3759439"
      }
    },
    {
      "type": "rel",
      "id": 17759509,
      "tags": {
        "admin_level": "8",
        "boundary": "administrative",
        "ekatte": "22472",
        "name": "\u0414\u043e\u043b\u043d\u0438 \u041f\u0430\u0441\u0430\u0440\u0435\u043b",
        "name:bg": "\u0414\u043e\u043b\u043d\u0438 \u041f\u0430\u0441\u0430\u0440\u0435\u043b",
        "name:en": "Dolni Pasarel",
        "name:prefix": "\u0437\u0435\u043c\u043b\u0438\u0449\u0435",
        "type": "boundary",
        "wikidata": "Q2014799",
        "parent_id": "3759439"
      }
    },
    {
      "type": "rel",
      "id": 17759542,
      "tags": {
        "admin_level": "8",
        "boundary": "administrative",
        "ekatte": "56624",
        "name": "\u041f\u043b\u0430\u043d\u0430",
        "name:bg": "\u041f\u043b\u0430\u043d\u0430",
        "name:en": "Plana",
        "name:prefix": "\u0437\u0435\u043c\u043b\u0438\u0449\u0435",
        "type": "boundary",
        "wikidata": "Q2461691",
        "parent_id": "3759439"
      }
    },
    {
      "type": "rel",
      "id": 17759567,
      "tags": {
        "admin_level": "8",
        "boundary": "administrative",
        "ekatte": "29150",
        "name": "\u0416\u0435\u043b\u0435\u0437\u043d\u0438\u0446\u0430",
        "name:bg": "\u0416\u0435\u043b\u0435\u0437\u043d\u0438\u0446\u0430",
        "type": "boundary",
        "wikidata": "Q2016580",
        "parent_id": "3759439"
      }
    },
    {
      "type": "rel",
      "id": 17759653,
      "tags": {
        "admin_level": "8",
        "boundary": "administrative",
        "ekatte": "04234",
        "name": "\u0411\u0438\u0441\u0442\u0440\u0438\u0446\u0430",
        "name:bg": "\u0411\u0438\u0441\u0442\u0440\u0438\u0446\u0430",
        "name:en": "Bistritsa",
        "type": "boundary",
        "wikidata": "Q3394212",
        "parent_id": "3759439"
      }
    },
    {
      "type": "rel",
      "id": 17759791,
      "tags": {
        "admin_level": "8",
        "boundary": "administrative",
        "ekatte": "14831",
        "name": "\u0413\u0435\u0440\u043c\u0430\u043d",
        "name:bg": "\u0413\u0435\u0440\u043c\u0430\u043d",
        "name:en": "German",
        "name:prefix": "\u0437\u0435\u043c\u043b\u0438\u0449\u0435",
        "type": "boundary",
        "wikidata": "Q2990861",
        "parent_id": "3759439"
      }
    },
    {
      "type": "rel",
      "id": 17759935,
      "tags": {
        "admin_level": "8",
        "boundary": "administrative",
        "ekatte": "55419",
        "name": "\u041f\u0430\u043d\u0447\u0430\u0440\u0435\u0432\u043e",
        "name:bg": "\u041f\u0430\u043d\u0447\u0430\u0440\u0435\u0432\u043e",
        "name:en": "Pancharevo",
        "type": "boundary",
        "wikidata": "Q40353629",
        "parent_id": "3759439"
      }
    },
    {
      "type": "rel",
      "id": 17759936,
      "tags": {
        "admin_level": "8",
        "boundary": "administrative",
        "ekatte": "37914",
        "name": "\u041a\u043e\u043a\u0430\u043b\u044f\u043d\u0435",
        "name:bg": "\u041a\u043e\u043a\u0430\u043b\u044f\u043d\u0435",
        "name:en": "Kokalyane",
        "type": "boundary",
        "wikidata": "Q2653811",
        "parent_id": "3759439"
      }
    },
    {
      "type": "rel",
      "id": 17759043,
      "tags": {
        "admin_level": "8",
        "boundary": "administrative",
        "ekatte": "32216",
        "name": "\u0418\u0432\u0430\u043d\u044f\u043d\u0435",
        "name:bg": "\u0418\u0432\u0430\u043d\u044f\u043d\u0435",
        "name:en": "Ivanyane",
        "name:prefix": "\u0437\u0435\u043c\u043b\u0438\u0449\u0435",
        "type": "boundary",
        "wikidata": "Q2457432",
        "parent_id": "3759425"
      }
    },
    {
      "type": "rel",
      "id": 17759044,
      "tags": {
        "admin_level": "8",
        "boundary": "administrative",
        "ekatte": "02659",
        "name": "\u0411\u0430\u043d\u043a\u044f",
        "name:bg": "\u0411\u0430\u043d\u043a\u044f",
        "name:en": "Bankya",
        "name:prefix": "\u0437\u0435\u043c\u043b\u0438\u0449\u0435",
        "type": "boundary",
        "wikidata": "Q806817",
        "parent_id": "3759425"
      }
    },
    {
      "type": "rel",
      "id": 17759045,
      "tags": {
        "admin_level": "8",
        "boundary": "administrative",
        "ekatte": "37280",
        "name": "\u041a\u043b\u0438\u0441\u0443\u0440\u0430",
        "name:bg": "\u041a\u043b\u0438\u0441\u0443\u0440\u0430",
        "name:en": "Klisura",
        "name:prefix": "\u0437\u0435\u043c\u043b\u0438\u0449\u0435",
        "type": "boundary",
        "wikidata": "Q2458417",
        "parent_id": "3759425"
      }
    },
    {
      "type": "rel",
      "id": 4283101,
      "tags": {
        "admin_level": "8",
        "boundary": "administrative",
        "capital": "yes",
        "ekatte": "68134",
        "int_name": "Sofia",
        "name": "\u0421\u043e\u0444\u0438\u044f",
        "name:bg": "\u0421\u043e\u0444\u0438\u044f",
        "name:ca": "Sofia",
        "name:fr": "Sofia",
        "name:prefix": "\u0437\u0435\u043c\u043b\u0438\u0449\u0435",
        "type": "boundary",
        "wikidata": "Q472",
        "wikipedia": "bg:\u0421\u043e\u0444\u0438\u044f",
        "parent_id": "3759447"
      }
    },
    {
      "type": "rel",
      "id": 17759284,
      "tags": {
        "admin_level": "8",
        "boundary": "administrative",
        "ekatte": "11394",
        "name": "\u0412\u043b\u0430\u0434\u0430\u044f",
        "name:bg": "\u0412\u043b\u0430\u0434\u0430\u044f",
        "name:en": "Vladaya",
        "name:prefix": "\u0437\u0435\u043c\u043b\u0438\u0449\u0435",
        "type": "boundary",
        "wikidata": "Q2653459",
        "parent_id": "3759447"
      }
    },
    {
      "type": "rel",
      "id": 17759285,
      "tags": {
        "admin_level": "8",
        "boundary": "administrative",
        "ekatte": "49597",
        "name": "\u041c\u044a\u0440\u0447\u0430\u0435\u0432\u043e",
        "name:bg": "\u041c\u044a\u0440\u0447\u0430\u0435\u0432\u043e",
        "name:en": "Marchaevo",
        "name:prefix": "\u0437\u0435\u043c\u043b\u0438\u0449\u0435",
        "type": "boundary",
        "wikidata": "Q2653984",
        "parent_id": "3759447"
      }
    },
    {
      "type": "rel",
      "id": 4283101,
      "tags": {
        "admin_level": "8",
        "boundary": "administrative",
        "capital": "yes",
        "ekatte": "68134",
        "int_name": "Sofia",
        "name": "\u0421\u043e\u0444\u0438\u044f",
        "name:bg": "\u0421\u043e\u0444\u0438\u044f",
        "name:ca": "Sofia",
        "name:fr": "Sofia",
        "name:prefix": "\u0437\u0435\u043c\u043b\u0438\u0449\u0435",
        "type": "boundary",
        "wikidata": "Q472",
        "wikipedia": "bg:\u0421\u043e\u0444\u0438\u044f",
        "parent_id": "3759438"
      }
    },
    {
      "type": "rel",
      "id": 17759231,
      "tags": {
        "admin_level": "8",
        "boundary": "administrative",
        "ekatte": "46721",
        "name": "\u041c\u0430\u043b\u043e \u0411\u0443\u0447\u0438\u043d\u043e",
        "name:bg": "\u041c\u0430\u043b\u043e \u0411\u0443\u0447\u0438\u043d\u043e",
        "name:en": "Malo Buchino",
        "type": "boundary",
        "wikidata": "Q8014943",
        "parent_id": "3759438"
      }
    },
    {
      "type": "rel",
      "id": 4283101,
      "tags": {
        "admin_level": "8",
        "boundary": "administrative",
        "capital": "yes",
        "ekatte": "68134",
        "int_name": "Sofia",
        "name": "\u0421\u043e\u0444\u0438\u044f",
        "name:bg": "\u0421\u043e\u0444\u0438\u044f",
        "name:ca": "Sofia",
        "name:fr": "Sofia",
        "name:prefix": "\u0437\u0435\u043c\u043b\u0438\u0449\u0435",
        "type": "boundary",
        "wikidata": "Q472",
        "wikipedia": "bg:\u0421\u043e\u0444\u0438\u044f",
        "parent_id": "3759448"
      }
    },
    {
      "type": "rel",
      "id": 17757663,
      "tags": {
        "admin_level": "8",
        "boundary": "administrative",
        "ekatte": "12084",
        "name": "\u0412\u043e\u043b\u0443\u044f\u043a",
        "name:bg": "\u0412\u043e\u043b\u0443\u044f\u043a",
        "name:en": "Voluyak",
        "name:prefix": "\u0437\u0435\u043c\u043b\u0438\u0449\u0435",
        "type": "boundary",
        "wikidata": "Q2455639",
        "parent_id": "3759448"
      }
    },
    {
      "type": "rel",
      "id": 17757664,
      "tags": {
        "admin_level": "8",
        "boundary": "administrative",
        "ekatte": "49206",
        "name": "\u041c\u0440\u0430\u043c\u043e\u0440",
        "name:bg": "\u041c\u0440\u0430\u043c\u043e\u0440",
        "name:en": "Mramor",
        "name:prefix": "\u0437\u0435\u043c\u043b\u0438\u0449\u0435",
        "type": "boundary",
        "wikidata": "Q2019585",
        "parent_id": "3759448"
      }
    },
    {
      "type": "rel",
      "id": 4283101,
      "tags": {
        "admin_level": "8",
        "boundary": "administrative",
        "capital": "yes",
        "ekatte": "68134",
        "int_name": "Sofia",
        "name": "\u0421\u043e\u0444\u0438\u044f",
        "name:bg": "\u0421\u043e\u0444\u0438\u044f",
        "name:ca": "Sofia",
        "name:fr": "Sofia",
        "name:prefix": "\u0437\u0435\u043c\u043b\u0438\u0449\u0435",
        "type": "boundary",
        "wikidata": "Q472",
        "wikipedia": "bg:\u0421\u043e\u0444\u0438\u044f",
        "parent_id": "3759427"
      }
    },
    {
      "type": "rel",
      "id": 17755316,
      "tags": {
        "admin_level": "8",
        "boundary": "administrative",
        "ekatte": "07106",
        "name": "\u0411\u0443\u0441\u043c\u0430\u043d\u0446\u0438",
        "name:bg": "\u0411\u0443\u0441\u043c\u0430\u043d\u0446\u0438",
        "name:en": "Busmantsi",
        "name:prefix": "\u0437\u0435\u043c\u043b\u0438\u0449\u0435",
        "type": "boundary",
        "wikidata": "Q2653338",
        "parent_id": "3759427"
      }
    },
    {
      "type": "rel",
      "id": 17755317,
      "tags": {
        "admin_level": "8",
        "boundary": "administrative",
        "ekatte": "39791",
        "name": "\u041a\u0440\u0438\u0432\u0438\u043d\u0430",
        "name:bg": "\u041a\u0440\u0438\u0432\u0438\u043d\u0430",
        "name:en": "Krivina",
        "name:prefix": "\u0437\u0435\u043c\u043b\u0438\u0449\u0435",
        "type": "boundary",
        "wikidata": "Q2017167",
        "parent_id": "3759427"
      }
    },
    {
      "type": "rel",
      "id": 17755318,
      "tags": {
        "admin_level": "8",
        "boundary": "administrative",
        "ekatte": "35239",
        "name": "\u041a\u0430\u0437\u0438\u0447\u0435\u043d\u0435",
        "name:bg": "\u041a\u0430\u0437\u0438\u0447\u0435\u043d\u0435",
        "name:en": "Kazichene",
        "name:prefix": "\u0437\u0435\u043c\u043b\u0438\u0449\u0435",
        "type": "boundary",
        "wikidata": "Q2653741",
        "parent_id": "3759427"
      }
    },
    {
      "type": "rel",
      "id": 17759455,
      "tags": {
        "admin_level": "8",
        "boundary": "administrative",
        "ekatte": "44063",
        "name": "\u041b\u043e\u0437\u0435\u043d",
        "name:bg": "\u041b\u043e\u0437\u0435\u043d",
        "name:en": "Lozen",
        "name:prefix": "\u0437\u0435\u043c\u043b\u0438\u0449\u0435",
        "type": "boundary",
        "wikidata": "Q2459374",
        "parent_id": "3759427"
      }
    },
    {
      "type": "rel",
      "id": 4283101,
      "tags": {
        "admin_level": "8",
        "boundary": "administrative",
        "capital": "yes",
        "ekatte": "68134",
        "int_name": "Sofia",
        "name": "\u0421\u043e\u0444\u0438\u044f",
        "name:bg": "\u0421\u043e\u0444\u0438\u044f",
        "name:ca": "Sofia",
        "name:fr": "Sofia",
        "name:prefix": "\u0437\u0435\u043c\u043b\u0438\u0449\u0435",
        "type": "boundary",
        "wikidata": "Q472",
        "wikipedia": "bg:\u0421\u043e\u0444\u0438\u044f",
        "parent_id": "3759443"
      }
    },
    {
      "type": "rel",
      "id": 13477567,
      "tags": {
        "admin_level": "8",
        "boundary": "administrative",
        "ekatte": "10135",
        "name": "\u0412\u0430\u0440\u043d\u0430",
        "name:bg": "\u0412\u0430\u0440\u043d\u0430",
        "name:en": "Varna",
        "name:fr": "Varna",
        "name:prefix": "\u0437\u0435\u043c\u043b\u0438\u0449\u0435",
        "name:prefix:bg": "\u0437\u0435\u043c\u043b\u0438\u0449\u0435",
        "type": "boundary",
        "wikidata": "Q6506",
        "wikipedia": "fr:Varna (Bulgarie)",
        "parent_id": "16951188"
      }
    }
  ]
}